,index,Date/Time,Temp_C,Dew Point Temp_C,Rel Hum_%,Wind Speed_km/h,Visibility_km,Press_kPa,Weather
0,16,1/1/2012 16:00,2.6,-0.2,82,13,12.9,99.93,Mostly Cloudy
1,26,1/2/2012 2:00,3.9,-0.9,71,32,25.0,99.31500000000001,Mostly Cloudy
2,27,1/2/2012 3:00,3.7,-1.5,69,33,25.0,99.31500000000001,Mostly Cloudy
3,28,1/2/2012 4:00,2.9,-2.3,69,32,25.0,99.31500000000001,Mostly Cloudy
4,29,1/2/2012 5:00,2.6,-2.3,70,32,25.0,99.31500000000001,Mostly Cloudy
5,30,1/2/2012 6:00,2.3,-2.6,70,26,25.0,99.31500000000001,Mostly Cloudy
6,31,1/2/2012 7:00,2.0,-2.9,70,33,25.0,99.31500000000001,Mostly Cloudy
7,32,1/2/2012 8:00,1.9,-3.3,68,15,24.1,99.31500000000001,Mostly Cloudy
8,33,1/2/2012 9:00,1.8,-3.7,67,15,24.1,99.31500000000001,Mostly Cloudy
9,34,1/2/2012 10:00,1.5,-4.1,66,15,24.1,99.31500000000001,Mostly Cloudy
10,35,1/2/2012 11:00,2.2,-3.5,66,30,24.1,99.31500000000001,Mostly Cloudy
11,36,1/2/2012 12:00,1.7,-6.2,56,15,24.1,99.31500000000001,Mainly Clear
12,37,1/2/2012 13:00,1.1,-6.5,57,15,24.1,99.31500000000001,Mostly Cloudy
13,38,1/2/2012 14:00,1.1,-6.8,56,33,24.1,99.33,Mostly Cloudy
14,39,1/2/2012 15:00,0.0,-7.0,59,33,24.1,99.41,Mostly Cloudy
15,40,1/2/2012 16:00,-0.7,-8.7,55,24,24.1,99.5,Mostly Cloudy
16,42,1/2/2012 18:00,-4.1,-11.4,57,28,25.0,99.86,Mostly Cloudy
17,43,1/2/2012 19:00,-4.8,-12.1,57,24,25.0,100.0,Mostly Cloudy
18,56,1/3/2012 8:00,-14.8,-21.3,58,26,24.1,101.07,Mostly Cloudy
19,57,1/3/2012 9:00,-15.0,-21.9,56,19,24.1,101.2,Mostly Cloudy
20,59,1/3/2012 11:00,-14.9,-22.2,54,22,24.1,101.33,Mostly Cloudy
21,60,1/3/2012 12:00,-14.9,-22.6,52,20,24.1,101.34,Mainly Clear
22,61,1/3/2012 13:00,-15.1,-22.4,54,22,24.1,101.34,Mainly Clear
23,62,1/3/2012 14:00,-14.9,-22.9,50,22,24.1,101.38,Mainly Clear
24,63,1/3/2012 15:00,-14.8,-22.2,53,19,24.1,101.44,Mainly Clear
25,64,1/3/2012 16:00,-15.3,-22.9,52,22,24.1,101.51,Mainly Clear
26,65,1/3/2012 17:00,-15.8,-23.2,53,22,24.1,101.58,Mainly Clear
27,66,1/3/2012 18:00,-16.3,-23.8,52,24,25.0,101.64,Mainly Clear
28,68,1/3/2012 20:00,-17.3,-25.4,49,24,25.0,101.82,Mainly Clear
29,69,1/3/2012 21:00,-17.0,-24.6,52,15,25.0,101.86,Mostly Cloudy
30,70,1/3/2012 22:00,-17.1,-24.6,52,20,25.0,101.86,Mostly Cloudy
31,71,1/3/2012 23:00,-17.3,-24.2,55,17,25.0,101.87,Mostly Cloudy
32,72,1/4/2012 0:00,-17.5,-24.2,56,13,25.0,101.88,Mostly Cloudy
33,73,1/4/2012 1:00,-17.9,-24.1,58,11,25.0,101.86,Mainly Clear
34,74,1/4/2012 2:00,-18.1,-23.8,61,15,25.0,101.89,Mainly Clear
35,75,1/4/2012 3:00,-18.5,-24.6,59,13,25.0,101.88,Mainly Clear
36,76,1/4/2012 4:00,-18.5,-24.6,59,13,25.0,101.82,Mainly Clear
37,77,1/4/2012 5:00,-18.6,-24.0,62,9,25.0,101.77,Mainly Clear
38,80,1/4/2012 8:00,-17.8,-24.2,57,17,24.1,101.73,Mostly Cloudy
39,81,1/4/2012 9:00,-16.8,-22.5,61,9,24.1,101.68,Mostly Cloudy
40,82,1/4/2012 10:00,-15.2,-20.6,63,7,24.1,101.54,Mostly Cloudy
41,83,1/4/2012 11:00,-14.2,-21.1,56,13,24.1,101.41,Mostly Cloudy
42,105,1/5/2012 9:00,-6.6,-10.1,76,9,24.1,100.42,Mainly Clear
43,106,1/5/2012 10:00,-6.0,-10.0,73,17,48.3,100.45,Mainly Clear
44,107,1/5/2012 11:00,-5.6,-10.2,70,22,48.3,100.41,Mainly Clear
45,108,1/5/2012 12:00,-4.7,-9.6,69,20,48.3,100.38,Mainly Clear
46,109,1/5/2012 13:00,-4.4,-9.7,66,26,48.3,100.4,Mainly Clear
47,110,1/5/2012 14:00,-5.1,-10.7,65,22,48.3,100.46,Mainly Clear
48,111,1/5/2012 15:00,-4.3,-12.0,55,26,48.3,100.52,Mainly Clear
49,112,1/5/2012 16:00,-5.0,-12.7,55,19,24.1,100.6,Mainly Clear
50,113,1/5/2012 17:00,-6.7,-14.1,56,11,25.0,100.65,Mainly Clear
51,169,1/8/2012 1:00,-0.6,-4.6,74,32,25.0,100.8,Mostly Cloudy
52,170,1/8/2012 2:00,-1.7,-6.2,71,30,25.0,100.98,Mostly Cloudy
53,171,1/8/2012 3:00,-3.5,-8.3,69,32,25.0,101.13,Mainly Clear
54,172,1/8/2012 4:00,-4.4,-9.2,69,22,25.0,101.21,Mainly Clear
55,173,1/8/2012 5:00,-5.9,-10.5,70,13,25.0,101.33,Mainly Clear
56,182,1/8/2012 14:00,-6.5,-12.0,65,19,24.1,101.97,Mostly Cloudy
57,183,1/8/2012 15:00,-6.6,-12.9,61,20,48.3,102.04,Mostly Cloudy
58,184,1/8/2012 16:00,-6.6,-13.3,59,20,24.1,102.09,Mostly Cloudy
59,185,1/8/2012 17:00,-7.2,-13.8,59,17,25.0,102.17,Mainly Clear
60,186,1/8/2012 18:00,-8.1,-14.1,62,17,25.0,102.23,Mainly Clear
61,187,1/8/2012 19:00,-8.0,-13.9,62,15,25.0,102.26,Mostly Cloudy
62,188,1/8/2012 20:00,-8.3,-13.7,65,15,25.0,102.28,Mostly Cloudy
63,189,1/8/2012 21:00,-8.3,-13.9,64,11,25.0,102.26,Mostly Cloudy
64,190,1/8/2012 22:00,-8.7,-14.0,65,7,25.0,102.22,Mostly Cloudy
65,191,1/8/2012 23:00,-9.0,-13.9,68,7,25.0,102.22,Mostly Cloudy
66,192,1/9/2012 0:00,-9.2,-14.3,66,6,25.0,102.17,Mostly Cloudy
67,193,1/9/2012 1:00,-9.8,-14.5,68,0,25.0,102.13,Mostly Cloudy
68,194,1/9/2012 2:00,-9.0,-14.1,66,4,25.0,102.15,Mostly Cloudy
69,199,1/9/2012 7:00,-6.8,-11.0,72,15,25.0,101.8,Mostly Cloudy
70,207,1/9/2012 15:00,-1.0,-5.1,74,9,24.1,101.13,Mostly Cloudy
71,208,1/9/2012 16:00,-1.3,-5.7,72,11,24.1,101.05,Mostly Cloudy
72,209,1/9/2012 17:00,-1.4,-5.8,72,15,24.1,100.96,Mostly Cloudy
73,210,1/9/2012 18:00,-1.0,-5.6,71,20,25.0,100.9,Mostly Cloudy
74,211,1/9/2012 19:00,-1.1,-5.8,70,19,25.0,100.83,Mostly Cloudy
75,212,1/9/2012 20:00,-1.5,-6.2,70,15,25.0,100.77,Mostly Cloudy
76,213,1/9/2012 21:00,-1.7,-6.3,71,11,25.0,100.64,Mostly Cloudy
77,214,1/9/2012 22:00,-0.3,-6.3,64,19,25.0,100.54,Mostly Cloudy
78,226,1/10/2012 10:00,2.0,-0.9,81,24,24.1,100.27,Mostly Cloudy
79,227,1/10/2012 11:00,2.6,-1.1,77,22,24.1,100.29,Mainly Clear
80,228,1/10/2012 12:00,1.4,-3.1,72,30,24.1,100.32,Mostly Cloudy
81,229,1/10/2012 13:00,0.7,-5.4,64,26,24.1,100.36,Mostly Cloudy
82,230,1/10/2012 14:00,-0.2,-6.2,64,26,24.1,100.45,Mainly Clear
83,231,1/10/2012 15:00,-1.4,-7.9,61,30,24.1,100.65,Mainly Clear
84,232,1/10/2012 16:00,-3.1,-10.9,55,30,24.1,100.81,Mostly Cloudy
85,233,1/10/2012 17:00,-4.0,-12.0,54,17,24.1,100.91,Mostly Cloudy
86,234,1/10/2012 18:00,-4.9,-12.7,54,15,25.0,101.04,Mostly Cloudy
87,235,1/10/2012 19:00,-5.7,-13.8,53,15,25.0,101.15,Mostly Cloudy
88,236,1/10/2012 20:00,-6.4,-14.3,53,13,25.0,101.24,Mostly Cloudy
89,237,1/10/2012 21:00,-6.6,-13.6,57,9,25.0,101.32,Mostly Cloudy
90,238,1/10/2012 22:00,-7.3,-14.7,55,13,25.0,101.34,Mostly Cloudy
91,239,1/10/2012 23:00,-8.6,-15.6,57,19,25.0,101.44,Mostly Cloudy
92,240,1/11/2012 0:00,-9.5,-16.8,55,17,25.0,101.43,Mostly Cloudy
93,245,1/11/2012 5:00,-13.9,-21.0,55,19,25.0,101.66,Mainly Clear
94,246,1/11/2012 6:00,-14.4,-21.1,57,20,25.0,101.72,Mainly Clear
95,247,1/11/2012 7:00,-14.4,-21.0,57,13,25.0,101.77,Mostly Cloudy
96,248,1/11/2012 8:00,-14.7,-21.4,57,15,24.1,101.8,Mostly Cloudy
97,249,1/11/2012 9:00,-14.3,-20.8,58,15,24.1,101.81,Mostly Cloudy
98,251,1/11/2012 11:00,-13.4,-20.8,54,15,24.1,101.78,Mostly Cloudy
99,253,1/11/2012 13:00,-12.2,-20.0,52,19,24.1,101.63,Mostly Cloudy
100,254,1/11/2012 14:00,-11.4,-19.4,52,20,24.1,101.56,Mostly Cloudy
101,255,1/11/2012 15:00,-11.6,-19.9,50,20,24.1,101.61,Mostly Cloudy
102,256,1/11/2012 16:00,-11.8,-20.9,47,20,24.1,101.6,Mostly Cloudy
103,257,1/11/2012 17:00,-11.9,-20.1,51,26,24.1,101.56,Mostly Cloudy
104,258,1/11/2012 18:00,-12.0,-19.9,52,24,25.0,101.51,Mostly Cloudy
105,259,1/11/2012 19:00,-11.8,-19.2,54,30,25.0,101.43,Mostly Cloudy
106,263,1/11/2012 23:00,-10.7,-15.7,67,20,25.0,101.19,Mostly Cloudy
107,264,1/12/2012 0:00,-10.0,-15.2,66,19,25.0,101.17,Mostly Cloudy
108,265,1/12/2012 1:00,-9.8,-15.2,65,24,25.0,101.13,Mostly Cloudy
109,319,1/14/2012 7:00,-16.8,-22.2,63,26,25.0,100.73,Mostly Cloudy
110,320,1/14/2012 8:00,-17.9,-23.5,62,20,24.1,100.84,Mostly Cloudy
111,322,1/14/2012 10:00,-18.0,-23.9,60,22,24.1,101.08,Mostly Cloudy
112,323,1/14/2012 11:00,-17.8,-23.9,59,20,24.1,101.14,Mostly Cloudy
113,324,1/14/2012 12:00,-17.5,-23.8,58,20,48.3,101.16,Mostly Cloudy
114,325,1/14/2012 13:00,-17.1,-24.1,55,17,48.3,101.18,Mainly Clear
115,326,1/14/2012 14:00,-16.7,-23.4,56,17,48.3,101.2,Mostly Cloudy
116,327,1/14/2012 15:00,-16.7,-23.4,56,22,48.3,101.24,Mostly Cloudy
117,328,1/14/2012 16:00,-16.7,-24.3,52,19,24.1,101.3,Mostly Cloudy
118,329,1/14/2012 17:00,-17.4,-24.4,54,13,25.0,101.36,Mostly Cloudy
119,330,1/14/2012 18:00,-17.7,-24.3,56,20,25.0,101.46,Mainly Clear
120,331,1/14/2012 19:00,-18.3,-24.4,59,17,25.0,101.56,Mainly Clear
121,332,1/14/2012 20:00,-19.6,-25.8,58,13,25.0,101.62,Mainly Clear
122,333,1/14/2012 21:00,-20.0,-25.9,59,11,25.0,101.65,Mostly Cloudy
123,334,1/14/2012 22:00,-19.9,-26.0,58,13,25.0,101.74,Mostly Cloudy
124,335,1/14/2012 23:00,-20.3,-26.2,59,9,25.0,101.79,Mostly Cloudy
125,341,1/15/2012 5:00,-21.3,-26.5,63,6,25.0,102.19,Mostly Cloudy
126,342,1/15/2012 6:00,-23.2,-28.5,62,7,25.0,102.28,Mostly Cloudy
127,343,1/15/2012 7:00,-22.8,-28.0,62,9,25.0,102.37,Mainly Clear
128,345,1/15/2012 9:00,-22.2,-27.8,60,9,48.3,102.57,Mainly Clear
129,346,1/15/2012 10:00,-20.6,-26.8,58,9,48.3,102.66,Mainly Clear
130,347,1/15/2012 11:00,-19.3,-26.1,55,9,48.3,102.68,Mainly Clear
131,348,1/15/2012 12:00,-18.0,-25.5,52,13,48.3,102.67,Mainly Clear
132,349,1/15/2012 13:00,-16.8,-24.2,53,20,48.3,102.65,Mainly Clear
133,350,1/15/2012 14:00,-16.0,-23.4,53,26,48.3,102.66,Mainly Clear
134,367,1/16/2012 7:00,-17.9,-21.5,73,4,48.3,102.955,Mainly Clear
135,368,1/16/2012 8:00,-17.9,-22.6,67,9,48.3,102.9,Mostly Cloudy
136,370,1/16/2012 10:00,-13.6,-18.7,65,19,48.3,102.62,Mostly Cloudy
137,371,1/16/2012 11:00,-12.7,-17.7,66,20,48.3,102.44,Mostly Cloudy
138,372,1/16/2012 12:00,-10.7,-16.9,60,19,48.3,102.17,Mostly Cloudy
139,374,1/16/2012 14:00,-9.0,-13.8,68,13,48.3,101.71,Mostly Cloudy
140,377,1/16/2012 17:00,-7.6,-14.8,56,4,25.0,101.34,Mostly Cloudy
141,378,1/16/2012 18:00,-12.5,-17.5,66,15,25.0,101.31,Mainly Clear
142,379,1/16/2012 19:00,-14.8,-19.1,70,15,25.0,101.23,Mainly Clear
143,409,1/18/2012 1:00,3.7,-2.1,66,15,25.0,99.31500000000001,Mostly Cloudy
144,410,1/18/2012 2:00,0.5,-4.0,72,15,25.0,99.31500000000001,Mostly Cloudy
145,411,1/18/2012 3:00,-3.5,-8.2,70,15,25.0,99.31500000000001,Mostly Cloudy
146,414,1/18/2012 6:00,-8.5,-13.9,65,15,19.3,100.0,Mostly Cloudy
147,415,1/18/2012 7:00,-9.8,-15.4,64,15,19.3,100.22,Mainly Clear
148,416,1/18/2012 8:00,-10.9,-16.6,63,35,24.1,100.43,Mainly Clear
149,417,1/18/2012 9:00,-11.2,-17.2,61,15,24.1,100.65,Mainly Clear
150,418,1/18/2012 10:00,-11.2,-17.2,61,35,24.1,100.78,Mainly Clear
151,419,1/18/2012 11:00,-11.1,-17.7,58,15,24.1,100.92,Mainly Clear
152,420,1/18/2012 12:00,-11.0,-17.8,57,15,24.1,101.0,Mainly Clear
153,421,1/18/2012 13:00,-10.6,-17.8,55,32,24.1,101.09,Mainly Clear
154,422,1/18/2012 14:00,-10.3,-17.6,55,28,48.3,101.19,Mainly Clear
155,423,1/18/2012 15:00,-10.4,-18.0,54,30,48.3,101.32,Mainly Clear
156,424,1/18/2012 16:00,-10.6,-18.4,53,26,48.3,101.45,Mainly Clear
157,442,1/19/2012 10:00,-11.7,-17.2,64,20,48.3,101.68,Mainly Clear
158,443,1/19/2012 11:00,-11.0,-16.9,62,26,48.3,101.56,Mostly Cloudy
159,444,1/19/2012 12:00,-8.8,-15.4,59,15,48.3,101.42,Mostly Cloudy
160,445,1/19/2012 13:00,-7.3,-14.7,55,20,48.3,101.22,Mostly Cloudy
161,446,1/19/2012 14:00,-7.0,-14.9,53,20,48.3,101.03,Mostly Cloudy
162,456,1/20/2012 0:00,-4.1,-8.6,71,26,25.0,100.5,Mostly Cloudy
163,459,1/20/2012 3:00,-4.8,-9.9,67,19,25.0,100.75,Mostly Cloudy
164,463,1/20/2012 7:00,-8.6,-15.6,57,28,25.0,101.27,Mostly Cloudy
165,464,1/20/2012 8:00,-10.4,-16.2,62,33,24.1,101.47,Mainly Clear
166,466,1/20/2012 10:00,-13.7,-20.3,57,33,24.1,101.72,Mainly Clear
167,470,1/20/2012 14:00,-15.5,-24.1,48,30,48.3,101.98,Mainly Clear
168,471,1/20/2012 15:00,-15.0,-23.9,47,30,48.3,102.09,Mainly Clear
169,472,1/20/2012 16:00,-14.8,-24.1,45,24,48.3,102.15,Mainly Clear
170,473,1/20/2012 17:00,-15.4,-24.3,46,17,48.3,102.21,Mainly Clear
171,474,1/20/2012 18:00,-15.9,-24.3,48,13,25.0,102.27,Mainly Clear
172,475,1/20/2012 19:00,-16.3,-24.2,51,13,25.0,102.33,Mainly Clear
173,476,1/20/2012 20:00,-16.9,-24.8,50,9,25.0,102.34,Mainly Clear
174,477,1/20/2012 21:00,-18.5,-25.6,54,9,25.0,102.37,Mainly Clear
175,478,1/20/2012 22:00,-18.1,-25.1,54,9,25.0,102.36,Mainly Clear
176,479,1/20/2012 23:00,-17.4,-24.5,54,6,25.0,102.37,Mostly Cloudy
177,492,1/21/2012 12:00,-14.6,-20.3,62,15,24.1,102.03,Mostly Cloudy
178,493,1/21/2012 13:00,-13.4,-19.8,59,15,24.1,102.01,Mainly Clear
179,503,1/21/2012 23:00,-17.4,-21.7,69,0,25.0,102.54,Mainly Clear
180,508,1/22/2012 4:00,-17.2,-21.5,69,0,25.0,102.79,Mainly Clear
181,509,1/22/2012 5:00,-19.5,-23.4,71,6,16.1,102.84,Mainly Clear
182,511,1/22/2012 7:00,-18.6,-22.8,69,6,12.9,102.91,Mainly Clear
183,512,1/22/2012 8:00,-18.5,-22.0,74,4,24.1,102.955,Mainly Clear
184,513,1/22/2012 9:00,-16.2,-19.2,78,7,48.3,102.955,Mostly Cloudy
185,522,1/22/2012 18:00,-10.4,-16.1,63,19,19.3,102.52,Mostly Cloudy
186,523,1/22/2012 19:00,-10.4,-16.2,62,19,19.3,102.47,Mostly Cloudy
187,524,1/22/2012 20:00,-12.3,-16.8,69,15,19.3,102.44,Mainly Clear
188,526,1/22/2012 22:00,-13.2,-17.0,73,13,16.1,102.33,Mostly Cloudy
189,527,1/22/2012 23:00,-13.3,-17.1,73,9,16.1,102.28,Mainly Clear
190,528,1/23/2012 0:00,-12.9,-17.0,71,11,25.0,102.22,Mostly Cloudy
191,529,1/23/2012 1:00,-12.9,-17.2,70,11,25.0,102.14,Mainly Clear
192,530,1/23/2012 2:00,-13.2,-17.1,72,13,25.0,102.1,Mostly Cloudy
193,535,1/23/2012 7:00,-8.1,-12.1,73,13,25.0,101.67,Mostly Cloudy
194,536,1/23/2012 8:00,-7.2,-11.1,74,11,24.1,101.69,Mostly Cloudy
195,537,1/23/2012 9:00,-4.9,-9.2,72,11,48.3,101.59,Mostly Cloudy
196,538,1/23/2012 10:00,-3.6,-7.9,72,9,48.3,101.58,Mostly Cloudy
197,560,1/24/2012 8:00,3.0,-1.7,71,28,19.3,100.52,Mostly Cloudy
198,573,1/24/2012 21:00,1.1,-3.0,74,20,25.0,101.11,Mostly Cloudy
199,574,1/24/2012 22:00,1.1,-3.4,72,22,25.0,101.13,Mostly Cloudy
200,577,1/25/2012 1:00,-0.1,-5.2,68,22,25.0,101.26,Mostly Cloudy
201,578,1/25/2012 2:00,-0.4,-5.9,66,20,25.0,101.37,Mostly Cloudy
202,581,1/25/2012 5:00,-1.7,-7.7,64,33,25.0,101.58,Mostly Cloudy
203,582,1/25/2012 6:00,-2.8,-9.0,62,35,25.0,101.66,Mostly Cloudy
204,583,1/25/2012 7:00,-3.9,-10.0,63,15,25.0,101.79,Mostly Cloudy
205,584,1/25/2012 8:00,-4.7,-10.9,62,26,24.1,101.94,Mostly Cloudy
206,586,1/25/2012 10:00,-5.3,-11.4,62,22,24.1,102.09,Mostly Cloudy
207,587,1/25/2012 11:00,-5.3,-11.9,60,19,24.1,102.14,Mostly Cloudy
208,588,1/25/2012 12:00,-5.0,-11.8,59,20,24.1,102.06,Mostly Cloudy
209,589,1/25/2012 13:00,-4.7,-11.7,58,20,24.1,102.01,Mainly Clear
210,590,1/25/2012 14:00,-4.5,-11.0,60,22,24.1,101.98,Mainly Clear
211,591,1/25/2012 15:00,-4.4,-11.2,59,22,24.1,101.94,Mainly Clear
212,592,1/25/2012 16:00,-4.4,-11.3,59,19,24.1,101.96,Mostly Cloudy
213,593,1/25/2012 17:00,-4.8,-11.4,60,20,24.1,102.01,Mainly Clear
214,594,1/25/2012 18:00,-5.1,-11.4,61,11,25.0,102.07,Mainly Clear
215,595,1/25/2012 19:00,-5.4,-11.5,62,13,25.0,102.14,Mostly Cloudy
216,596,1/25/2012 20:00,-4.9,-11.6,59,7,25.0,102.07,Mostly Cloudy
217,597,1/25/2012 21:00,-5.4,-11.1,64,7,25.0,102.01,Mostly Cloudy
218,598,1/25/2012 22:00,-5.5,-11.3,64,0,25.0,101.99,Mostly Cloudy
219,599,1/25/2012 23:00,-5.4,-11.4,63,6,25.0,102.01,Mostly Cloudy
220,600,1/26/2012 0:00,-5.9,-11.7,64,6,25.0,101.99,Mostly Cloudy
221,607,1/26/2012 7:00,-10.6,-14.4,74,6,24.1,102.01,Mainly Clear
222,609,1/26/2012 9:00,-7.9,-12.4,70,11,24.1,102.01,Mainly Clear
223,610,1/26/2012 10:00,-5.7,-12.4,59,11,24.1,102.04,Mainly Clear
224,611,1/26/2012 11:00,-5.0,-12.1,57,7,24.1,102.05,Mainly Clear
225,612,1/26/2012 12:00,-4.6,-12.5,54,11,24.1,101.88,Mainly Clear
226,613,1/26/2012 13:00,-4.0,-12.0,54,15,24.1,101.71,Mostly Cloudy
227,614,1/26/2012 14:00,-3.4,-12.5,49,11,24.1,101.6,Mostly Cloudy
228,615,1/26/2012 15:00,-3.0,-14.1,42,13,24.1,101.53,Mostly Cloudy
229,646,1/27/2012 22:00,-1.5,-4.4,81,19,25.0,99.88,Mostly Cloudy
230,647,1/27/2012 23:00,-1.6,-4.5,81,20,25.0,100.03,Mainly Clear
231,648,1/28/2012 0:00,-1.5,-4.3,81,19,25.0,100.19,Mainly Clear
232,650,1/28/2012 2:00,0.2,-2.6,81,24,25.0,100.49,Mostly Cloudy
233,651,1/28/2012 3:00,0.4,-3.0,78,17,25.0,100.59,Mostly Cloudy
234,652,1/28/2012 4:00,0.1,-3.4,77,15,25.0,100.64,Mostly Cloudy
235,653,1/28/2012 5:00,0.3,-2.7,80,19,25.0,100.72,Mostly Cloudy
236,654,1/28/2012 6:00,-1.7,-5.4,76,9,25.0,100.79,Mostly Cloudy
237,655,1/28/2012 7:00,-1.2,-4.6,78,11,25.0,100.85,Mainly Clear
238,656,1/28/2012 8:00,-2.1,-5.1,80,7,48.3,100.91,Mainly Clear
239,657,1/28/2012 9:00,-1.6,-4.5,81,13,24.1,100.93,Mostly Cloudy
240,660,1/28/2012 12:00,-0.3,-3.4,80,7,48.3,100.74,Mostly Cloudy
241,669,1/28/2012 21:00,2.1,-1.7,76,24,25.0,99.95,Mainly Clear
242,670,1/28/2012 22:00,2.3,-2.0,73,15,25.0,99.85,Mostly Cloudy
243,672,1/29/2012 0:00,1.5,-5.0,62,15,25.0,99.96,Mainly Clear
244,673,1/29/2012 1:00,0.9,-5.3,63,15,25.0,100.09,Mainly Clear
245,674,1/29/2012 2:00,0.3,-5.8,64,15,25.0,100.21,Mainly Clear
246,675,1/29/2012 3:00,-0.2,-6.0,65,15,25.0,100.34,Mainly Clear
247,676,1/29/2012 4:00,-0.9,-7.0,63,15,25.0,100.47,Mainly Clear
248,677,1/29/2012 5:00,-1.5,-7.8,62,15,25.0,100.59,Mainly Clear
249,678,1/29/2012 6:00,-2.0,-8.1,63,15,25.0,100.68,Mainly Clear
250,679,1/29/2012 7:00,-1.9,-8.2,62,32,24.1,100.74,Mainly Clear
251,680,1/29/2012 8:00,-2.2,-8.3,63,32,24.1,100.81,Mostly Cloudy
252,682,1/29/2012 10:00,-1.8,-8.3,61,24,24.1,100.87,Mostly Cloudy
253,683,1/29/2012 11:00,-0.8,-7.7,59,33,24.1,100.84,Mainly Clear
254,684,1/29/2012 12:00,0.1,-7.6,56,15,24.1,100.77,Mainly Clear
255,685,1/29/2012 13:00,0.5,-8.8,50,33,24.1,100.7,Mostly Cloudy
256,686,1/29/2012 14:00,0.4,-7.9,54,19,24.1,100.63,Mostly Cloudy
257,687,1/29/2012 15:00,0.2,-7.5,56,17,24.1,100.65,Mostly Cloudy
258,688,1/29/2012 16:00,0.7,-8.3,51,20,24.1,100.67,Mostly Cloudy
259,689,1/29/2012 17:00,-0.7,-8.4,56,11,24.1,100.74,Mainly Clear
260,690,1/29/2012 18:00,-1.1,-9.3,54,17,25.0,100.77,Mainly Clear
261,691,1/29/2012 19:00,-1.6,-9.3,56,17,25.0,100.81,Mainly Clear
262,692,1/29/2012 20:00,-2.0,-9.1,58,17,25.0,100.83,Mainly Clear
263,693,1/29/2012 21:00,-1.7,-8.4,60,9,25.0,100.85,Mainly Clear
264,694,1/29/2012 22:00,-2.3,-7.0,70,15,25.0,100.84,Mainly Clear
265,697,1/30/2012 1:00,-4.4,-10.0,65,15,25.0,100.92,Mainly Clear
266,705,1/30/2012 9:00,-9.5,-16.6,56,13,48.3,101.75,Mainly Clear
267,706,1/30/2012 10:00,-8.8,-16.0,56,17,48.3,101.82,Mostly Cloudy
268,707,1/30/2012 11:00,-7.7,-14.7,57,19,48.3,101.86,Mostly Cloudy
269,708,1/30/2012 12:00,-7.0,-14.2,56,22,48.3,101.83,Mainly Clear
270,709,1/30/2012 13:00,-7.5,-15.2,54,22,48.3,101.8,Mainly Clear
271,711,1/30/2012 15:00,-6.9,-15.3,51,22,48.3,101.83,Mainly Clear
272,712,1/30/2012 16:00,-7.3,-15.8,51,17,48.3,101.86,Mostly Cloudy
273,713,1/30/2012 17:00,-7.4,-15.7,51,13,48.3,101.9,Mostly Cloudy
274,714,1/30/2012 18:00,-7.4,-15.6,52,15,25.0,101.94,Mainly Clear
275,715,1/30/2012 19:00,-8.8,-15.9,56,7,25.0,101.96,Mainly Clear
276,716,1/30/2012 20:00,-9.5,-16.0,59,4,25.0,101.95,Mainly Clear
277,717,1/30/2012 21:00,-8.4,-15.5,57,4,25.0,101.96,Mostly Cloudy
278,718,1/30/2012 22:00,-7.8,-15.2,55,4,25.0,101.98,Mostly Cloudy
279,719,1/30/2012 23:00,-8.6,-13.8,66,6,25.0,101.96,Mostly Cloudy
280,720,1/31/2012 0:00,-7.0,-13.1,62,7,25.0,101.92,Mostly Cloudy
281,769,2/2/2012 1:00,-5.5,-9.2,75,9,25.0,101.36,Mostly Cloudy
282,778,2/2/2012 10:00,-8.2,-13.7,65,17,24.1,101.87,Mostly Cloudy
283,779,2/2/2012 11:00,-8.3,-14.2,62,19,24.1,101.89,Mostly Cloudy
284,780,2/2/2012 12:00,-8.1,-13.3,66,13,24.1,101.86,Mostly Cloudy
285,781,2/2/2012 13:00,-7.4,-12.7,66,9,24.1,101.86,Mostly Cloudy
286,782,2/2/2012 14:00,-6.7,-12.0,66,9,24.1,101.85,Mostly Cloudy
287,783,2/2/2012 15:00,-6.7,-12.1,65,9,24.1,101.9,Mostly Cloudy
288,784,2/2/2012 16:00,-6.6,-11.7,67,11,24.1,101.94,Mostly Cloudy
289,785,2/2/2012 17:00,-7.1,-12.0,68,13,24.1,101.99,Mostly Cloudy
290,786,2/2/2012 18:00,-7.7,-12.5,68,7,25.0,102.08,Mostly Cloudy
291,787,2/2/2012 19:00,-7.0,-12.2,66,6,25.0,102.13,Mostly Cloudy
292,788,2/2/2012 20:00,-8.9,-12.8,73,4,25.0,102.22,Mostly Cloudy
293,791,2/2/2012 23:00,-7.2,-11.1,74,7,25.0,102.31,Mostly Cloudy
294,792,2/3/2012 0:00,-9.7,-12.5,80,4,25.0,102.33,Mostly Cloudy
295,793,2/3/2012 1:00,-11.0,-13.5,82,0,25.0,102.35,Mainly Clear
296,794,2/3/2012 2:00,-10.2,-12.7,82,0,25.0,102.39,Mainly Clear
297,795,2/3/2012 3:00,-11.6,-14.0,82,0,25.0,102.4,Mainly Clear
298,796,2/3/2012 4:00,-12.6,-15.1,82,7,16.1,102.42,Mainly Clear
299,798,2/3/2012 6:00,-11.8,-14.1,83,7,16.1,102.51,Mainly Clear
300,799,2/3/2012 7:00,-11.3,-13.7,82,9,16.1,102.59,Mostly Cloudy
301,800,2/3/2012 8:00,-10.6,-13.3,80,9,19.3,102.62,Mostly Cloudy
302,801,2/3/2012 9:00,-8.8,-11.9,78,6,24.1,102.62,Mostly Cloudy
303,812,2/3/2012 20:00,-4.2,-7.7,77,11,25.0,102.16,Mostly Cloudy
304,813,2/3/2012 21:00,-4.7,-8.0,78,7,25.0,102.17,Mostly Cloudy
305,817,2/4/2012 1:00,-4.5,-6.7,85,11,25.0,101.98,Mostly Cloudy
306,818,2/4/2012 2:00,-4.0,-7.4,77,20,25.0,102.07,Mostly Cloudy
307,819,2/4/2012 3:00,-4.9,-10.5,65,15,25.0,102.11,Mostly Cloudy
308,820,2/4/2012 4:00,-7.1,-12.7,64,13,25.0,102.16,Mainly Clear
309,821,2/4/2012 5:00,-8.1,-13.3,66,15,25.0,102.21,Mainly Clear
310,826,2/4/2012 10:00,-8.4,-13.7,66,6,48.3,102.32,Mainly Clear
311,828,2/4/2012 12:00,-6.6,-13.2,59,4,48.3,102.21,Mainly Clear
312,829,2/4/2012 13:00,-6.3,-12.7,60,13,48.3,102.11,Mainly Clear
313,830,2/4/2012 14:00,-6.0,-12.7,59,6,48.3,102.05,Mainly Clear
314,831,2/4/2012 15:00,-5.4,-12.6,57,11,48.3,102.01,Mainly Clear
315,852,2/5/2012 12:00,-8.7,-11.7,79,9,24.1,101.82,Mainly Clear
316,853,2/5/2012 13:00,-7.2,-12.1,68,13,24.1,101.72,Mainly Clear
317,860,2/5/2012 20:00,-2.8,-8.0,67,24,25.0,101.25,Mostly Cloudy
318,871,2/6/2012 7:00,1.2,-3.5,71,15,24.1,100.62,Mostly Cloudy
319,872,2/6/2012 8:00,1.1,-3.8,70,33,24.1,100.63,Mostly Cloudy
320,878,2/6/2012 14:00,3.0,-3.3,63,33,24.1,100.45,Mostly Cloudy
321,886,2/6/2012 22:00,2.7,-2.6,68,13,25.0,100.68,Mostly Cloudy
322,887,2/6/2012 23:00,2.2,-2.9,69,13,25.0,100.7,Mostly Cloudy
323,889,2/7/2012 1:00,1.8,-3.4,68,15,25.0,100.82,Mostly Cloudy
324,890,2/7/2012 2:00,1.5,-4.4,65,15,25.0,100.89,Mostly Cloudy
325,892,2/7/2012 4:00,-1.0,-8.3,58,19,25.0,101.03,Mostly Cloudy
326,893,2/7/2012 5:00,-1.9,-8.4,61,15,25.0,101.14,Mainly Clear
327,894,2/7/2012 6:00,-2.9,-8.8,64,20,25.0,101.27,Mostly Cloudy
328,895,2/7/2012 7:00,-5.5,-12.6,57,17,24.1,101.39,Mainly Clear
329,896,2/7/2012 8:00,-6.1,-12.8,59,17,24.1,101.53,Mainly Clear
330,897,2/7/2012 9:00,-6.2,-13.3,57,19,24.1,101.64,Mainly Clear
331,898,2/7/2012 10:00,-6.2,-13.4,57,19,24.1,101.69,Mainly Clear
332,899,2/7/2012 11:00,-6.0,-13.7,54,11,24.1,101.74,Mainly Clear
333,900,2/7/2012 12:00,-5.6,-13.1,55,13,24.1,101.73,Mainly Clear
334,918,2/8/2012 6:00,-12.4,-21.1,48,9,25.0,102.06,Mainly Clear
335,919,2/8/2012 7:00,-11.7,-18.0,59,15,24.1,102.07,Mainly Clear
336,920,2/8/2012 8:00,-10.8,-17.0,60,13,48.3,102.09,Mainly Clear
337,921,2/8/2012 9:00,-9.6,-15.1,64,15,48.3,102.07,Mainly Clear
338,922,2/8/2012 10:00,-8.2,-14.6,60,17,48.3,102.04,Mainly Clear
339,923,2/8/2012 11:00,-6.3,-13.7,56,17,48.3,101.93,Mainly Clear
340,926,2/8/2012 14:00,-2.4,-12.2,47,24,48.3,101.54,Mainly Clear
341,927,2/8/2012 15:00,-1.8,-12.8,43,32,48.3,101.45,Mainly Clear
342,928,2/8/2012 16:00,-1.6,-11.9,45,22,48.3,101.37,Mainly Clear
343,929,2/8/2012 17:00,-2.1,-12.0,47,17,48.3,101.31,Mainly Clear
344,930,2/8/2012 18:00,-2.5,-12.6,46,19,24.1,101.27,Mainly Clear
345,933,2/8/2012 21:00,-3.1,-10.3,57,26,25.0,101.25,Mainly Clear
346,934,2/8/2012 22:00,-3.6,-8.6,68,17,25.0,101.22,Mainly Clear
347,943,2/9/2012 7:00,-5.4,-9.1,75,17,24.1,101.19,Mainly Clear
348,945,2/9/2012 9:00,-3.5,-8.0,71,22,24.1,101.25,Mainly Clear
349,946,2/9/2012 10:00,-2.5,-7.8,67,28,24.1,101.26,Mainly Clear
350,967,2/10/2012 7:00,-0.5,-3.9,78,20,24.1,101.09,Mostly Cloudy
351,968,2/10/2012 8:00,-0.9,-4.2,78,17,24.1,101.12,Mostly Cloudy
352,970,2/10/2012 10:00,0.9,-3.7,71,28,24.1,101.1,Mostly Cloudy
353,979,2/10/2012 19:00,0.0,-5.2,68,17,25.0,100.91,Mostly Cloudy
354,997,2/11/2012 13:00,-12.1,-16.4,70,7,24.1,100.85,Mostly Cloudy
355,998,2/11/2012 14:00,-11.3,-17.4,61,6,48.3,100.76,Mainly Clear
356,999,2/11/2012 15:00,-10.8,-18.8,52,11,48.3,100.73,Mainly Clear
357,1000,2/11/2012 16:00,-10.4,-18.3,52,6,48.3,100.7,Mainly Clear
358,1001,2/11/2012 17:00,-10.5,-17.0,59,4,25.0,100.68,Mainly Clear
359,1009,2/12/2012 1:00,-15.3,-23.1,51,11,25.0,100.62,Mostly Cloudy
360,1011,2/12/2012 3:00,-16.8,-23.9,54,9,25.0,100.57,Mainly Clear
361,1018,2/12/2012 10:00,-16.6,-25.1,48,17,48.3,100.73,Mostly Cloudy
362,1019,2/12/2012 11:00,-16.1,-25.3,45,20,48.3,100.72,Mainly Clear
363,1020,2/12/2012 12:00,-14.8,-23.8,46,24,48.3,100.61,Mainly Clear
364,1021,2/12/2012 13:00,-13.9,-23.2,45,20,48.3,100.55,Mainly Clear
365,1022,2/12/2012 14:00,-13.2,-23.0,44,26,48.3,100.52,Mainly Clear
366,1023,2/12/2012 15:00,-12.5,-22.8,42,28,48.3,100.51,Mainly Clear
367,1024,2/12/2012 16:00,-12.0,-21.9,44,32,48.3,100.54,Mainly Clear
368,1025,2/12/2012 17:00,-12.0,-22.1,43,26,25.0,100.56,Mainly Clear
369,1026,2/12/2012 18:00,-12.3,-20.1,52,24,25.0,100.57,Mostly Cloudy
370,1027,2/12/2012 19:00,-11.9,-19.3,54,24,25.0,100.58,Mostly Cloudy
371,1042,2/13/2012 10:00,-6.8,-19.1,37,26,48.3,100.59,Mostly Cloudy
372,1044,2/13/2012 12:00,-5.2,-13.1,54,17,48.3,100.56,Mostly Cloudy
373,1045,2/13/2012 13:00,-4.9,-14.0,49,24,48.3,100.52,Mostly Cloudy
374,1049,2/13/2012 17:00,-3.6,-13.7,45,15,24.1,100.6,Mostly Cloudy
375,1050,2/13/2012 18:00,-4.9,-13.4,51,0,25.0,100.64,Mostly Cloudy
376,1051,2/13/2012 19:00,-5.6,-12.0,61,15,25.0,100.69,Mostly Cloudy
377,1056,2/14/2012 0:00,-11.8,-15.6,73,15,25.0,100.83,Mostly Cloudy
378,1057,2/14/2012 1:00,-11.9,-16.0,72,13,25.0,100.86,Mainly Clear
379,1058,2/14/2012 2:00,-12.9,-17.9,66,11,25.0,100.93,Mainly Clear
380,1059,2/14/2012 3:00,-13.2,-19.1,61,9,25.0,100.96,Mostly Cloudy
381,1060,2/14/2012 4:00,-13.4,-19.4,61,11,25.0,101.01,Mostly Cloudy
382,1061,2/14/2012 5:00,-13.4,-19.7,59,4,25.0,101.03,Mostly Cloudy
383,1062,2/14/2012 6:00,-14.2,-19.6,64,6,25.0,101.04,Mainly Clear
384,1063,2/14/2012 7:00,-13.7,-19.9,59,7,24.1,101.07,Mainly Clear
385,1064,2/14/2012 8:00,-13.6,-20.0,58,9,24.1,101.12,Mainly Clear
386,1065,2/14/2012 9:00,-11.6,-18.0,59,4,24.1,101.12,Mainly Clear
387,1066,2/14/2012 10:00,-8.8,-14.3,64,4,24.1,101.15,Mainly Clear
388,1067,2/14/2012 11:00,-5.0,-10.6,65,0,19.3,101.14,Mostly Cloudy
389,1070,2/14/2012 14:00,0.1,-5.1,68,9,24.1,100.98,Mostly Cloudy
390,1071,2/14/2012 15:00,1.1,-5.3,62,9,24.1,100.98,Mostly Cloudy
391,1072,2/14/2012 16:00,2.3,-4.9,59,7,24.1,100.97,Mostly Cloudy
392,1073,2/14/2012 17:00,1.1,-3.7,70,9,24.1,101.01,Mostly Cloudy
393,1076,2/14/2012 20:00,-0.2,-5.1,69,4,25.0,101.16,Mostly Cloudy
394,1077,2/14/2012 21:00,-0.6,-6.0,67,7,25.0,101.18,Mainly Clear
395,1113,2/16/2012 9:00,1.8,-1.3,80,0,16.1,101.91,Mostly Cloudy
396,1114,2/16/2012 10:00,2.7,-1.1,76,11,24.1,101.83,Mainly Clear
397,1115,2/16/2012 11:00,3.3,-2.1,68,11,24.1,101.76,Mostly Cloudy
398,1116,2/16/2012 12:00,3.6,-3.1,62,19,24.1,101.65,Mostly Cloudy
399,1117,2/16/2012 13:00,3.3,-2.7,65,19,24.1,101.53,Mostly Cloudy
400,1118,2/16/2012 14:00,3.5,-2.7,64,19,24.1,101.39,Mostly Cloudy
401,1119,2/16/2012 15:00,3.6,-2.8,63,19,24.1,101.29,Mostly Cloudy
402,1135,2/17/2012 7:00,3.0,-0.3,79,24,24.1,100.58,Mostly Cloudy
403,1137,2/17/2012 9:00,2.3,-2.4,71,32,24.1,100.74,Mostly Cloudy
404,1138,2/17/2012 10:00,2.5,-3.0,67,15,48.3,100.76,Mostly Cloudy
405,1141,2/17/2012 13:00,3.0,-4.3,59,22,24.1,100.66,Mostly Cloudy
406,1142,2/17/2012 14:00,3.5,-5.1,53,28,24.1,100.62,Mostly Cloudy
407,1143,2/17/2012 15:00,3.0,-4.4,58,30,24.1,100.63,Mostly Cloudy
408,1145,2/17/2012 17:00,2.6,-3.9,62,26,24.1,100.66,Mostly Cloudy
409,1146,2/17/2012 18:00,2.3,-3.7,64,22,25.0,100.69,Mostly Cloudy
410,1147,2/17/2012 19:00,2.0,-3.5,67,28,25.0,100.68,Mostly Cloudy
411,1148,2/17/2012 20:00,1.8,-3.4,68,24,25.0,100.68,Mostly Cloudy
412,1149,2/17/2012 21:00,1.7,-3.6,68,19,25.0,100.7,Mostly Cloudy
413,1150,2/17/2012 22:00,1.2,-3.9,69,15,25.0,100.72,Mainly Clear
414,1151,2/17/2012 23:00,0.9,-4.1,69,26,25.0,100.7,Mainly Clear
415,1152,2/18/2012 0:00,0.7,-3.9,71,24,25.0,100.71,Mainly Clear
416,1153,2/18/2012 1:00,0.7,-4.5,68,22,25.0,100.71,Mainly Clear
417,1154,2/18/2012 2:00,0.3,-4.4,71,22,25.0,100.74,Mainly Clear
418,1155,2/18/2012 3:00,0.3,-4.7,69,26,25.0,100.72,Mostly Cloudy
419,1156,2/18/2012 4:00,-0.3,-4.9,71,22,25.0,100.74,Mostly Cloudy
420,1158,2/18/2012 6:00,-0.2,-5.0,70,20,25.0,100.82,Mostly Cloudy
421,1159,2/18/2012 7:00,-0.6,-5.2,71,24,25.0,100.84,Mostly Cloudy
422,1160,2/18/2012 8:00,-0.6,-5.3,70,19,24.1,100.85,Mostly Cloudy
423,1161,2/18/2012 9:00,-0.6,-5.4,70,24,48.3,100.85,Mainly Clear
424,1164,2/18/2012 12:00,1.1,-5.7,60,15,48.3,100.75,Mostly Cloudy
425,1165,2/18/2012 13:00,1.8,-6.1,56,20,48.3,100.7,Mostly Cloudy
426,1166,2/18/2012 14:00,1.2,-5.4,61,15,48.3,100.7,Mostly Cloudy
427,1167,2/18/2012 15:00,1.5,-5.8,58,19,48.3,100.71,Mostly Cloudy
428,1168,2/18/2012 16:00,1.5,-6.3,56,19,48.3,100.73,Mostly Cloudy
429,1169,2/18/2012 17:00,1.0,-6.2,59,13,48.3,100.78,Mostly Cloudy
430,1170,2/18/2012 18:00,0.8,-6.9,56,15,25.0,100.88,Mostly Cloudy
431,1171,2/18/2012 19:00,-0.6,-7.8,58,11,25.0,100.99,Mainly Clear
432,1177,2/19/2012 1:00,-4.5,-9.8,66,19,25.0,101.46,Mainly Clear
433,1178,2/19/2012 2:00,-5.2,-10.2,68,9,25.0,101.49,Mainly Clear
434,1180,2/19/2012 4:00,-5.8,-10.5,69,7,25.0,101.44,Mainly Clear
435,1181,2/19/2012 5:00,-5.9,-9.7,74,9,25.0,101.48,Mainly Clear
436,1183,2/19/2012 7:00,-6.3,-10.5,72,7,25.0,101.53,Mainly Clear
437,1184,2/19/2012 8:00,-5.8,-9.9,73,7,24.1,101.57,Mostly Cloudy
438,1185,2/19/2012 9:00,-5.2,-9.7,71,9,24.1,101.59,Mostly Cloudy
439,1187,2/19/2012 11:00,-4.0,-9.1,68,17,48.3,101.59,Mostly Cloudy
440,1188,2/19/2012 12:00,-3.2,-9.0,64,17,48.3,101.56,Mainly Clear
441,1189,2/19/2012 13:00,-2.7,-8.6,64,19,48.3,101.51,Mainly Clear
442,1208,2/20/2012 8:00,-9.9,-14.4,70,4,48.3,101.98,Mainly Clear
443,1209,2/20/2012 9:00,-8.7,-14.1,65,6,48.3,102.04,Mostly Cloudy
444,1210,2/20/2012 10:00,-8.0,-13.7,64,9,48.3,102.07,Mostly Cloudy
445,1211,2/20/2012 11:00,-7.1,-13.3,61,9,48.3,102.09,Mostly Cloudy
446,1212,2/20/2012 12:00,-6.0,-12.1,62,11,48.3,102.1,Mostly Cloudy
447,1213,2/20/2012 13:00,-4.7,-11.7,58,20,48.3,102.08,Mostly Cloudy
448,1214,2/20/2012 14:00,-3.1,-10.5,57,17,48.3,102.07,Mainly Clear
449,1215,2/20/2012 15:00,-2.0,-9.7,56,19,48.3,102.07,Mostly Cloudy
450,1216,2/20/2012 16:00,-1.8,-8.5,60,20,48.3,102.06,Mainly Clear
451,1220,2/20/2012 20:00,-4.0,-9.0,68,6,25.0,102.16,Mainly Clear
452,1229,2/21/2012 5:00,-6.1,-8.6,82,7,25.0,102.05,Mainly Clear
453,1230,2/21/2012 6:00,-6.1,-8.9,81,6,25.0,102.03,Mainly Clear
454,1231,2/21/2012 7:00,-6.2,-9.1,80,7,48.3,102.03,Mainly Clear
455,1232,2/21/2012 8:00,-5.0,-8.2,78,7,48.3,101.98,Mostly Cloudy
456,1233,2/21/2012 9:00,-3.1,-7.2,73,9,48.3,101.87,Mostly Cloudy
457,1234,2/21/2012 10:00,-1.4,-7.0,66,11,48.3,101.72,Mostly Cloudy
458,1238,2/21/2012 14:00,1.9,-6.2,55,22,48.3,100.95,Mostly Cloudy
459,1258,2/22/2012 10:00,4.0,1.2,82,28,24.1,99.54,Mostly Cloudy
460,1259,2/22/2012 11:00,4.6,0.4,74,26,24.1,99.56,Mostly Cloudy
461,1260,2/22/2012 12:00,5.2,-0.6,66,28,24.1,99.52,Mostly Cloudy
462,1261,2/22/2012 13:00,5.8,-1.1,61,22,24.1,99.4,Mostly Cloudy
463,1262,2/22/2012 14:00,6.1,-1.4,59,17,24.1,99.32,Mostly Cloudy
464,1264,2/22/2012 16:00,2.9,0.3,83,19,24.1,99.31500000000001,Mainly Clear
465,1265,2/22/2012 17:00,2.6,0.1,84,19,24.1,99.31500000000001,Mostly Cloudy
466,1266,2/22/2012 18:00,2.4,-0.2,83,9,24.1,99.33,Mostly Cloudy
467,1267,2/22/2012 19:00,1.9,-0.2,86,6,25.0,99.34,Mainly Clear
468,1268,2/22/2012 20:00,1.6,-0.8,84,13,25.0,99.32,Mostly Cloudy
469,1269,2/22/2012 21:00,2.3,-0.9,79,15,25.0,99.33,Mostly Cloudy
470,1280,2/23/2012 8:00,0.4,-1.6,86,7,19.3,99.31500000000001,Mainly Clear
471,1281,2/23/2012 9:00,1.1,-1.8,81,17,24.1,99.32,Mostly Cloudy
472,1282,2/23/2012 10:00,1.6,-1.9,78,19,24.1,99.38,Mainly Clear
473,1283,2/23/2012 11:00,2.3,-1.9,74,22,24.1,99.42,Mostly Cloudy
474,1287,2/23/2012 15:00,1.9,-1.8,76,22,24.1,99.6,Mostly Cloudy
475,1288,2/23/2012 16:00,2.7,-2.3,70,22,24.1,99.7,Mostly Cloudy
476,1289,2/23/2012 17:00,2.3,-3.7,64,24,24.1,99.82,Mostly Cloudy
477,1290,2/23/2012 18:00,1.6,-3.8,67,15,24.1,99.9,Mainly Clear
478,1299,2/24/2012 3:00,-3.8,-6.1,84,0,25.0,100.29,Mainly Clear
479,1341,2/25/2012 21:00,-5.6,-11.1,65,32,25.0,100.42,Mostly Cloudy
480,1344,2/26/2012 0:00,-8.3,-14.3,62,19,25.0,100.89,Mostly Cloudy
481,1345,2/26/2012 1:00,-9.0,-14.5,64,20,25.0,101.09,Mainly Clear
482,1347,2/26/2012 3:00,-9.9,-15.1,66,28,25.0,101.42,Mainly Clear
483,1348,2/26/2012 4:00,-10.8,-15.3,69,30,25.0,101.6,Mostly Cloudy
484,1352,2/26/2012 8:00,-12.1,-18.0,61,26,48.3,102.23,Mainly Clear
485,1353,2/26/2012 9:00,-11.6,-18.6,56,32,48.3,102.32,Mainly Clear
486,1357,2/26/2012 13:00,-8.3,-17.4,48,26,48.3,102.41,Mainly Clear
487,1358,2/26/2012 14:00,-7.6,-17.2,46,28,48.3,102.42,Mainly Clear
488,1359,2/26/2012 15:00,-7.1,-16.3,48,26,48.3,102.49,Mainly Clear
489,1360,2/26/2012 16:00,-6.8,-16.4,46,24,48.3,102.52,Mainly Clear
490,1361,2/26/2012 17:00,-7.6,-17.1,46,24,48.3,102.55,Mostly Cloudy
491,1366,2/26/2012 22:00,-8.6,-16.5,53,0,25.0,102.68,Mostly Cloudy
492,1373,2/27/2012 5:00,-8.4,-15.1,58,13,25.0,102.54,Mostly Cloudy
493,1374,2/27/2012 6:00,-9.0,-15.2,61,17,25.0,102.42,Mostly Cloudy
494,1379,2/27/2012 11:00,-8.7,-14.2,64,28,48.3,101.74,Mostly Cloudy
495,1380,2/27/2012 12:00,-6.3,-12.8,60,15,48.3,101.59,Mostly Cloudy
496,1399,2/28/2012 7:00,-8.1,-13.4,66,19,24.1,102.35,Mainly Clear
497,1400,2/28/2012 8:00,-8.4,-13.7,66,19,24.1,102.5,Mainly Clear
498,1404,2/28/2012 12:00,-5.8,-13.3,55,11,48.3,102.65,Mainly Clear
499,1405,2/28/2012 13:00,-5.5,-12.3,59,17,48.3,102.62,Mainly Clear
500,1406,2/28/2012 14:00,-4.8,-12.1,57,15,48.3,102.58,Mostly Cloudy
501,1407,2/28/2012 15:00,-4.2,-11.8,55,19,48.3,102.58,Mostly Cloudy
502,1408,2/28/2012 16:00,-4.3,-12.4,53,17,48.3,102.54,Mostly Cloudy
503,1409,2/28/2012 17:00,-4.4,-12.6,53,15,48.3,102.53,Mainly Clear
504,1418,2/29/2012 2:00,-9.7,-13.9,71,4,25.0,102.46,Mainly Clear
505,1420,2/29/2012 4:00,-10.3,-14.2,73,7,25.0,102.41,Mainly Clear
506,1423,2/29/2012 7:00,-11.7,-14.6,79,9,24.1,102.4,Mainly Clear
507,1425,2/29/2012 9:00,-8.5,-12.3,74,11,24.1,102.36,Mostly Cloudy
508,1426,2/29/2012 10:00,-6.6,-11.6,68,17,24.1,102.3,Mostly Cloudy
509,1427,2/29/2012 11:00,-4.7,-12.5,54,15,24.1,102.24,Mostly Cloudy
510,1428,2/29/2012 12:00,-3.9,-12.2,52,17,24.1,102.08,Mostly Cloudy
511,1429,2/29/2012 13:00,-2.9,-10.8,54,11,24.1,101.99,Mostly Cloudy
512,1430,2/29/2012 14:00,-2.9,-11.7,51,13,24.1,101.89,Mostly Cloudy
513,1435,2/29/2012 19:00,-4.6,-13.2,51,30,25.0,101.46,Mostly Cloudy
514,1494,3/3/2012 6:00,1.5,-1.6,80,15,25.0,99.31500000000001,Mainly Clear
515,1495,3/3/2012 7:00,2.0,-1.6,77,15,24.1,99.31500000000001,Mostly Cloudy
516,1496,3/3/2012 8:00,2.7,-1.5,74,32,24.1,99.31500000000001,Mostly Cloudy
517,1500,3/3/2012 12:00,5.2,-3.0,55,15,48.3,99.31500000000001,Mostly Cloudy
518,1501,3/3/2012 13:00,5.8,-4.0,49,15,48.3,99.31500000000001,Mostly Cloudy
519,1502,3/3/2012 14:00,6.5,-5.5,42,15,48.3,99.31500000000001,Mostly Cloudy
520,1503,3/3/2012 15:00,5.3,-5.6,45,15,24.1,99.31500000000001,Mostly Cloudy
521,1504,3/3/2012 16:00,5.0,-5.0,48,15,48.3,99.31500000000001,Mainly Clear
522,1505,3/3/2012 17:00,4.3,-4.9,51,15,48.3,99.31500000000001,Mainly Clear
523,1506,3/3/2012 18:00,3.7,-4.3,56,15,25.0,99.31500000000001,Mostly Cloudy
524,1507,3/3/2012 19:00,3.4,-4.0,58,15,25.0,99.31500000000001,Mainly Clear
525,1508,3/3/2012 20:00,3.2,-3.9,60,15,25.0,99.31500000000001,Mainly Clear
526,1512,3/4/2012 0:00,0.5,-4.8,68,32,25.0,99.34,Mostly Cloudy
527,1513,3/4/2012 1:00,-0.8,-6.0,68,24,25.0,99.46,Mostly Cloudy
528,1514,3/4/2012 2:00,-1.8,-7.8,64,26,25.0,99.56,Mostly Cloudy
529,1515,3/4/2012 3:00,-2.1,-8.2,63,19,25.0,99.63,Mostly Cloudy
530,1516,3/4/2012 4:00,-2.9,-9.0,63,20,25.0,99.7,Mostly Cloudy
531,1518,3/4/2012 6:00,-4.8,-11.6,59,17,25.0,99.84,Mostly Cloudy
532,1519,3/4/2012 7:00,-5.7,-12.6,58,22,24.1,99.88,Mostly Cloudy
533,1520,3/4/2012 8:00,-5.9,-13.8,54,13,24.1,99.97,Mostly Cloudy
534,1524,3/4/2012 12:00,-5.8,-12.9,57,19,48.3,99.95,Mostly Cloudy
535,1525,3/4/2012 13:00,-5.5,-12.8,56,19,48.3,99.88,Mainly Clear
536,1526,3/4/2012 14:00,-5.7,-13.4,55,19,48.3,99.9,Mostly Cloudy
537,1527,3/4/2012 15:00,-5.6,-13.5,54,22,48.3,99.9,Mostly Cloudy
538,1528,3/4/2012 16:00,-5.5,-13.3,54,20,48.3,99.93,Mainly Clear
539,1529,3/4/2012 17:00,-6.9,-14.6,54,22,48.3,99.94,Mainly Clear
540,1530,3/4/2012 18:00,-7.9,-15.7,53,28,25.0,100.04,Mainly Clear
541,1531,3/4/2012 19:00,-7.9,-15.5,54,22,25.0,100.09,Mostly Cloudy
542,1535,3/4/2012 23:00,-11.1,-16.3,65,24,25.0,100.23,Mostly Cloudy
543,1536,3/5/2012 0:00,-12.4,-17.4,66,19,25.0,100.26,Mainly Clear
544,1537,3/5/2012 1:00,-13.6,-18.5,66,24,25.0,100.33,Mainly Clear
545,1542,3/5/2012 6:00,-16.2,-22.6,58,26,24.1,100.77,Mostly Cloudy
546,1543,3/5/2012 7:00,-16.2,-22.3,59,22,24.1,100.88,Mostly Cloudy
547,1544,3/5/2012 8:00,-15.7,-22.5,56,24,24.1,101.0,Mostly Cloudy
548,1545,3/5/2012 9:00,-15.1,-22.1,55,24,24.1,101.11,Mostly Cloudy
549,1546,3/5/2012 10:00,-14.4,-21.5,55,26,24.1,101.21,Mostly Cloudy
550,1547,3/5/2012 11:00,-13.4,-20.7,54,26,48.3,101.31,Mostly Cloudy
551,1548,3/5/2012 12:00,-12.2,-19.9,53,6,48.3,101.39,Mostly Cloudy
552,1549,3/5/2012 13:00,-11.3,-19.5,51,24,48.3,101.46,Mostly Cloudy
553,1550,3/5/2012 14:00,-10.8,-19.8,47,28,48.3,101.55,Mostly Cloudy
554,1551,3/5/2012 15:00,-10.0,-18.6,49,30,48.3,101.64,Mostly Cloudy
555,1552,3/5/2012 16:00,-9.9,-18.9,48,26,48.3,101.73,Mostly Cloudy
556,1553,3/5/2012 17:00,-9.5,-18.8,47,24,48.3,101.82,Mainly Clear
557,1554,3/5/2012 18:00,-9.8,-19.0,47,22,25.0,101.9,Mainly Clear
558,1556,3/5/2012 20:00,-10.5,-19.2,49,17,25.0,102.11,Mainly Clear
559,1570,3/6/2012 10:00,-10.0,-16.8,57,9,48.3,102.955,Mainly Clear
560,1571,3/6/2012 11:00,-9.0,-17.8,49,15,48.3,102.955,Mainly Clear
561,1572,3/6/2012 12:00,-7.8,-15.3,55,13,48.3,102.955,Mainly Clear
562,1573,3/6/2012 13:00,-6.7,-16.0,48,9,48.3,102.955,Mainly Clear
563,1574,3/6/2012 14:00,-5.8,-15.8,45,9,48.3,102.955,Mainly Clear
564,1575,3/6/2012 15:00,-5.3,-15.7,44,6,48.3,102.955,Mainly Clear
565,1576,3/6/2012 16:00,-4.9,-16.2,41,11,48.3,102.94,Mainly Clear
566,1577,3/6/2012 17:00,-4.8,-15.1,44,6,48.3,102.9,Mainly Clear
567,1578,3/6/2012 18:00,-6.3,-14.6,52,6,48.3,102.84,Mainly Clear
568,1579,3/6/2012 19:00,-5.4,-13.4,53,11,25.0,102.81,Mostly Cloudy
569,1580,3/6/2012 20:00,-5.3,-13.6,52,9,25.0,102.72,Mainly Clear
570,1581,3/6/2012 21:00,-5.4,-14.4,49,9,25.0,102.69,Mostly Cloudy
571,1582,3/6/2012 22:00,-5.0,-15.1,45,9,25.0,102.59,Mostly Cloudy
572,1583,3/6/2012 23:00,-4.5,-15.7,41,6,25.0,102.55,Mostly Cloudy
573,1584,3/7/2012 0:00,-3.6,-13.3,47,6,25.0,102.44,Mostly Cloudy
574,1585,3/7/2012 1:00,-3.9,-11.3,56,9,25.0,102.46,Mostly Cloudy
575,1589,3/7/2012 5:00,-5.3,-11.2,63,17,25.0,102.13,Mostly Cloudy
576,1592,3/7/2012 8:00,-4.6,-9.5,69,11,48.3,101.91,Mostly Cloudy
577,1595,3/7/2012 11:00,3.0,-4.7,57,6,24.1,101.67,Mainly Clear
578,1596,3/7/2012 12:00,6.4,-3.6,49,4,24.1,101.58,Mainly Clear
579,1597,3/7/2012 13:00,8.9,-4.4,39,13,24.1,101.49,Mainly Clear
580,1598,3/7/2012 14:00,9.3,-4.1,39,13,24.1,101.41,Mainly Clear
581,1599,3/7/2012 15:00,9.7,-2.7,42,13,24.1,101.36,Mainly Clear
582,1600,3/7/2012 16:00,11.4,-2.3,38,15,24.1,101.31,Mostly Cloudy
583,1601,3/7/2012 17:00,9.9,-1.9,44,9,24.1,101.25,Mostly Cloudy
584,1602,3/7/2012 18:00,5.5,-1.6,60,7,24.1,101.25,Mainly Clear
585,1603,3/7/2012 19:00,6.0,-1.8,57,11,25.0,101.22,Mostly Cloudy
586,1604,3/7/2012 20:00,7.6,-2.1,50,20,25.0,101.18,Mostly Cloudy
587,1605,3/7/2012 21:00,6.8,-2.1,53,22,25.0,101.16,Mostly Cloudy
588,1610,3/8/2012 2:00,7.9,-1.2,53,17,25.0,100.81,Mostly Cloudy
589,1611,3/8/2012 3:00,10.1,-0.9,46,24,25.0,100.69,Mostly Cloudy
590,1612,3/8/2012 4:00,10.0,-0.7,47,28,25.0,100.64,Mostly Cloudy
591,1613,3/8/2012 5:00,5.7,-0.8,63,19,25.0,100.57,Mostly Cloudy
592,1633,3/9/2012 1:00,0.0,-3.7,76,22,25.0,100.41,Mostly Cloudy
593,1634,3/9/2012 2:00,-1.2,-6.6,67,20,25.0,100.62,Mainly Clear
594,1635,3/9/2012 3:00,-2.6,-8.5,64,24,25.0,100.81,Mainly Clear
595,1636,3/9/2012 4:00,-3.9,-8.7,69,11,25.0,100.97,Mainly Clear
596,1637,3/9/2012 5:00,-3.9,-9.1,67,20,25.0,101.13,Mainly Clear
597,1638,3/9/2012 6:00,-4.3,-9.0,70,15,25.0,101.26,Mainly Clear
598,1642,3/9/2012 10:00,-3.7,-10.1,61,19,48.3,101.48,Mainly Clear
599,1643,3/9/2012 11:00,-3.0,-10.0,58,17,48.3,101.47,Mainly Clear
600,1644,3/9/2012 12:00,-2.1,-8.5,62,20,48.3,101.44,Mainly Clear
601,1645,3/9/2012 13:00,-1.5,-8.8,57,15,48.3,101.42,Mainly Clear
602,1646,3/9/2012 14:00,-1.0,-7.6,61,19,48.3,101.43,Mainly Clear
603,1647,3/9/2012 15:00,-1.1,-7.9,60,17,48.3,101.45,Mostly Cloudy
604,1648,3/9/2012 16:00,-0.7,-8.4,56,11,48.3,101.44,Mostly Cloudy
605,1649,3/9/2012 17:00,-0.9,-7.9,59,7,48.3,101.47,Mostly Cloudy
606,1650,3/9/2012 18:00,-2.0,-8.7,60,7,25.0,101.52,Mainly Clear
607,1651,3/9/2012 19:00,-2.6,-8.2,65,4,25.0,101.57,Mostly Cloudy
608,1652,3/9/2012 20:00,-2.0,-9.0,59,4,25.0,101.61,Mostly Cloudy
609,1653,3/9/2012 21:00,-1.9,-8.6,60,6,25.0,101.63,Mostly Cloudy
610,1654,3/9/2012 22:00,-2.2,-8.9,60,7,25.0,101.64,Mostly Cloudy
611,1660,3/10/2012 4:00,-5.7,-13.1,56,26,25.0,102.27,Mainly Clear
612,1661,3/10/2012 5:00,-6.4,-14.0,55,20,25.0,102.42,Mainly Clear
613,1662,3/10/2012 6:00,-6.8,-14.1,56,26,24.1,102.6,Mostly Cloudy
614,1663,3/10/2012 7:00,-7.1,-14.6,55,20,48.3,102.73,Mainly Clear
615,1664,3/10/2012 8:00,-6.8,-14.6,54,19,48.3,102.84,Mainly Clear
616,1665,3/10/2012 9:00,-6.3,-14.1,54,15,48.3,102.95,Mostly Cloudy
617,1666,3/10/2012 10:00,-6.1,-14.5,51,6,48.3,102.955,Mainly Clear
618,1667,3/10/2012 11:00,-4.0,-13.2,49,0,48.3,102.955,Mainly Clear
619,1669,3/10/2012 13:00,-3.2,-11.3,53,7,48.3,102.89,Mainly Clear
620,1670,3/10/2012 14:00,-2.6,-11.1,52,15,48.3,102.84,Mostly Cloudy
621,1671,3/10/2012 15:00,-2.7,-10.2,56,11,48.3,102.75,Mostly Cloudy
622,1672,3/10/2012 16:00,-1.8,-10.3,52,13,48.3,102.71,Mainly Clear
623,1673,3/10/2012 17:00,-1.6,-10.0,53,17,48.3,102.68,Mainly Clear
624,1674,3/10/2012 18:00,-2.1,-10.1,54,9,25.0,102.66,Mainly Clear
625,1675,3/10/2012 19:00,-1.9,-9.4,56,9,25.0,102.67,Mainly Clear
626,1676,3/10/2012 20:00,-2.3,-8.0,65,11,25.0,102.6,Mostly Cloudy
627,1677,3/10/2012 21:00,-2.3,-8.1,64,11,25.0,102.54,Mostly Cloudy
628,1680,3/11/2012 0:00,-3.1,-7.2,73,7,25.0,102.36,Mainly Clear
629,1681,3/11/2012 1:00,-3.2,-6.9,76,7,25.0,102.28,Mainly Clear
630,1682,3/11/2012 2:00,-3.1,-7.1,74,7,25.0,102.18,Mainly Clear
631,1685,3/11/2012 5:00,-2.1,-7.0,69,11,25.0,101.98,Mainly Clear
632,1689,3/11/2012 9:00,2.7,-5.9,53,7,48.3,101.98,Mainly Clear
633,1701,3/11/2012 21:00,4.8,-1.6,63,13,25.0,101.72,Mainly Clear
634,1705,3/12/2012 1:00,5.2,-1.8,61,17,25.0,101.77,Mainly Clear
635,1706,3/12/2012 2:00,4.6,-2.1,62,9,25.0,101.77,Mainly Clear
636,1707,3/12/2012 3:00,1.5,-2.8,73,11,25.0,101.78,Mainly Clear
637,1708,3/12/2012 4:00,1.8,-2.6,73,4,25.0,101.8,Mainly Clear
638,1711,3/12/2012 7:00,2.6,-2.3,70,4,48.3,101.98,Mainly Clear
639,1712,3/12/2012 8:00,4.4,-1.0,68,6,48.3,102.03,Mainly Clear
640,1713,3/12/2012 9:00,6.5,-0.2,62,0,48.3,102.03,Mostly Cloudy
641,1716,3/12/2012 12:00,10.8,0.4,49,9,48.3,101.94,Mostly Cloudy
642,1717,3/12/2012 13:00,11.6,0.6,47,13,48.3,101.84,Mostly Cloudy
643,1718,3/12/2012 14:00,12.3,1.4,47,6,48.3,101.79,Mostly Cloudy
644,1725,3/12/2012 21:00,8.4,1.0,60,13,25.0,101.39,Mostly Cloudy
645,1726,3/12/2012 22:00,7.9,0.7,60,11,25.0,101.35,Mostly Cloudy
646,1727,3/12/2012 23:00,6.6,-0.3,61,11,25.0,101.22,Mostly Cloudy
647,1728,3/13/2012 0:00,7.5,-0.7,56,13,25.0,101.11,Mostly Cloudy
648,1791,3/15/2012 15:00,4.0,0.6,78,24,24.1,102.0,Mostly Cloudy
649,1792,3/15/2012 16:00,3.5,0.1,78,20,24.1,101.99,Mostly Cloudy
650,1793,3/15/2012 17:00,3.0,-0.3,79,26,24.1,101.98,Mostly Cloudy
651,1795,3/15/2012 19:00,2.4,-0.4,82,28,25.0,101.88,Mostly Cloudy
652,1796,3/15/2012 20:00,2.3,-0.2,84,24,25.0,101.86,Mostly Cloudy
653,1798,3/15/2012 22:00,2.1,0.5,89,20,25.0,101.77,Mostly Cloudy
654,1799,3/15/2012 23:00,1.8,0.2,89,19,25.0,101.7,Mostly Cloudy
655,1845,3/17/2012 21:00,8.8,5.5,80,4,25.0,101.8,Mostly Cloudy
656,1846,3/17/2012 22:00,7.7,4.9,82,0,25.0,101.77,Mainly Clear
657,1847,3/17/2012 23:00,6.7,4.7,87,7,25.0,101.78,Mainly Clear
658,1848,3/18/2012 0:00,3.8,2.8,93,4,25.0,101.75,Mainly Clear
659,1849,3/18/2012 1:00,5.2,3.5,89,0,25.0,101.74,Mostly Cloudy
660,1850,3/18/2012 2:00,4.3,3.0,91,6,25.0,101.71,Mainly Clear
661,1855,3/18/2012 7:00,5.1,3.7,91,4,48.3,101.78,Mainly Clear
662,1856,3/18/2012 8:00,8.8,5.8,81,11,48.3,101.79,Mainly Clear
663,1857,3/18/2012 9:00,10.4,6.6,77,11,48.3,101.81,Mainly Clear
664,1858,3/18/2012 10:00,11.9,6.7,70,13,48.3,101.78,Mainly Clear
665,1861,3/18/2012 13:00,20.0,9.9,52,15,48.3,101.55,Mainly Clear
666,1862,3/18/2012 14:00,21.7,10.5,49,13,48.3,101.45,Mainly Clear
667,1863,3/18/2012 15:00,22.2,10.4,47,15,48.3,101.39,Mainly Clear
668,1864,3/18/2012 16:00,22.7,10.7,47,11,48.3,101.35,Mainly Clear
669,1865,3/18/2012 17:00,21.8,11.0,50,6,48.3,101.32,Mostly Cloudy
670,1866,3/18/2012 18:00,18.4,10.1,58,9,48.3,101.32,Mostly Cloudy
671,1867,3/18/2012 19:00,17.1,9.8,62,0,25.0,101.3,Mainly Clear
672,1869,3/18/2012 21:00,13.4,9.2,76,4,25.0,101.37,Mainly Clear
673,1870,3/18/2012 22:00,12.6,8.9,78,7,25.0,101.39,Mainly Clear
674,1871,3/18/2012 23:00,10.6,7.9,83,6,25.0,101.37,Mainly Clear
675,1872,3/19/2012 0:00,9.8,7.6,86,6,25.0,101.37,Mainly Clear
676,1878,3/19/2012 6:00,11.3,9.4,88,4,24.1,101.56,Mainly Clear
677,1879,3/19/2012 7:00,9.9,8.5,91,0,12.9,101.59,Mostly Cloudy
678,1880,3/19/2012 8:00,11.9,9.9,88,7,12.9,101.67,Mostly Cloudy
679,1881,3/19/2012 9:00,13.9,10.5,80,6,12.9,101.71,Mainly Clear
680,1882,3/19/2012 10:00,15.6,11.0,74,6,16.1,101.75,Mainly Clear
681,1883,3/19/2012 11:00,17.8,11.6,67,4,16.1,101.75,Mainly Clear
682,1884,3/19/2012 12:00,19.8,12.0,61,4,19.3,101.75,Mainly Clear
683,1885,3/19/2012 13:00,18.5,11.0,62,19,19.3,101.72,Mainly Clear
684,1886,3/19/2012 14:00,17.0,9.9,63,15,24.1,101.72,Mainly Clear
685,1887,3/19/2012 15:00,16.3,10.0,66,17,24.1,101.71,Mainly Clear
686,1888,3/19/2012 16:00,16.6,9.7,64,11,24.1,101.66,Mainly Clear
687,1889,3/19/2012 17:00,15.9,9.1,64,13,24.1,101.66,Mainly Clear
688,1890,3/19/2012 18:00,13.9,7.9,67,19,24.1,101.67,Mainly Clear
689,1891,3/19/2012 19:00,12.5,6.7,68,15,25.0,101.71,Mainly Clear
690,1892,3/19/2012 20:00,10.6,5.4,70,13,25.0,101.8,Mainly Clear
691,1905,3/20/2012 9:00,10.6,1.3,53,0,19.3,102.09,Mainly Clear
692,1906,3/20/2012 10:00,12.6,2.6,50,4,24.1,102.07,Mainly Clear
693,1950,3/22/2012 6:00,13.7,9.0,73,15,48.3,101.57,Mostly Cloudy
694,1951,3/22/2012 7:00,14.2,9.5,73,22,24.1,101.55,Mainly Clear
695,1952,3/22/2012 8:00,15.4,9.9,70,15,24.1,101.55,Mainly Clear
696,1953,3/22/2012 9:00,17.3,10.4,64,22,24.1,101.53,Mainly Clear
697,1954,3/22/2012 10:00,19.6,11.4,59,17,24.1,101.57,Mainly Clear
698,1955,3/22/2012 11:00,20.4,11.9,58,15,24.1,101.52,Mainly Clear
699,1956,3/22/2012 12:00,23.0,12.0,50,20,24.1,101.5,Mostly Cloudy
700,1957,3/22/2012 13:00,23.3,12.1,49,19,24.1,101.43,Mostly Cloudy
701,1960,3/22/2012 16:00,22.2,12.3,53,13,24.1,101.33,Mostly Cloudy
702,1961,3/22/2012 17:00,20.0,12.2,61,11,24.1,101.39,Mostly Cloudy
703,1964,3/22/2012 20:00,15.1,8.5,65,11,25.0,101.58,Mainly Clear
704,1965,3/22/2012 21:00,12.1,7.4,73,7,25.0,101.59,Mainly Clear
705,1966,3/22/2012 22:00,11.0,6.8,75,7,25.0,101.61,Mainly Clear
706,1968,3/23/2012 0:00,10.4,7.1,80,7,25.0,101.67,Mainly Clear
707,1969,3/23/2012 1:00,10.3,7.5,83,0,25.0,101.7,Mainly Clear
708,1970,3/23/2012 2:00,8.9,6.5,85,9,25.0,101.71,Mainly Clear
709,1971,3/23/2012 3:00,8.8,6.4,85,9,25.0,101.72,Mainly Clear
710,1980,3/23/2012 12:00,16.2,-2.5,28,11,48.3,101.81,Mainly Clear
711,1981,3/23/2012 13:00,16.8,-2.3,27,7,48.3,101.71,Mostly Cloudy
712,1982,3/23/2012 14:00,16.6,-6.8,19,15,48.3,101.66,Mostly Cloudy
713,1983,3/23/2012 15:00,16.4,-6.8,20,15,48.3,101.63,Mostly Cloudy
714,1987,3/23/2012 19:00,11.8,-5.5,29,11,25.0,101.68,Mostly Cloudy
715,1989,3/23/2012 21:00,10.8,-8.0,26,15,25.0,101.7,Mostly Cloudy
716,1991,3/23/2012 23:00,9.9,-8.7,26,19,25.0,101.78,Mostly Cloudy
717,1992,3/24/2012 0:00,8.4,-9.1,28,22,25.0,101.8,Mostly Cloudy
718,1993,3/24/2012 1:00,7.3,-9.4,29,20,25.0,101.85,Mainly Clear
719,1994,3/24/2012 2:00,6.2,-10.6,29,19,25.0,101.86,Mostly Cloudy
720,1995,3/24/2012 3:00,5.3,-9.4,34,22,25.0,101.86,Mostly Cloudy
721,2031,3/25/2012 15:00,7.6,4.6,81,9,24.1,100.29,Mostly Cloudy
722,2034,3/25/2012 18:00,8.9,5.7,80,7,24.1,100.28,Mostly Cloudy
723,2035,3/25/2012 19:00,8.7,5.2,79,4,25.0,100.25,Mainly Clear
724,2036,3/25/2012 20:00,7.3,4.9,85,7,25.0,100.22,Mostly Cloudy
725,2037,3/25/2012 21:00,8.2,5.7,84,13,25.0,100.21,Mainly Clear
726,2038,3/25/2012 22:00,7.5,5.5,87,11,25.0,100.17,Mainly Clear
727,2039,3/25/2012 23:00,6.4,4.8,89,11,25.0,100.12,Mostly Cloudy
728,2043,3/26/2012 3:00,0.8,-8.9,48,26,25.0,100.6,Mostly Cloudy
729,2047,3/26/2012 7:00,-3.8,-13.6,46,26,48.3,101.19,Mainly Clear
730,2048,3/26/2012 8:00,-4.0,-12.6,51,26,48.3,101.27,Mostly Cloudy
731,2049,3/26/2012 9:00,-3.0,-13.1,46,22,48.3,101.33,Mainly Clear
732,2050,3/26/2012 10:00,-2.1,-13.0,43,26,48.3,101.32,Mainly Clear
733,2051,3/26/2012 11:00,-0.6,-11.4,44,28,48.3,101.3,Mainly Clear
734,2052,3/26/2012 12:00,0.2,-11.4,41,30,48.3,101.28,Mainly Clear
735,2053,3/26/2012 13:00,0.6,-12.6,36,28,48.3,101.26,Mainly Clear
736,2054,3/26/2012 14:00,1.3,-13.3,33,28,48.3,101.24,Mainly Clear
737,2055,3/26/2012 15:00,1.4,-14.8,29,30,48.3,101.26,Mainly Clear
738,2077,3/27/2012 13:00,1.0,-16.1,27,6,48.3,102.2,Mainly Clear
739,2078,3/27/2012 14:00,1.7,-18.4,21,13,48.3,102.06,Mainly Clear
740,2079,3/27/2012 15:00,2.1,-16.5,24,15,48.3,101.98,Mainly Clear
741,2080,3/27/2012 16:00,2.7,-13.0,30,17,48.3,101.93,Mostly Cloudy
742,2081,3/27/2012 17:00,2.7,-12.3,32,19,48.3,101.88,Mostly Cloudy
743,2082,3/27/2012 18:00,2.6,-11.9,33,15,48.3,101.79,Mostly Cloudy
744,2083,3/27/2012 19:00,2.8,-11.7,33,11,25.0,101.74,Mostly Cloudy
745,2130,3/29/2012 18:00,3.4,-5.6,52,20,24.1,100.97,Mostly Cloudy
746,2133,3/29/2012 21:00,1.9,-6.3,55,24,25.0,101.11,Mostly Cloudy
747,2134,3/29/2012 22:00,1.4,-7.4,52,17,25.0,101.14,Mostly Cloudy
748,2135,3/29/2012 23:00,0.8,-8.2,51,24,25.0,101.17,Mostly Cloudy
749,2136,3/30/2012 0:00,0.1,-9.1,50,19,25.0,101.18,Mostly Cloudy
750,2137,3/30/2012 1:00,-1.0,-9.8,51,20,25.0,101.21,Mainly Clear
751,2139,3/30/2012 3:00,-3.5,-11.4,54,19,25.0,101.25,Mainly Clear
752,2140,3/30/2012 4:00,-4.3,-10.8,60,4,25.0,101.33,Mainly Clear
753,2147,3/30/2012 11:00,0.9,-9.6,45,4,48.3,101.57,Mostly Cloudy
754,2148,3/30/2012 12:00,1.6,-8.0,49,17,48.3,101.52,Mainly Clear
755,2149,3/30/2012 13:00,3.1,-9.1,40,6,48.3,101.38,Mainly Clear
756,2150,3/30/2012 14:00,4.4,-8.8,38,17,48.3,101.3,Mainly Clear
757,2151,3/30/2012 15:00,4.8,-8.9,36,17,48.3,101.26,Mostly Cloudy
758,2152,3/30/2012 16:00,4.8,-9.3,35,15,48.3,101.26,Mostly Cloudy
759,2153,3/30/2012 17:00,4.4,-8.6,38,15,48.3,101.24,Mostly Cloudy
760,2154,3/30/2012 18:00,3.9,-7.9,42,11,24.1,101.26,Mostly Cloudy
761,2155,3/30/2012 19:00,3.1,-6.7,49,7,25.0,101.29,Mostly Cloudy
762,2156,3/30/2012 20:00,3.0,-8.4,43,7,25.0,101.3,Mostly Cloudy
763,2158,3/30/2012 22:00,0.4,-8.1,53,0,25.0,101.3,Mostly Cloudy
764,2159,3/30/2012 23:00,1.4,-7.7,51,6,25.0,101.34,Mainly Clear
765,2160,3/31/2012 0:00,1.5,-8.6,47,13,25.0,101.33,Mostly Cloudy
766,2161,3/31/2012 1:00,1.3,-9.6,44,13,25.0,101.31,Mostly Cloudy
767,2169,3/31/2012 9:00,1.5,-7.8,50,17,48.3,101.34,Mostly Cloudy
768,2170,3/31/2012 10:00,2.9,-8.1,44,15,48.3,101.3,Mainly Clear
769,2174,3/31/2012 14:00,7.7,-8.5,31,4,48.3,101.01,Mainly Clear
770,2175,3/31/2012 15:00,7.7,-8.6,30,6,48.3,100.94,Mainly Clear
771,2176,3/31/2012 16:00,8.4,-7.7,31,4,48.3,100.89,Mainly Clear
772,2177,3/31/2012 17:00,7.9,-8.1,31,6,48.3,100.88,Mainly Clear
773,2178,3/31/2012 18:00,7.0,-8.2,33,7,48.3,100.87,Mainly Clear
774,2188,4/1/2012 4:00,-1.0,-5.3,73,0,25.0,100.66,Mainly Clear
775,2189,4/1/2012 5:00,-0.4,-4.5,74,4,25.0,100.65,Mostly Cloudy
776,2208,4/2/2012 0:00,0.4,-1.2,89,11,16.1,100.22,Mainly Clear
777,2225,4/2/2012 17:00,8.0,-12.2,22,30,48.3,100.61,Mainly Clear
778,2243,4/3/2012 11:00,6.4,-9.1,32,11,48.3,100.91,Mainly Clear
779,2244,4/3/2012 12:00,7.1,-8.6,32,11,48.3,100.82,Mostly Cloudy
780,2245,4/3/2012 13:00,8.7,-9.1,27,11,48.3,100.76,Mostly Cloudy
781,2246,4/3/2012 14:00,10.0,-8.9,25,13,48.3,100.65,Mostly Cloudy
782,2247,4/3/2012 15:00,10.9,-9.0,24,24,48.3,100.54,Mainly Clear
783,2248,4/3/2012 16:00,10.8,-9.1,24,30,48.3,100.51,Mainly Clear
784,2249,4/3/2012 17:00,9.7,-9.0,26,28,48.3,100.52,Mostly Cloudy
785,2250,4/3/2012 18:00,8.9,-9.6,26,20,48.3,100.49,Mostly Cloudy
786,2252,4/3/2012 20:00,7.8,-9.2,29,9,25.0,100.42,Mostly Cloudy
787,2253,4/3/2012 21:00,7.1,-8.2,33,7,25.0,100.36,Mostly Cloudy
788,2256,4/4/2012 0:00,6.0,-8.2,35,9,25.0,100.22,Mostly Cloudy
789,2258,4/4/2012 2:00,6.0,-7.8,36,9,25.0,100.15,Mostly Cloudy
790,2259,4/4/2012 3:00,5.4,-4.1,50,11,25.0,100.05,Mostly Cloudy
791,2260,4/4/2012 4:00,5.2,-3.6,53,7,25.0,100.01,Mostly Cloudy
792,2261,4/4/2012 5:00,4.6,-2.8,59,9,24.1,99.94,Mostly Cloudy
793,2262,4/4/2012 6:00,4.2,-3.0,59,11,48.3,99.89,Mostly Cloudy
794,2263,4/4/2012 7:00,4.8,-4.1,52,17,48.3,99.85,Mostly Cloudy
795,2264,4/4/2012 8:00,5.5,-5.9,44,20,48.3,99.83,Mostly Cloudy
796,2265,4/4/2012 9:00,6.5,-6.5,39,28,48.3,99.83,Mostly Cloudy
797,2266,4/4/2012 10:00,8.7,-3.7,41,30,48.3,99.78,Mainly Clear
798,2267,4/4/2012 11:00,9.3,-2.6,43,28,48.3,99.75,Mainly Clear
799,2268,4/4/2012 12:00,8.9,-2.9,43,24,48.3,99.71,Mostly Cloudy
800,2273,4/4/2012 17:00,8.1,-4.6,40,26,24.1,99.81,Mostly Cloudy
801,2274,4/4/2012 18:00,7.6,-4.6,42,22,24.1,99.87,Mostly Cloudy
802,2275,4/4/2012 19:00,6.5,-3.8,48,19,24.1,99.98,Mainly Clear
803,2276,4/4/2012 20:00,6.0,-3.8,49,19,25.0,100.07,Mostly Cloudy
804,2277,4/4/2012 21:00,4.9,-4.4,51,19,25.0,100.13,Mostly Cloudy
805,2278,4/4/2012 22:00,3.7,-4.5,55,19,25.0,100.2,Mostly Cloudy
806,2279,4/4/2012 23:00,3.6,-4.6,55,19,25.0,100.24,Mostly Cloudy
807,2280,4/5/2012 0:00,3.2,-4.9,55,15,25.0,100.34,Mostly Cloudy
808,2281,4/5/2012 1:00,2.3,-5.8,55,17,25.0,100.37,Mainly Clear
809,2282,4/5/2012 2:00,2.3,-5.9,55,11,25.0,100.4,Mostly Cloudy
810,2283,4/5/2012 3:00,1.9,-4.6,62,13,25.0,100.41,Mostly Cloudy
811,2284,4/5/2012 4:00,1.5,-5.2,61,17,25.0,100.47,Mostly Cloudy
812,2285,4/5/2012 5:00,1.5,-6.7,54,17,25.0,100.51,Mostly Cloudy
813,2287,4/5/2012 7:00,2.3,-6.9,51,19,24.1,100.68,Mostly Cloudy
814,2288,4/5/2012 8:00,2.7,-6.5,51,20,24.1,100.72,Mostly Cloudy
815,2289,4/5/2012 9:00,3.9,-6.1,48,22,24.1,100.76,Mostly Cloudy
816,2290,4/5/2012 10:00,4.5,-7.6,41,17,24.1,100.76,Mostly Cloudy
817,2291,4/5/2012 11:00,4.8,-7.1,42,26,24.1,100.77,Mostly Cloudy
818,2292,4/5/2012 12:00,5.2,-6.6,42,22,24.1,100.74,Mostly Cloudy
819,2293,4/5/2012 13:00,6.6,-5.3,42,22,24.1,100.73,Mostly Cloudy
820,2294,4/5/2012 14:00,6.7,-6.2,39,20,24.1,100.7,Mainly Clear
821,2295,4/5/2012 15:00,7.6,-5.9,38,19,24.1,100.67,Mainly Clear
822,2296,4/5/2012 16:00,8.9,-5.7,35,24,48.3,100.65,Mainly Clear
823,2297,4/5/2012 17:00,7.7,-6.9,35,24,48.3,100.7,Mainly Clear
824,2298,4/5/2012 18:00,6.6,-7.0,37,20,48.3,100.75,Mostly Cloudy
825,2299,4/5/2012 19:00,5.6,-7.7,38,26,25.0,100.82,Mostly Cloudy
826,2300,4/5/2012 20:00,5.3,-7.9,38,19,25.0,100.87,Mostly Cloudy
827,2301,4/5/2012 21:00,4.9,-7.7,40,19,25.0,100.88,Mostly Cloudy
828,2302,4/5/2012 22:00,4.4,-7.4,42,22,25.0,100.89,Mostly Cloudy
829,2303,4/5/2012 23:00,3.5,-7.8,43,19,25.0,100.93,Mostly Cloudy
830,2304,4/6/2012 0:00,3.0,-8.2,44,22,25.0,100.97,Mostly Cloudy
831,2305,4/6/2012 1:00,2.8,-8.4,43,17,25.0,100.98,Mostly Cloudy
832,2308,4/6/2012 4:00,1.1,-8.3,49,17,25.0,101.13,Mostly Cloudy
833,2309,4/6/2012 5:00,-0.1,-8.7,52,15,24.1,101.17,Mostly Cloudy
834,2310,4/6/2012 6:00,-0.5,-9.4,51,15,48.3,101.23,Mainly Clear
835,2314,4/6/2012 10:00,3.9,-7.9,42,6,48.3,101.35,Mainly Clear
836,2316,4/6/2012 12:00,6.6,-8.3,34,20,48.3,101.24,Mainly Clear
837,2318,4/6/2012 14:00,8.6,-8.5,29,9,48.3,101.13,Mainly Clear
838,2319,4/6/2012 15:00,9.3,-8.3,28,19,48.3,101.1,Mainly Clear
839,2320,4/6/2012 16:00,8.5,-9.3,27,28,48.3,101.08,Mostly Cloudy
840,2321,4/6/2012 17:00,7.7,-11.0,25,32,48.3,101.11,Mostly Cloudy
841,2322,4/6/2012 18:00,7.3,-11.6,25,19,25.0,101.16,Mostly Cloudy
842,2323,4/6/2012 19:00,7.3,-11.7,24,13,25.0,101.21,Mostly Cloudy
843,2324,4/6/2012 20:00,6.7,-10.6,28,11,25.0,101.24,Mostly Cloudy
844,2329,4/7/2012 1:00,5.5,-10.6,30,17,25.0,101.29,Mostly Cloudy
845,2330,4/7/2012 2:00,3.1,-10.3,37,7,25.0,101.3,Mostly Cloudy
846,2331,4/7/2012 3:00,2.4,-10.0,39,11,25.0,101.32,Mainly Clear
847,2332,4/7/2012 4:00,2.5,-10.2,39,11,25.0,101.35,Mostly Cloudy
848,2333,4/7/2012 5:00,0.2,-10.4,45,7,25.0,101.39,Mainly Clear
849,2334,4/7/2012 6:00,1.5,-9.3,44,9,48.3,101.46,Mostly Cloudy
850,2335,4/7/2012 7:00,2.4,-10.1,39,11,48.3,101.5,Mainly Clear
851,2336,4/7/2012 8:00,4.5,-9.3,36,11,48.3,101.51,Mostly Cloudy
852,2337,4/7/2012 9:00,4.5,-9.5,35,11,48.3,101.52,Mostly Cloudy
853,2338,4/7/2012 10:00,5.7,-8.5,35,17,48.3,101.54,Mostly Cloudy
854,2339,4/7/2012 11:00,6.0,-9.2,33,13,48.3,101.51,Mostly Cloudy
855,2340,4/7/2012 12:00,6.6,-8.1,34,11,48.3,101.47,Mostly Cloudy
856,2341,4/7/2012 13:00,6.8,-7.8,34,9,48.3,101.44,Mostly Cloudy
857,2343,4/7/2012 15:00,8.0,-6.7,35,7,48.3,101.36,Mostly Cloudy
858,2344,4/7/2012 16:00,8.4,-6.4,34,4,24.1,101.34,Mostly Cloudy
859,2345,4/7/2012 17:00,8.4,-6.3,35,9,24.1,101.35,Mostly Cloudy
860,2346,4/7/2012 18:00,8.0,-6.1,36,7,25.0,101.35,Mostly Cloudy
861,2347,4/7/2012 19:00,8.0,-5.2,39,13,25.0,101.37,Mostly Cloudy
862,2349,4/7/2012 21:00,7.5,-5.2,40,17,25.0,101.41,Mostly Cloudy
863,2350,4/7/2012 22:00,6.2,-5.1,44,15,25.0,101.36,Mostly Cloudy
864,2351,4/7/2012 23:00,5.9,-5.0,45,11,25.0,101.31,Mostly Cloudy
865,2358,4/8/2012 6:00,4.8,-4.1,52,7,48.3,100.91,Mostly Cloudy
866,2359,4/8/2012 7:00,5.7,-4.1,49,11,48.3,100.87,Mostly Cloudy
867,2360,4/8/2012 8:00,6.6,-3.9,47,13,48.3,100.81,Mostly Cloudy
868,2361,4/8/2012 9:00,7.4,-3.7,45,19,48.3,100.73,Mostly Cloudy
869,2362,4/8/2012 10:00,7.3,-4.8,42,22,48.3,100.61,Mostly Cloudy
870,2363,4/8/2012 11:00,9.4,-3.6,40,15,48.3,100.46,Mostly Cloudy
871,2364,4/8/2012 12:00,10.4,-3.8,37,17,48.3,100.25,Mostly Cloudy
872,2365,4/8/2012 13:00,11.7,-3.9,33,20,48.3,100.11,Mostly Cloudy
873,2366,4/8/2012 14:00,12.1,-3.5,33,20,48.3,99.97,Mostly Cloudy
874,2367,4/8/2012 15:00,12.3,-3.8,32,22,48.3,99.86,Mostly Cloudy
875,2369,4/8/2012 17:00,12.3,-4.5,31,7,48.3,99.75,Mostly Cloudy
876,2370,4/8/2012 18:00,11.9,-4.7,31,19,25.0,99.69,Mostly Cloudy
877,2371,4/8/2012 19:00,11.5,-4.9,31,17,48.3,99.64,Mostly Cloudy
878,2372,4/8/2012 20:00,10.9,-3.9,35,15,25.0,99.59,Mostly Cloudy
879,2373,4/8/2012 21:00,10.4,-3.9,36,17,25.0,99.5,Mostly Cloudy
880,2374,4/8/2012 22:00,10.2,-3.7,37,19,25.0,99.42,Mostly Cloudy
881,2376,4/9/2012 0:00,7.5,-3.5,46,4,25.0,99.31500000000001,Mostly Cloudy
882,2396,4/9/2012 20:00,5.7,1.4,74,19,25.0,99.4,Mostly Cloudy
883,2399,4/9/2012 23:00,5.3,0.9,73,20,25.0,99.42,Mostly Cloudy
884,2402,4/10/2012 2:00,4.6,1.8,82,19,25.0,99.4,Mostly Cloudy
885,2403,4/10/2012 3:00,4.3,1.6,83,17,25.0,99.37,Mostly Cloudy
886,2404,4/10/2012 4:00,4.0,1.5,84,13,25.0,99.39,Mostly Cloudy
887,2406,4/10/2012 6:00,4.3,1.7,83,9,24.1,99.45,Mostly Cloudy
888,2409,4/10/2012 9:00,5.7,1.8,76,15,24.1,99.53,Mostly Cloudy
889,2410,4/10/2012 10:00,6.9,0.9,66,20,24.1,99.56,Mostly Cloudy
890,2413,4/10/2012 13:00,8.8,1.0,58,22,24.1,99.6,Mostly Cloudy
891,2416,4/10/2012 16:00,6.7,2.9,77,20,24.1,99.77,Mostly Cloudy
892,2417,4/10/2012 17:00,6.8,2.4,73,19,24.1,99.83,Mostly Cloudy
893,2418,4/10/2012 18:00,6.0,2.5,78,24,24.1,99.91,Mostly Cloudy
894,2419,4/10/2012 19:00,5.8,2.3,78,19,25.0,100.01,Mostly Cloudy
895,2420,4/10/2012 20:00,5.2,1.8,79,20,25.0,100.12,Mostly Cloudy
896,2421,4/10/2012 21:00,5.1,2.3,82,22,25.0,100.15,Mostly Cloudy
897,2422,4/10/2012 22:00,4.4,1.9,84,11,25.0,100.16,Mostly Cloudy
898,2423,4/10/2012 23:00,4.7,2.4,85,15,25.0,100.21,Mostly Cloudy
899,2424,4/11/2012 0:00,4.3,1.9,84,17,25.0,100.24,Mostly Cloudy
900,2425,4/11/2012 1:00,4.0,1.7,85,9,25.0,100.26,Mostly Cloudy
901,2426,4/11/2012 2:00,3.2,1.4,88,11,25.0,100.26,Mostly Cloudy
902,2427,4/11/2012 3:00,3.0,1.3,89,0,25.0,100.3,Mostly Cloudy
903,2428,4/11/2012 4:00,1.6,0.1,90,0,25.0,100.34,Mainly Clear
904,2429,4/11/2012 5:00,0.7,-0.8,90,6,24.1,100.4,Mostly Cloudy
905,2430,4/11/2012 6:00,2.4,0.8,89,6,24.1,100.5,Mostly Cloudy
906,2434,4/11/2012 10:00,6.7,2.2,73,4,24.1,100.76,Mostly Cloudy
907,2436,4/11/2012 12:00,8.8,2.5,65,9,24.1,100.76,Mainly Clear
908,2437,4/11/2012 13:00,11.0,1.9,53,4,24.1,100.74,Mostly Cloudy
909,2439,4/11/2012 15:00,7.5,3.1,74,7,24.1,100.79,Mostly Cloudy
910,2440,4/11/2012 16:00,9.5,1.4,57,20,24.1,100.82,Mostly Cloudy
911,2442,4/11/2012 18:00,8.4,-0.2,55,17,24.1,100.92,Mainly Clear
912,2443,4/11/2012 19:00,6.4,-0.4,62,11,24.1,101.0,Mainly Clear
913,2444,4/11/2012 20:00,7.4,0.8,63,13,25.0,101.07,Mostly Cloudy
914,2445,4/11/2012 21:00,6.9,0.9,66,7,25.0,101.08,Mostly Cloudy
915,2446,4/11/2012 22:00,3.3,-0.9,74,11,25.0,101.09,Mostly Cloudy
916,2447,4/11/2012 23:00,6.6,-0.3,61,13,25.0,101.11,Mostly Cloudy
917,2448,4/12/2012 0:00,5.5,-1.5,61,13,25.0,101.14,Mainly Clear
918,2449,4/12/2012 1:00,5.8,-2.2,56,15,25.0,101.15,Mostly Cloudy
919,2450,4/12/2012 2:00,4.8,-2.6,59,17,25.0,101.18,Mainly Clear
920,2451,4/12/2012 3:00,4.3,-2.8,60,13,25.0,101.21,Mostly Cloudy
921,2452,4/12/2012 4:00,3.1,-3.0,64,13,25.0,101.24,Mainly Clear
922,2453,4/12/2012 5:00,3.8,-2.9,62,15,24.1,101.3,Mostly Cloudy
923,2454,4/12/2012 6:00,3.5,-2.9,63,13,48.3,101.36,Mainly Clear
924,2455,4/12/2012 7:00,4.0,-2.3,63,6,48.3,101.43,Mainly Clear
925,2456,4/12/2012 8:00,6.5,-2.1,54,13,48.3,101.46,Mostly Cloudy
926,2457,4/12/2012 9:00,7.7,-1.8,51,13,48.3,101.5,Mostly Cloudy
927,2458,4/12/2012 10:00,8.7,-1.4,49,9,48.3,101.51,Mostly Cloudy
928,2459,4/12/2012 11:00,9.8,-1.2,46,9,48.3,101.46,Mostly Cloudy
929,2460,4/12/2012 12:00,10.4,-1.5,43,4,48.3,101.42,Mostly Cloudy
930,2461,4/12/2012 13:00,10.0,-1.0,46,15,48.3,101.4,Mostly Cloudy
931,2462,4/12/2012 14:00,10.3,-1.1,45,13,48.3,101.38,Mostly Cloudy
932,2463,4/12/2012 15:00,11.3,-1.4,41,15,48.3,101.33,Mostly Cloudy
933,2464,4/12/2012 16:00,12.4,-1.8,37,15,48.3,101.32,Mostly Cloudy
934,2465,4/12/2012 17:00,11.4,-1.5,41,11,48.3,101.32,Mainly Clear
935,2466,4/12/2012 18:00,11.3,-2.2,39,17,48.3,101.33,Mainly Clear
936,2467,4/12/2012 19:00,9.9,-1.8,44,11,48.3,101.34,Mainly Clear
937,2468,4/12/2012 20:00,9.1,-1.1,49,7,25.0,101.38,Mainly Clear
938,2469,4/12/2012 21:00,6.6,-0.8,59,0,25.0,101.39,Mainly Clear
939,2479,4/13/2012 7:00,4.1,-2.1,64,7,48.3,101.75,Mainly Clear
940,2480,4/13/2012 8:00,6.1,-1.5,58,7,48.3,101.77,Mainly Clear
941,2481,4/13/2012 9:00,8.0,-0.8,54,13,48.3,101.73,Mainly Clear
942,2482,4/13/2012 10:00,9.8,-1.8,44,17,48.3,101.69,Mainly Clear
943,2483,4/13/2012 11:00,12.2,-1.0,40,19,48.3,101.6,Mainly Clear
944,2484,4/13/2012 12:00,13.5,-3.0,32,24,48.3,101.52,Mainly Clear
945,2485,4/13/2012 13:00,14.7,-6.1,23,24,48.3,101.48,Mainly Clear
946,2486,4/13/2012 14:00,15.0,-5.6,24,22,48.3,101.36,Mainly Clear
947,2487,4/13/2012 15:00,15.9,-4.9,24,32,48.3,101.27,Mainly Clear
948,2488,4/13/2012 16:00,16.1,-5.2,23,30,48.3,101.22,Mostly Cloudy
949,2491,4/13/2012 19:00,13.6,-6.8,24,19,48.3,101.25,Mostly Cloudy
950,2492,4/13/2012 20:00,12.2,-5.9,28,15,25.0,101.31,Mostly Cloudy
951,2493,4/13/2012 21:00,11.7,-5.1,30,19,25.0,101.32,Mainly Clear
952,2494,4/13/2012 22:00,10.3,-1.3,44,20,25.0,101.36,Mainly Clear
953,2495,4/13/2012 23:00,9.1,-1.3,48,20,25.0,101.37,Mainly Clear
954,2499,4/14/2012 3:00,5.4,-1.0,63,19,25.0,101.36,Mainly Clear
955,2500,4/14/2012 4:00,5.7,-0.5,64,11,25.0,101.35,Mainly Clear
956,2501,4/14/2012 5:00,6.2,0.0,64,17,25.0,101.36,Mostly Cloudy
957,2502,4/14/2012 6:00,6.7,-0.9,58,19,24.1,101.42,Mostly Cloudy
958,2503,4/14/2012 7:00,7.5,-1.2,54,20,48.3,101.49,Mostly Cloudy
959,2504,4/14/2012 8:00,9.2,-0.5,51,19,48.3,101.46,Mostly Cloudy
960,2505,4/14/2012 9:00,10.8,-0.3,46,20,48.3,101.45,Mostly Cloudy
961,2513,4/14/2012 17:00,15.4,-3.1,28,24,48.3,101.0,Mostly Cloudy
962,2514,4/14/2012 18:00,14.5,-2.7,30,13,48.3,100.95,Mostly Cloudy
963,2515,4/14/2012 19:00,11.9,-0.6,42,7,48.3,100.91,Mostly Cloudy
964,2516,4/14/2012 20:00,12.8,-0.9,39,7,25.0,100.9,Mostly Cloudy
965,2517,4/14/2012 21:00,12.0,0.0,44,7,25.0,100.86,Mostly Cloudy
966,2518,4/14/2012 22:00,11.0,0.1,47,9,25.0,100.82,Mostly Cloudy
967,2519,4/14/2012 23:00,11.6,0.3,46,9,25.0,100.76,Mostly Cloudy
968,2520,4/15/2012 0:00,12.9,0.1,41,9,25.0,100.77,Mostly Cloudy
969,2521,4/15/2012 1:00,13.1,0.6,42,13,25.0,100.74,Mostly Cloudy
970,2522,4/15/2012 2:00,12.4,1.8,48,15,25.0,100.7,Mostly Cloudy
971,2526,4/15/2012 6:00,10.6,5.4,70,13,24.1,100.74,Mainly Clear
972,2531,4/15/2012 11:00,17.3,9.7,61,28,24.1,100.68,Mainly Clear
973,2532,4/15/2012 12:00,18.4,10.1,58,28,48.3,100.65,Mainly Clear
974,2533,4/15/2012 13:00,19.8,10.1,54,32,48.3,100.68,Mostly Cloudy
975,2534,4/15/2012 14:00,19.4,10.1,55,26,24.1,100.68,Mostly Cloudy
976,2535,4/15/2012 15:00,18.1,10.6,62,24,48.3,100.65,Mostly Cloudy
977,2541,4/15/2012 21:00,14.6,10.5,76,6,25.0,100.83,Mostly Cloudy
978,2552,4/16/2012 8:00,19.3,13.5,69,17,24.1,100.52,Mostly Cloudy
979,2553,4/16/2012 9:00,22.2,13.6,58,15,24.1,100.52,Mostly Cloudy
980,2559,4/16/2012 15:00,27.4,11.5,37,28,24.1,100.12,Mostly Cloudy
981,2560,4/16/2012 16:00,27.8,11.6,37,26,48.3,100.06,Mostly Cloudy
982,2561,4/16/2012 17:00,27.3,11.5,37,26,48.3,100.03,Mainly Clear
983,2562,4/16/2012 18:00,26.7,11.3,38,11,48.3,99.99,Mostly Cloudy
984,2564,4/16/2012 20:00,20.5,15.6,73,4,25.0,100.22,Mostly Cloudy
985,2565,4/16/2012 21:00,19.3,15.8,80,13,25.0,100.26,Mostly Cloudy
986,2567,4/16/2012 23:00,19.5,14.2,71,30,25.0,100.31,Mostly Cloudy
987,2568,4/17/2012 0:00,19.0,11.6,62,28,25.0,100.34,Mainly Clear
988,2569,4/17/2012 1:00,18.9,9.6,55,35,25.0,100.42,Mainly Clear
989,2570,4/17/2012 2:00,17.4,4.7,43,30,25.0,100.51,Mainly Clear
990,2571,4/17/2012 3:00,15.4,6.3,55,15,25.0,100.61,Mainly Clear
991,2572,4/17/2012 4:00,14.5,6.1,57,15,25.0,100.8,Mainly Clear
992,2573,4/17/2012 5:00,13.5,5.9,60,33,48.3,100.99,Mostly Cloudy
993,2574,4/17/2012 6:00,11.9,2.3,52,15,48.3,101.19,Mainly Clear
994,2575,4/17/2012 7:00,10.9,1.9,54,15,48.3,101.32,Mainly Clear
995,2576,4/17/2012 8:00,10.2,0.6,51,15,48.3,101.42,Mainly Clear
996,2577,4/17/2012 9:00,10.2,-1.1,45,15,48.3,101.5,Mainly Clear
997,2578,4/17/2012 10:00,10.9,-1.3,43,15,48.3,101.51,Mainly Clear
998,2579,4/17/2012 11:00,11.5,-1.0,42,30,48.3,101.57,Mostly Cloudy
999,2580,4/17/2012 12:00,12.0,-0.8,41,15,48.3,101.58,Mostly Cloudy
1000,2581,4/17/2012 13:00,12.2,-0.2,42,32,48.3,101.61,Mainly Clear
1001,2582,4/17/2012 14:00,12.6,-0.3,41,35,48.3,101.64,Mostly Cloudy
1002,2583,4/17/2012 15:00,12.7,-0.5,40,30,48.3,101.63,Mainly Clear
1003,2584,4/17/2012 16:00,11.6,-1.2,41,32,48.3,101.69,Mainly Clear
1004,2585,4/17/2012 17:00,11.1,-1.7,41,24,48.3,101.72,Mostly Cloudy
1005,2586,4/17/2012 18:00,9.5,-2.8,42,24,48.3,101.79,Mostly Cloudy
1006,2587,4/17/2012 19:00,8.5,-4.1,41,28,24.1,101.89,Mostly Cloudy
1007,2588,4/17/2012 20:00,7.4,-5.1,41,19,25.0,102.04,Mostly Cloudy
1008,2589,4/17/2012 21:00,6.1,-5.6,43,17,25.0,102.12,Mostly Cloudy
1009,2590,4/17/2012 22:00,5.4,-5.4,46,11,25.0,102.17,Mostly Cloudy
1010,2591,4/17/2012 23:00,3.9,-4.8,53,17,25.0,102.17,Mostly Cloudy
1011,2604,4/18/2012 12:00,7.3,-4.6,43,11,48.3,102.13,Mainly Clear
1012,2605,4/18/2012 13:00,8.6,-3.3,43,15,48.3,102.05,Mainly Clear
1013,2606,4/18/2012 14:00,9.3,-3.2,41,7,48.3,101.97,Mainly Clear
1014,2607,4/18/2012 15:00,10.4,-3.2,38,11,48.3,101.86,Mainly Clear
1015,2608,4/18/2012 16:00,10.3,-3.6,37,9,48.3,101.8,Mainly Clear
1016,2609,4/18/2012 17:00,10.2,-4.1,36,13,48.3,101.75,Mainly Clear
1017,2610,4/18/2012 18:00,10.0,-5.5,33,7,48.3,101.7,Mainly Clear
1018,2611,4/18/2012 19:00,8.4,-3.9,42,9,48.3,101.66,Mainly Clear
1019,2612,4/18/2012 20:00,7.6,-4.0,44,7,25.0,101.62,Mainly Clear
1020,2613,4/18/2012 21:00,7.9,-4.2,42,4,25.0,101.56,Mostly Cloudy
1021,2614,4/18/2012 22:00,8.4,-4.1,41,0,25.0,101.53,Mostly Cloudy
1022,2615,4/18/2012 23:00,6.8,-2.6,51,6,25.0,101.5,Mainly Clear
1023,2616,4/19/2012 0:00,6.5,-2.7,52,4,25.0,101.44,Mainly Clear
1024,2619,4/19/2012 3:00,4.4,-3.3,57,4,25.0,101.28,Mainly Clear
1025,2620,4/19/2012 4:00,3.4,-3.2,62,0,25.0,101.27,Mainly Clear
1026,2621,4/19/2012 5:00,3.4,-2.9,63,4,24.1,101.25,Mainly Clear
1027,2622,4/19/2012 6:00,4.7,-0.8,67,4,48.3,101.28,Mostly Cloudy
1028,2623,4/19/2012 7:00,7.1,-0.4,59,4,48.3,101.24,Mostly Cloudy
1029,2624,4/19/2012 8:00,8.6,-1.1,50,7,48.3,101.18,Mostly Cloudy
1030,2625,4/19/2012 9:00,11.8,-0.5,43,7,48.3,101.14,Mainly Clear
1031,2626,4/19/2012 10:00,14.0,-0.4,37,13,48.3,101.05,Mainly Clear
1032,2627,4/19/2012 11:00,15.8,0.5,35,19,48.3,101.02,Mostly Cloudy
1033,2628,4/19/2012 12:00,16.6,0.9,35,15,48.3,100.95,Mostly Cloudy
1034,2629,4/19/2012 13:00,18.4,1.7,33,20,48.3,100.88,Mostly Cloudy
1035,2630,4/19/2012 14:00,19.3,2.6,33,17,48.3,100.78,Mostly Cloudy
1036,2631,4/19/2012 15:00,20.2,3.9,34,28,48.3,100.69,Mostly Cloudy
1037,2632,4/19/2012 16:00,20.7,4.0,33,26,48.3,100.65,Mostly Cloudy
1038,2633,4/19/2012 17:00,20.0,4.3,36,24,48.3,100.62,Mainly Clear
1039,2634,4/19/2012 18:00,18.7,4.5,39,22,48.3,100.63,Mainly Clear
1040,2635,4/19/2012 19:00,18.0,4.1,40,15,48.3,100.69,Mainly Clear
1041,2636,4/19/2012 20:00,16.6,4.5,45,17,25.0,100.73,Mainly Clear
1042,2638,4/19/2012 22:00,13.9,4.8,54,13,25.0,100.73,Mainly Clear
1043,2639,4/19/2012 23:00,12.6,4.6,58,9,25.0,100.78,Mainly Clear
1044,2640,4/20/2012 0:00,12.5,2.5,50,19,25.0,100.88,Mainly Clear
1045,2642,4/20/2012 2:00,9.9,1.3,55,20,25.0,100.94,Mainly Clear
1046,2643,4/20/2012 3:00,9.1,1.5,59,15,25.0,101.0,Mainly Clear
1047,2644,4/20/2012 4:00,8.8,1.1,58,19,25.0,101.02,Mainly Clear
1048,2645,4/20/2012 5:00,8.7,-0.6,52,22,25.0,101.04,Mostly Cloudy
1049,2646,4/20/2012 6:00,7.8,-0.4,56,28,24.1,101.11,Mostly Cloudy
1050,2745,4/24/2012 9:00,7.7,1.4,64,17,48.3,99.31500000000001,Mostly Cloudy
1051,2747,4/24/2012 11:00,8.8,1.2,59,26,24.1,99.31500000000001,Mostly Cloudy
1052,2748,4/24/2012 12:00,8.9,3.6,69,17,24.1,99.31500000000001,Mostly Cloudy
1053,2754,4/24/2012 18:00,7.7,0.4,60,20,48.3,99.31500000000001,Mostly Cloudy
1054,2758,4/24/2012 22:00,6.0,-0.9,61,24,25.0,99.56,Mostly Cloudy
1055,2759,4/24/2012 23:00,5.4,-0.9,64,19,25.0,99.61,Mostly Cloudy
1056,2760,4/25/2012 0:00,4.9,-0.6,68,19,25.0,99.67,Mostly Cloudy
1057,2761,4/25/2012 1:00,5.5,-0.7,64,19,25.0,99.71,Mostly Cloudy
1058,2762,4/25/2012 2:00,4.5,-0.2,71,13,25.0,99.74,Mostly Cloudy
1059,2763,4/25/2012 3:00,4.4,-0.3,71,15,25.0,99.77,Mostly Cloudy
1060,2764,4/25/2012 4:00,4.8,-0.3,70,15,25.0,99.8,Mostly Cloudy
1061,2765,4/25/2012 5:00,4.5,0.0,73,13,24.1,99.84,Mostly Cloudy
1062,2771,4/25/2012 11:00,7.8,2.7,70,17,48.3,100.23,Mostly Cloudy
1063,2772,4/25/2012 12:00,8.0,1.9,65,20,48.3,100.26,Mostly Cloudy
1064,2773,4/25/2012 13:00,8.7,0.1,55,20,48.3,100.29,Mostly Cloudy
1065,2774,4/25/2012 14:00,9.8,1.7,57,19,24.1,100.31,Mostly Cloudy
1066,2776,4/25/2012 16:00,8.8,-1.5,48,17,24.1,100.41,Mostly Cloudy
1067,2777,4/25/2012 17:00,8.8,-1.5,48,22,48.3,100.45,Mostly Cloudy
1068,2778,4/25/2012 18:00,8.0,-1.9,50,22,48.3,100.5,Mostly Cloudy
1069,2779,4/25/2012 19:00,7.3,0.1,60,17,24.1,100.56,Mostly Cloudy
1070,2780,4/25/2012 20:00,7.3,-0.2,59,17,25.0,100.61,Mostly Cloudy
1071,2781,4/25/2012 21:00,7.0,0.0,61,13,25.0,100.67,Mostly Cloudy
1072,2782,4/25/2012 22:00,6.2,0.2,65,9,25.0,100.69,Mostly Cloudy
1073,2784,4/26/2012 0:00,5.8,0.9,71,7,25.0,100.68,Mostly Cloudy
1074,2785,4/26/2012 1:00,4.9,0.2,72,9,25.0,100.67,Mainly Clear
1075,2786,4/26/2012 2:00,3.7,-0.5,74,7,25.0,100.67,Mainly Clear
1076,2791,4/26/2012 7:00,5.5,0.9,72,7,48.3,100.72,Mostly Cloudy
1077,2794,4/26/2012 10:00,8.8,0.3,55,11,48.3,100.6,Mostly Cloudy
1078,2811,4/27/2012 3:00,4.4,1.8,83,22,25.0,99.87,Mostly Cloudy
1079,2812,4/27/2012 4:00,4.2,1.0,80,24,25.0,99.94,Mostly Cloudy
1080,2814,4/27/2012 6:00,2.5,-1.7,74,28,24.1,100.16,Mostly Cloudy
1081,2838,4/28/2012 6:00,-2.1,-10.7,52,22,48.3,101.74,Mainly Clear
1082,2839,4/28/2012 7:00,-1.3,-10.0,52,30,48.3,101.75,Mainly Clear
1083,2840,4/28/2012 8:00,-0.4,-10.0,48,24,48.3,101.78,Mainly Clear
1084,2841,4/28/2012 9:00,0.6,-9.7,46,32,48.3,101.79,Mainly Clear
1085,2842,4/28/2012 10:00,2.0,-7.4,50,28,48.3,101.73,Mainly Clear
1086,2843,4/28/2012 11:00,3.9,-9.9,36,24,48.3,101.71,Mainly Clear
1087,2844,4/28/2012 12:00,5.0,-9.7,34,30,48.3,101.68,Mainly Clear
1088,2845,4/28/2012 13:00,5.4,-11.1,29,32,48.3,101.62,Mainly Clear
1089,2846,4/28/2012 14:00,6.4,-10.7,28,24,48.3,101.57,Mainly Clear
1090,2847,4/28/2012 15:00,7.2,-10.5,27,35,48.3,101.5,Mainly Clear
1091,2848,4/28/2012 16:00,7.4,-11.0,26,30,48.3,101.46,Mainly Clear
1092,2849,4/28/2012 17:00,7.7,-11.2,25,28,48.3,101.45,Mainly Clear
1093,2852,4/28/2012 20:00,4.1,-10.2,34,11,25.0,101.51,Mainly Clear
1094,2854,4/28/2012 22:00,1.9,-9.9,41,9,25.0,101.56,Mostly Cloudy
1095,2855,4/28/2012 23:00,0.8,-9.1,47,6,25.0,101.55,Mostly Cloudy
1096,2857,4/29/2012 1:00,1.3,-8.7,47,11,25.0,101.49,Mainly Clear
1097,2858,4/29/2012 2:00,1.3,-7.5,52,11,25.0,101.49,Mainly Clear
1098,2859,4/29/2012 3:00,0.8,-7.8,53,13,25.0,101.47,Mostly Cloudy
1099,2860,4/29/2012 4:00,-0.1,-7.7,57,9,25.0,101.48,Mainly Clear
1100,2861,4/29/2012 5:00,0.9,-10.5,42,19,48.3,101.52,Mostly Cloudy
1101,2862,4/29/2012 6:00,1.2,-11.4,38,20,48.3,101.58,Mostly Cloudy
1102,2863,4/29/2012 7:00,1.8,-11.9,35,26,48.3,101.64,Mostly Cloudy
1103,2864,4/29/2012 8:00,2.6,-11.7,34,19,48.3,101.65,Mostly Cloudy
1104,2865,4/29/2012 9:00,4.3,-11.7,30,19,48.3,101.64,Mainly Clear
1105,2872,4/29/2012 16:00,9.2,-11.8,21,28,48.3,101.66,Mainly Clear
1106,2876,4/29/2012 20:00,6.3,-11.4,27,15,25.0,101.93,Mainly Clear
1107,2877,4/29/2012 21:00,5.4,-11.0,29,19,25.0,102.01,Mainly Clear
1108,2885,4/30/2012 5:00,-0.7,-6.9,63,4,48.3,102.23,Mainly Clear
1109,2886,4/30/2012 6:00,3.0,-4.3,59,0,48.3,102.33,Mainly Clear
1110,2887,4/30/2012 7:00,6.0,-7.3,38,0,48.3,102.37,Mainly Clear
1111,2888,4/30/2012 8:00,6.6,-6.3,39,11,48.3,102.41,Mostly Cloudy
1112,2889,4/30/2012 9:00,7.2,-6.4,37,7,48.3,102.31,Mostly Cloudy
1113,2890,4/30/2012 10:00,7.6,-6.7,35,7,48.3,102.31,Mostly Cloudy
1114,2891,4/30/2012 11:00,9.3,-5.2,35,0,48.3,102.2,Mostly Cloudy
1115,2892,4/30/2012 12:00,10.1,-3.2,39,6,48.3,102.15,Mostly Cloudy
1116,2893,4/30/2012 13:00,12.4,-4.3,31,11,48.3,102.01,Mostly Cloudy
1117,2894,4/30/2012 14:00,12.4,-3.2,34,7,48.3,101.93,Mostly Cloudy
1118,2895,4/30/2012 15:00,12.5,-4.2,31,15,48.3,101.83,Mostly Cloudy
1119,2896,4/30/2012 16:00,12.9,-3.8,31,9,48.3,101.79,Mostly Cloudy
1120,2942,5/2/2012 14:00,13.0,8.5,74,11,16.1,101.51,Mostly Cloudy
1121,2943,5/2/2012 15:00,14.0,9.1,72,19,16.1,101.42,Mostly Cloudy
1122,2944,5/2/2012 16:00,14.9,9.0,68,19,19.3,101.37,Mostly Cloudy
1123,2945,5/2/2012 17:00,15.4,8.9,65,17,24.1,101.31,Mostly Cloudy
1124,2947,5/2/2012 19:00,15.2,9.0,66,15,24.1,101.29,Mostly Cloudy
1125,2948,5/2/2012 20:00,14.2,9.0,71,11,25.0,101.34,Mostly Cloudy
1126,2949,5/2/2012 21:00,14.2,8.0,66,17,25.0,101.27,Mostly Cloudy
1127,2973,5/3/2012 21:00,14.2,10.8,80,13,25.0,101.04,Mostly Cloudy
1128,2994,5/4/2012 18:00,17.4,13.0,75,4,24.1,100.79,Mostly Cloudy
1129,2996,5/4/2012 20:00,15.4,13.5,88,9,25.0,100.89,Mostly Cloudy
1130,2998,5/4/2012 22:00,11.0,5.4,68,30,25.0,101.08,Mostly Cloudy
1131,2999,5/4/2012 23:00,10.2,4.6,68,17,25.0,101.17,Mostly Cloudy
1132,3000,5/5/2012 0:00,8.4,4.1,74,4,25.0,101.25,Mainly Clear
1133,3001,5/5/2012 1:00,7.9,3.4,73,11,25.0,101.32,Mainly Clear
1134,3002,5/5/2012 2:00,7.7,2.9,72,11,25.0,101.36,Mainly Clear
1135,3003,5/5/2012 3:00,6.5,1.6,71,15,25.0,101.42,Mainly Clear
1136,3004,5/5/2012 4:00,5.7,0.2,68,11,25.0,101.44,Mainly Clear
1137,3005,5/5/2012 5:00,5.2,-0.6,66,17,24.1,101.49,Mainly Clear
1138,3006,5/5/2012 6:00,5.9,-0.7,63,15,48.3,101.55,Mainly Clear
1139,3007,5/5/2012 7:00,6.5,-0.7,60,19,48.3,101.62,Mainly Clear
1140,3008,5/5/2012 8:00,7.6,0.3,60,17,48.3,101.66,Mainly Clear
1141,3009,5/5/2012 9:00,8.3,0.7,59,9,48.3,101.74,Mainly Clear
1142,3010,5/5/2012 10:00,9.4,1.2,57,11,48.3,101.78,Mainly Clear
1143,3011,5/5/2012 11:00,10.8,0.8,50,13,48.3,101.73,Mainly Clear
1144,3012,5/5/2012 12:00,11.8,0.4,45,11,48.3,101.69,Mainly Clear
1145,3013,5/5/2012 13:00,12.8,-0.7,39,13,48.3,101.63,Mostly Cloudy
1146,3014,5/5/2012 14:00,14.4,-1.0,35,7,48.3,101.59,Mainly Clear
1147,3015,5/5/2012 15:00,15.4,-1.0,32,6,48.3,101.55,Mainly Clear
1148,3018,5/5/2012 18:00,15.7,-2.8,28,11,48.3,101.52,Mainly Clear
1149,3019,5/5/2012 19:00,14.7,-3.0,29,0,48.3,101.54,Mainly Clear
1150,3020,5/5/2012 20:00,12.8,-2.0,36,4,25.0,101.62,Mainly Clear
1151,3021,5/5/2012 21:00,12.6,-2.7,34,6,25.0,101.65,Mostly Cloudy
1152,3024,5/6/2012 0:00,12.1,-4.7,31,9,25.0,101.67,Mostly Cloudy
1153,3025,5/6/2012 1:00,10.9,-4.1,35,15,25.0,101.61,Mainly Clear
1154,3026,5/6/2012 2:00,7.8,-3.2,46,13,25.0,101.63,Mainly Clear
1155,3027,5/6/2012 3:00,7.0,-2.0,53,17,25.0,101.67,Mainly Clear
1156,3028,5/6/2012 4:00,6.6,-3.6,48,17,25.0,101.67,Mainly Clear
1157,3029,5/6/2012 5:00,6.2,-3.4,50,20,48.3,101.71,Mostly Cloudy
1158,3032,5/6/2012 8:00,9.8,-1.1,47,17,48.3,101.81,Mostly Cloudy
1159,3033,5/6/2012 9:00,11.0,-0.9,44,20,48.3,101.86,Mainly Clear
1160,3034,5/6/2012 10:00,12.3,-1.1,39,15,48.3,101.84,Mainly Clear
1161,3035,5/6/2012 11:00,13.8,-4.0,29,15,48.3,101.77,Mainly Clear
1162,3036,5/6/2012 12:00,14.7,-2.9,30,6,48.3,101.74,Mainly Clear
1163,3037,5/6/2012 13:00,15.0,-1.2,33,7,48.3,101.66,Mainly Clear
1164,3038,5/6/2012 14:00,15.7,-2.3,29,9,48.3,101.61,Mainly Clear
1165,3039,5/6/2012 15:00,16.6,-3.0,26,6,48.3,101.61,Mainly Clear
1166,3040,5/6/2012 16:00,16.6,-2.7,27,7,48.3,101.6,Mainly Clear
1167,3041,5/6/2012 17:00,16.6,-1.7,29,11,48.3,101.57,Mainly Clear
1168,3042,5/6/2012 18:00,16.1,-2.7,27,11,48.3,101.56,Mainly Clear
1169,3043,5/6/2012 19:00,14.4,-1.8,33,9,48.3,101.56,Mostly Cloudy
1170,3044,5/6/2012 20:00,13.1,-1.4,37,9,25.0,101.58,Mainly Clear
1171,3045,5/6/2012 21:00,12.3,-1.0,40,6,25.0,101.57,Mainly Clear
1172,3046,5/6/2012 22:00,11.7,-1.6,40,0,25.0,101.58,Mainly Clear
1173,3059,5/7/2012 11:00,17.8,-3.1,24,7,48.3,101.59,Mainly Clear
1174,3060,5/7/2012 12:00,18.9,-4.2,21,13,48.3,101.48,Mainly Clear
1175,3061,5/7/2012 13:00,19.7,-2.3,22,13,48.3,101.43,Mainly Clear
1176,3062,5/7/2012 14:00,20.1,-3.6,20,19,48.3,101.36,Mainly Clear
1177,3063,5/7/2012 15:00,20.6,-2.3,21,7,48.3,101.25,Mostly Cloudy
1178,3064,5/7/2012 16:00,20.9,-2.0,21,11,48.3,101.14,Mostly Cloudy
1179,3065,5/7/2012 17:00,21.0,-2.9,20,13,48.3,101.07,Mostly Cloudy
1180,3066,5/7/2012 18:00,20.7,-4.4,18,13,48.3,101.0,Mostly Cloudy
1181,3067,5/7/2012 19:00,19.9,-4.0,20,11,48.3,100.93,Mostly Cloudy
1182,3068,5/7/2012 20:00,19.2,-3.8,21,13,25.0,100.9,Mostly Cloudy
1183,3070,5/7/2012 22:00,18.1,-3.5,23,17,25.0,100.84,Mainly Clear
1184,3071,5/7/2012 23:00,17.6,-2.2,26,15,25.0,100.77,Mostly Cloudy
1185,3072,5/8/2012 0:00,16.1,0.2,34,11,25.0,100.77,Mostly Cloudy
1186,3109,5/9/2012 13:00,17.4,12.0,71,15,24.1,99.96,Mostly Cloudy
1187,3110,5/9/2012 14:00,17.9,11.2,65,15,24.1,99.88,Mostly Cloudy
1188,3111,5/9/2012 15:00,19.0,11.4,61,13,24.1,99.78,Mostly Cloudy
1189,3115,5/9/2012 19:00,16.3,10.9,70,11,24.1,99.68,Mostly Cloudy
1190,3116,5/9/2012 20:00,15.9,11.0,73,7,25.0,99.68,Mostly Cloudy
1191,3117,5/9/2012 21:00,15.4,9.5,68,11,25.0,99.67,Mostly Cloudy
1192,3118,5/9/2012 22:00,14.3,9.4,72,13,25.0,99.67,Mainly Clear
1193,3119,5/9/2012 23:00,11.9,8.3,79,4,25.0,99.65,Mainly Clear
1194,3120,5/10/2012 0:00,12.2,8.4,78,15,25.0,99.66,Mostly Cloudy
1195,3121,5/10/2012 1:00,11.6,8.6,82,6,25.0,99.62,Mostly Cloudy
1196,3142,5/10/2012 22:00,9.2,4.1,70,24,25.0,99.92,Mostly Cloudy
1197,3143,5/10/2012 23:00,9.0,3.1,66,17,25.0,100.0,Mostly Cloudy
1198,3151,5/11/2012 7:00,9.5,2.3,61,19,48.3,100.54,Mostly Cloudy
1199,3152,5/11/2012 8:00,11.3,3.0,57,19,48.3,100.6,Mostly Cloudy
1200,3153,5/11/2012 9:00,11.7,1.6,50,19,48.3,100.63,Mainly Clear
1201,3154,5/11/2012 10:00,13.1,1.4,45,22,48.3,100.64,Mainly Clear
1202,3155,5/11/2012 11:00,14.6,-0.9,34,24,48.3,100.65,Mainly Clear
1203,3156,5/11/2012 12:00,15.3,-1.4,32,22,48.3,100.67,Mainly Clear
1204,3157,5/11/2012 13:00,16.4,-1.3,30,20,48.3,100.7,Mainly Clear
1205,3158,5/11/2012 14:00,17.6,-1.0,28,32,48.3,100.72,Mainly Clear
1206,3159,5/11/2012 15:00,17.1,-1.8,27,26,48.3,100.76,Mainly Clear
1207,3160,5/11/2012 16:00,17.8,-2.1,26,26,48.3,100.78,Mainly Clear
1208,3161,5/11/2012 17:00,17.6,-2.2,26,22,48.3,100.82,Mainly Clear
1209,3179,5/12/2012 11:00,18.6,4.0,38,20,48.3,101.36,Mostly Cloudy
1210,3181,5/12/2012 13:00,22.0,5.6,34,24,48.3,101.25,Mostly Cloudy
1211,3183,5/12/2012 15:00,23.9,6.9,34,26,48.3,101.22,Mostly Cloudy
1212,3184,5/12/2012 16:00,23.6,7.7,36,22,48.3,101.19,Mostly Cloudy
1213,3206,5/13/2012 14:00,19.6,6.8,43,20,48.3,101.56,Mostly Cloudy
1214,3207,5/13/2012 15:00,20.0,5.8,39,11,48.3,101.53,Mostly Cloudy
1215,3208,5/13/2012 16:00,20.9,4.0,33,11,48.3,101.5,Mostly Cloudy
1216,3209,5/13/2012 17:00,20.4,4.1,34,15,48.3,101.48,Mainly Clear
1217,3211,5/13/2012 19:00,18.8,5.7,42,13,48.3,101.49,Mainly Clear
1218,3212,5/13/2012 20:00,16.8,5.8,48,11,25.0,101.5,Mainly Clear
1219,3220,5/14/2012 4:00,8.2,5.4,82,4,25.0,101.51,Mainly Clear
1220,3221,5/14/2012 5:00,8.3,5.7,84,0,24.1,101.54,Mainly Clear
1221,3222,5/14/2012 6:00,12.0,8.4,79,0,48.3,101.56,Mostly Cloudy
1222,3223,5/14/2012 7:00,15.6,9.5,67,0,48.3,101.58,Mostly Cloudy
1223,3224,5/14/2012 8:00,17.1,9.6,61,6,48.3,101.59,Mainly Clear
1224,3225,5/14/2012 9:00,19.2,8.6,50,6,48.3,101.54,Mostly Cloudy
1225,3226,5/14/2012 10:00,20.1,7.7,45,11,48.3,101.5,Mostly Cloudy
1226,3227,5/14/2012 11:00,21.2,7.7,42,13,48.3,101.44,Mostly Cloudy
1227,3228,5/14/2012 12:00,21.9,8.0,41,17,48.3,101.36,Mainly Clear
1228,3229,5/14/2012 13:00,22.0,7.4,39,17,48.3,101.32,Mainly Clear
1229,3230,5/14/2012 14:00,23.2,8.5,39,0,48.3,101.24,Mainly Clear
1230,3231,5/14/2012 15:00,23.2,9.2,41,9,48.3,101.17,Mainly Clear
1231,3232,5/14/2012 16:00,23.4,10.0,43,9,48.3,101.13,Mainly Clear
1232,3233,5/14/2012 17:00,23.5,11.3,46,6,48.3,101.11,Mostly Cloudy
1233,3234,5/14/2012 18:00,22.9,12.1,51,9,48.3,101.1,Mostly Cloudy
1234,3236,5/14/2012 20:00,19.8,12.6,63,17,25.0,101.15,Mostly Cloudy
1235,3237,5/14/2012 21:00,18.3,12.6,69,15,25.0,101.18,Mainly Clear
1236,3238,5/14/2012 22:00,17.5,12.7,73,6,25.0,101.2,Mostly Cloudy
1237,3239,5/14/2012 23:00,17.5,13.1,75,7,25.0,101.22,Mostly Cloudy
1238,3240,5/15/2012 0:00,16.0,12.2,78,11,25.0,101.23,Mainly Clear
1239,3241,5/15/2012 1:00,16.6,12.1,75,6,25.0,101.23,Mainly Clear
1240,3242,5/15/2012 2:00,15.8,12.7,82,9,25.0,101.21,Mostly Cloudy
1241,3243,5/15/2012 3:00,15.9,13.1,83,11,25.0,101.19,Mostly Cloudy
1242,3244,5/15/2012 4:00,16.0,13.1,83,11,25.0,101.19,Mostly Cloudy
1243,3250,5/15/2012 10:00,20.7,15.0,70,7,24.1,101.17,Mostly Cloudy
1244,3252,5/15/2012 12:00,20.7,15.0,70,13,24.1,101.06,Mostly Cloudy
1245,3257,5/15/2012 17:00,18.2,15.3,83,17,24.1,100.85,Mostly Cloudy
1246,3258,5/15/2012 18:00,17.9,15.1,84,19,24.1,100.83,Mostly Cloudy
1247,3259,5/15/2012 19:00,17.4,15.0,86,17,24.1,100.81,Mostly Cloudy
1248,3260,5/15/2012 20:00,17.0,14.4,85,17,24.1,100.79,Mostly Cloudy
1249,3261,5/15/2012 21:00,16.6,14.0,85,15,25.0,100.77,Mostly Cloudy
1250,3268,5/16/2012 4:00,12.9,11.0,88,6,19.3,100.59,Mainly Clear
1251,3269,5/16/2012 5:00,13.0,11.1,88,0,16.1,100.56,Mostly Cloudy
1252,3270,5/16/2012 6:00,13.8,12.0,89,11,19.3,100.56,Mostly Cloudy
1253,3271,5/16/2012 7:00,15.0,12.8,87,9,24.1,100.57,Mostly Cloudy
1254,3272,5/16/2012 8:00,17.5,13.9,79,9,24.1,100.54,Mostly Cloudy
1255,3273,5/16/2012 9:00,20.1,14.2,69,13,24.1,100.45,Mainly Clear
1256,3274,5/16/2012 10:00,21.9,14.1,61,15,24.1,100.35,Mainly Clear
1257,3275,5/16/2012 11:00,22.0,13.1,57,20,19.3,100.35,Mostly Cloudy
1258,3276,5/16/2012 12:00,22.9,12.5,52,11,24.1,100.23,Mostly Cloudy
1259,3277,5/16/2012 13:00,23.4,12.3,50,15,24.1,100.21,Mostly Cloudy
1260,3279,5/16/2012 15:00,19.3,10.4,56,32,24.1,100.29,Mostly Cloudy
1261,3280,5/16/2012 16:00,18.7,10.2,58,33,24.1,100.27,Mostly Cloudy
1262,3281,5/16/2012 17:00,17.6,10.7,64,22,24.1,100.32,Mostly Cloudy
1263,3282,5/16/2012 18:00,18.2,11.1,63,26,24.1,100.35,Mainly Clear
1264,3283,5/16/2012 19:00,17.6,10.7,64,22,24.1,100.34,Mainly Clear
1265,3284,5/16/2012 20:00,17.1,9.9,63,17,25.0,100.37,Mainly Clear
1266,3285,5/16/2012 21:00,14.2,6.9,61,17,25.0,100.53,Mostly Cloudy
1267,3286,5/16/2012 22:00,13.3,5.7,60,20,25.0,100.66,Mostly Cloudy
1268,3287,5/16/2012 23:00,11.5,3.2,57,22,25.0,100.82,Mostly Cloudy
1269,3288,5/17/2012 0:00,10.0,2.9,61,24,25.0,100.93,Mostly Cloudy
1270,3289,5/17/2012 1:00,9.8,2.1,59,24,25.0,101.05,Mostly Cloudy
1271,3295,5/17/2012 7:00,10.2,1.8,56,15,48.3,101.45,Mostly Cloudy
1272,3296,5/17/2012 8:00,10.7,2.2,56,15,48.3,101.5,Mostly Cloudy
1273,3297,5/17/2012 9:00,11.3,2.1,53,22,48.3,101.48,Mainly Clear
1274,3298,5/17/2012 10:00,12.2,2.2,50,26,48.3,101.46,Mostly Cloudy
1275,3299,5/17/2012 11:00,13.9,2.5,46,22,48.3,101.49,Mainly Clear
1276,3300,5/17/2012 12:00,14.3,1.8,43,17,48.3,101.49,Mostly Cloudy
1277,3301,5/17/2012 13:00,15.4,0.5,36,26,48.3,101.46,Mainly Clear
1278,3302,5/17/2012 14:00,15.3,0.9,38,20,48.3,101.48,Mainly Clear
1279,3303,5/17/2012 15:00,15.8,0.4,35,24,48.3,101.46,Mainly Clear
1280,3304,5/17/2012 16:00,15.8,0.0,34,30,48.3,101.46,Mainly Clear
1281,3305,5/17/2012 17:00,15.7,0.8,36,24,48.3,101.48,Mainly Clear
1282,3308,5/17/2012 20:00,13.8,0.6,40,7,48.3,101.58,Mainly Clear
1283,3312,5/18/2012 0:00,10.4,2.6,58,13,25.0,101.72,Mainly Clear
1284,3317,5/18/2012 5:00,7.7,1.5,65,9,48.3,101.79,Mainly Clear
1285,3318,5/18/2012 6:00,10.1,3.3,63,11,48.3,101.84,Mainly Clear
1286,3319,5/18/2012 7:00,11.2,2.9,57,20,48.3,101.9,Mainly Clear
1287,3320,5/18/2012 8:00,13.0,4.6,57,15,48.3,101.91,Mostly Cloudy
1288,3321,5/18/2012 9:00,14.4,4.6,52,17,48.3,101.94,Mainly Clear
1289,3322,5/18/2012 10:00,16.4,4.7,46,22,48.3,101.91,Mainly Clear
1290,3323,5/18/2012 11:00,18.1,5.9,45,17,48.3,101.89,Mainly Clear
1291,3324,5/18/2012 12:00,18.3,4.2,39,20,48.3,101.82,Mainly Clear
1292,3325,5/18/2012 13:00,19.7,-0.7,25,22,48.3,101.75,Mainly Clear
1293,3326,5/18/2012 14:00,20.1,2.6,31,22,48.3,101.73,Mostly Cloudy
1294,3327,5/18/2012 15:00,20.8,1.7,28,20,48.3,101.66,Mainly Clear
1295,3328,5/18/2012 16:00,20.5,0.9,27,19,48.3,101.64,Mostly Cloudy
1296,3329,5/18/2012 17:00,20.9,2.5,30,17,48.3,101.59,Mostly Cloudy
1297,3330,5/18/2012 18:00,20.4,4.0,34,13,48.3,101.57,Mostly Cloudy
1298,3331,5/18/2012 19:00,17.7,4.2,41,9,48.3,101.58,Mostly Cloudy
1299,3332,5/18/2012 20:00,16.6,4.2,44,4,25.0,101.59,Mostly Cloudy
1300,3334,5/18/2012 22:00,14.4,5.0,53,6,25.0,101.63,Mainly Clear
1301,3335,5/18/2012 23:00,14.0,5.9,58,6,25.0,101.64,Mainly Clear
1302,3336,5/19/2012 0:00,13.8,6.9,63,6,25.0,101.65,Mainly Clear
1303,3337,5/19/2012 1:00,14.2,6.6,60,9,25.0,101.68,Mainly Clear
1304,3338,5/19/2012 2:00,13.1,8.3,73,7,25.0,101.68,Mostly Cloudy
1305,3339,5/19/2012 3:00,13.3,7.2,67,9,25.0,101.68,Mostly Cloudy
1306,3340,5/19/2012 4:00,13.1,7.2,67,9,48.3,101.69,Mostly Cloudy
1307,3341,5/19/2012 5:00,11.8,6.4,69,7,48.3,101.7,Mostly Cloudy
1308,3342,5/19/2012 6:00,13.8,7.1,64,6,48.3,101.75,Mostly Cloudy
1309,3343,5/19/2012 7:00,14.7,6.8,59,9,48.3,101.72,Mainly Clear
1310,3344,5/19/2012 8:00,17.3,7.2,51,9,48.3,101.72,Mainly Clear
1311,3345,5/19/2012 9:00,19.1,6.6,44,7,48.3,101.73,Mostly Cloudy
1312,3346,5/19/2012 10:00,21.0,7.8,43,4,48.3,101.74,Mainly Clear
1313,3347,5/19/2012 11:00,22.3,8.5,41,11,48.3,101.72,Mainly Clear
1314,3348,5/19/2012 12:00,23.4,7.7,37,19,48.3,101.64,Mainly Clear
1315,3349,5/19/2012 13:00,24.1,7.0,33,15,48.3,101.61,Mostly Cloudy
1316,3350,5/19/2012 14:00,25.4,7.3,32,15,48.3,101.56,Mostly Cloudy
1317,3351,5/19/2012 15:00,25.6,7.8,32,15,48.3,101.52,Mostly Cloudy
1318,3352,5/19/2012 16:00,25.8,6.9,30,15,48.3,101.46,Mostly Cloudy
1319,3353,5/19/2012 17:00,26.0,6.9,30,15,48.3,101.46,Mostly Cloudy
1320,3354,5/19/2012 18:00,25.2,6.6,30,11,48.3,101.43,Mostly Cloudy
1321,3355,5/19/2012 19:00,24.3,7.6,34,11,48.3,101.47,Mostly Cloudy
1322,3356,5/19/2012 20:00,23.5,8.0,37,6,25.0,101.53,Mainly Clear
1323,3357,5/19/2012 21:00,21.6,8.2,42,9,25.0,101.57,Mainly Clear
1324,3364,5/20/2012 4:00,14.8,8.9,68,6,48.3,101.72,Mainly Clear
1325,3366,5/20/2012 6:00,17.1,9.2,60,4,48.3,101.81,Mostly Cloudy
1326,3367,5/20/2012 7:00,18.7,9.6,55,7,48.3,101.87,Mostly Cloudy
1327,3368,5/20/2012 8:00,20.4,9.4,49,7,48.3,101.91,Mostly Cloudy
1328,3369,5/20/2012 9:00,22.2,9.6,45,11,48.3,101.93,Mostly Cloudy
1329,3370,5/20/2012 10:00,24.8,9.1,37,11,48.3,101.91,Mostly Cloudy
1330,3371,5/20/2012 11:00,26.8,11.4,38,11,48.3,101.9,Mainly Clear
1331,3372,5/20/2012 12:00,28.6,10.7,33,13,48.3,101.86,Mainly Clear
1332,3373,5/20/2012 13:00,29.5,11.0,32,9,48.3,101.78,Mainly Clear
1333,3374,5/20/2012 14:00,30.9,11.5,30,11,48.3,101.72,Mainly Clear
1334,3375,5/20/2012 15:00,30.9,10.7,29,4,48.3,101.67,Mainly Clear
1335,3376,5/20/2012 16:00,31.2,10.7,28,4,48.3,101.61,Mainly Clear
1336,3377,5/20/2012 17:00,30.8,10.6,29,13,48.3,101.58,Mostly Cloudy
1337,3378,5/20/2012 18:00,29.2,11.7,34,15,48.3,101.56,Mostly Cloudy
1338,3379,5/20/2012 19:00,26.9,12.3,40,11,24.1,101.56,Mostly Cloudy
1339,3380,5/20/2012 20:00,25.9,11.6,41,11,24.1,101.57,Mainly Clear
1340,3381,5/20/2012 21:00,24.0,11.8,46,11,25.0,101.6,Mainly Clear
1341,3382,5/20/2012 22:00,23.9,11.8,47,17,25.0,101.59,Mainly Clear
1342,3383,5/20/2012 23:00,23.6,11.3,46,15,25.0,101.59,Mainly Clear
1343,3384,5/21/2012 0:00,22.2,11.0,49,11,25.0,101.61,Mainly Clear
1344,3385,5/21/2012 1:00,19.3,11.2,59,9,25.0,101.63,Mainly Clear
1345,3386,5/21/2012 2:00,18.7,11.7,64,7,25.0,101.65,Mainly Clear
1346,3387,5/21/2012 3:00,18.5,11.7,65,0,25.0,101.65,Mainly Clear
1347,3388,5/21/2012 4:00,18.2,11.9,67,9,24.1,101.65,Mainly Clear
1348,3389,5/21/2012 5:00,18.8,12.2,65,13,24.1,101.63,Mostly Cloudy
1349,3390,5/21/2012 6:00,20.4,12.7,61,6,48.3,101.68,Mostly Cloudy
1350,3391,5/21/2012 7:00,21.8,12.7,56,11,48.3,101.7,Mostly Cloudy
1351,3392,5/21/2012 8:00,24.0,11.1,44,19,48.3,101.69,Mostly Cloudy
1352,3393,5/21/2012 9:00,24.8,11.2,42,24,48.3,101.63,Mainly Clear
1353,3394,5/21/2012 10:00,25.5,10.7,39,20,48.3,101.6,Mainly Clear
1354,3395,5/21/2012 11:00,26.7,10.8,37,22,48.3,101.54,Mainly Clear
1355,3396,5/21/2012 12:00,28.0,9.3,31,24,48.3,101.45,Mainly Clear
1356,3397,5/21/2012 13:00,28.4,8.4,28,26,48.3,101.36,Mainly Clear
1357,3398,5/21/2012 14:00,28.8,9.0,29,26,48.3,101.29,Mainly Clear
1358,3399,5/21/2012 15:00,28.9,9.0,29,33,48.3,101.21,Mainly Clear
1359,3400,5/21/2012 16:00,28.2,8.7,29,30,48.3,101.14,Mainly Clear
1360,3401,5/21/2012 17:00,27.7,9.9,33,26,48.3,101.1,Mainly Clear
1361,3402,5/21/2012 18:00,26.5,11.7,40,28,48.3,101.07,Mainly Clear
1362,3403,5/21/2012 19:00,25.4,12.8,46,26,25.0,101.05,Mostly Cloudy
1363,3404,5/21/2012 20:00,23.8,13.4,52,22,25.0,101.05,Mainly Clear
1364,3405,5/21/2012 21:00,22.5,13.8,58,24,25.0,101.05,Mainly Clear
1365,3406,5/21/2012 22:00,22.2,14.0,60,15,25.0,101.06,Mostly Cloudy
1366,3407,5/21/2012 23:00,21.8,14.0,61,15,25.0,101.05,Mostly Cloudy
1367,3422,5/22/2012 14:00,21.1,17.3,79,11,24.1,100.66,Mostly Cloudy
1368,3428,5/22/2012 20:00,15.4,12.3,82,20,24.1,100.77,Mostly Cloudy
1369,3429,5/22/2012 21:00,15.2,11.8,80,15,25.0,100.78,Mostly Cloudy
1370,3430,5/22/2012 22:00,14.9,10.8,76,17,25.0,100.81,Mostly Cloudy
1371,3431,5/22/2012 23:00,14.0,10.7,80,9,25.0,100.84,Mainly Clear
1372,3433,5/23/2012 1:00,12.2,10.2,88,4,25.0,100.82,Mainly Clear
1373,3434,5/23/2012 2:00,11.8,9.9,88,6,25.0,100.85,Mostly Cloudy
1374,3435,5/23/2012 3:00,12.0,9.4,84,7,25.0,100.84,Mainly Clear
1375,3436,5/23/2012 4:00,12.6,9.4,81,4,24.1,100.87,Mostly Cloudy
1376,3442,5/23/2012 10:00,17.1,11.8,71,11,24.1,101.21,Mostly Cloudy
1377,3443,5/23/2012 11:00,18.7,12.7,68,13,24.1,101.21,Mostly Cloudy
1378,3444,5/23/2012 12:00,19.5,12.7,65,11,24.1,101.18,Mostly Cloudy
1379,3445,5/23/2012 13:00,20.1,12.2,60,13,24.1,101.15,Mostly Cloudy
1380,3446,5/23/2012 14:00,20.9,12.0,57,9,24.1,101.16,Mostly Cloudy
1381,3447,5/23/2012 15:00,21.6,13.5,60,0,24.1,101.16,Mostly Cloudy
1382,3448,5/23/2012 16:00,21.5,12.2,55,6,24.1,101.13,Mainly Clear
1383,3449,5/23/2012 17:00,22.3,12.7,55,4,24.1,101.1,Mainly Clear
1384,3450,5/23/2012 18:00,22.2,11.8,52,4,24.1,101.12,Mainly Clear
1385,3451,5/23/2012 19:00,21.5,11.6,53,7,24.1,101.11,Mainly Clear
1386,3461,5/24/2012 5:00,15.0,11.0,77,7,24.1,101.36,Mainly Clear
1387,3462,5/24/2012 6:00,16.6,12.1,75,9,24.1,101.43,Mainly Clear
1388,3463,5/24/2012 7:00,18.8,13.9,73,4,24.1,101.5,Mainly Clear
1389,3464,5/24/2012 8:00,21.1,14.6,66,0,24.1,101.54,Mainly Clear
1390,3465,5/24/2012 9:00,22.9,15.6,63,7,48.3,101.51,Mainly Clear
1391,3468,5/24/2012 12:00,26.7,16.4,53,6,24.1,101.4,Mainly Clear
1392,3469,5/24/2012 13:00,27.1,15.9,50,13,24.1,101.37,Mainly Clear
1393,3470,5/24/2012 14:00,27.6,17.0,52,13,48.3,101.33,Mainly Clear
1394,3471,5/24/2012 15:00,28.1,17.7,53,17,48.3,101.27,Mainly Clear
1395,3472,5/24/2012 16:00,28.1,17.5,53,17,24.1,101.23,Mainly Clear
1396,3473,5/24/2012 17:00,27.6,17.3,53,22,24.1,101.21,Mainly Clear
1397,3474,5/24/2012 18:00,25.5,16.5,58,24,24.1,101.23,Mostly Cloudy
1398,3475,5/24/2012 19:00,24.4,16.4,61,15,24.1,101.25,Mainly Clear
1399,3483,5/25/2012 3:00,19.2,15.3,78,17,25.0,101.42,Mainly Clear
1400,3484,5/25/2012 4:00,19.1,15.3,79,19,24.1,101.44,Mainly Clear
1401,3485,5/25/2012 5:00,19.0,15.5,80,17,24.1,101.45,Mostly Cloudy
1402,3486,5/25/2012 6:00,20.6,15.7,73,17,24.1,101.44,Mainly Clear
1403,3487,5/25/2012 7:00,21.6,15.9,70,20,24.1,101.42,Mainly Clear
1404,3488,5/25/2012 8:00,22.8,16.1,66,20,24.1,101.36,Mainly Clear
1405,3490,5/25/2012 10:00,24.9,16.5,60,20,24.1,101.21,Mainly Clear
1406,3491,5/25/2012 11:00,25.5,16.9,59,22,24.1,101.12,Mostly Cloudy
1407,3492,5/25/2012 12:00,25.9,16.8,57,20,24.1,101.07,Mostly Cloudy
1408,3493,5/25/2012 13:00,27.2,17.5,55,28,24.1,100.97,Mostly Cloudy
1409,3494,5/25/2012 14:00,26.0,17.2,58,19,24.1,100.94,Mostly Cloudy
1410,3495,5/25/2012 15:00,27.1,17.1,54,26,24.1,100.86,Mostly Cloudy
1411,3496,5/25/2012 16:00,27.3,16.7,52,24,24.1,100.79,Mostly Cloudy
1412,3497,5/25/2012 17:00,27.2,16.7,53,19,24.1,100.72,Mostly Cloudy
1413,3498,5/25/2012 18:00,26.2,16.1,54,20,24.1,100.65,Mostly Cloudy
1414,3501,5/25/2012 21:00,22.1,18.5,80,15,25.0,100.79,Mainly Clear
1415,3502,5/25/2012 22:00,21.5,18.1,81,11,25.0,100.88,Mainly Clear
1416,3509,5/26/2012 5:00,16.3,9.8,65,9,24.1,101.36,Mainly Clear
1417,3514,5/26/2012 10:00,21.6,12.5,56,7,19.3,101.6,Mostly Cloudy
1418,3516,5/26/2012 12:00,23.3,12.8,52,13,16.1,101.56,Mainly Clear
1419,3517,5/26/2012 13:00,24.4,9.9,40,30,19.3,101.53,Mainly Clear
1420,3518,5/26/2012 14:00,24.2,10.6,42,22,19.3,101.54,Mainly Clear
1421,3519,5/26/2012 15:00,23.2,10.2,44,20,24.1,101.54,Mainly Clear
1422,3520,5/26/2012 16:00,23.8,10.2,42,22,24.1,101.52,Mostly Cloudy
1423,3521,5/26/2012 17:00,23.1,9.4,42,19,24.1,101.49,Mostly Cloudy
1424,3522,5/26/2012 18:00,22.2,8.6,42,20,24.1,101.51,Mostly Cloudy
1425,3523,5/26/2012 19:00,21.0,7.7,42,13,24.1,101.56,Mainly Clear
1426,3524,5/26/2012 20:00,18.5,7.4,48,9,24.1,101.64,Mainly Clear
1427,3525,5/26/2012 21:00,16.6,7.5,55,7,25.0,101.71,Mainly Clear
1428,3526,5/26/2012 22:00,17.3,7.3,52,6,25.0,101.71,Mainly Clear
1429,3527,5/26/2012 23:00,15.6,7.7,59,6,25.0,101.75,Mainly Clear
1430,3530,5/27/2012 2:00,13.9,6.9,63,11,25.0,101.76,Mainly Clear
1431,3531,5/27/2012 3:00,14.8,3.1,45,13,25.0,101.76,Mostly Cloudy
1432,3532,5/27/2012 4:00,14.4,3.5,48,13,25.0,101.84,Mostly Cloudy
1433,3533,5/27/2012 5:00,13.7,3.9,52,13,24.1,101.9,Mostly Cloudy
1434,3534,5/27/2012 6:00,14.2,2.4,45,17,24.1,101.92,Mostly Cloudy
1435,3535,5/27/2012 7:00,14.6,4.0,49,9,48.3,101.95,Mostly Cloudy
1436,3536,5/27/2012 8:00,15.6,3.1,43,11,48.3,101.94,Mostly Cloudy
1437,3537,5/27/2012 9:00,17.1,4.6,44,9,48.3,101.95,Mostly Cloudy
1438,3538,5/27/2012 10:00,18.6,4.0,38,0,48.3,101.89,Mostly Cloudy
1439,3551,5/27/2012 23:00,17.6,8.9,57,6,25.0,101.29,Mostly Cloudy
1440,3552,5/28/2012 0:00,17.5,10.5,63,4,25.0,101.31,Mostly Cloudy
1441,3553,5/28/2012 1:00,17.4,8.8,57,13,25.0,101.23,Mostly Cloudy
1442,3554,5/28/2012 2:00,16.6,8.3,58,11,25.0,101.19,Mostly Cloudy
1443,3557,5/28/2012 5:00,16.4,7.4,55,19,25.0,101.17,Mostly Cloudy
1444,3558,5/28/2012 6:00,16.4,7.3,55,24,24.1,101.31,Mostly Cloudy
1445,3559,5/28/2012 7:00,16.6,6.2,50,22,48.3,101.26,Mostly Cloudy
1446,3560,5/28/2012 8:00,16.7,7.1,53,28,48.3,101.24,Mostly Cloudy
1447,3569,5/28/2012 17:00,17.4,6.9,50,26,24.1,100.82,Mostly Cloudy
1448,3570,5/28/2012 18:00,16.8,7.1,53,26,48.3,100.81,Mostly Cloudy
1449,3571,5/28/2012 19:00,15.9,6.9,55,22,48.3,100.77,Mostly Cloudy
1450,3573,5/28/2012 21:00,14.6,6.7,59,19,25.0,100.69,Mainly Clear
1451,3574,5/28/2012 22:00,14.0,7.1,63,15,25.0,100.66,Mostly Cloudy
1452,3575,5/28/2012 23:00,13.2,7.1,66,13,25.0,100.54,Mostly Cloudy
1453,3576,5/29/2012 0:00,12.7,7.2,69,15,25.0,100.44,Mostly Cloudy
1454,3577,5/29/2012 1:00,11.9,6.8,71,9,25.0,100.31,Mostly Cloudy
1455,3578,5/29/2012 2:00,12.2,6.8,70,11,25.0,100.26,Mostly Cloudy
1456,3579,5/29/2012 3:00,11.8,5.9,67,15,25.0,100.18,Mostly Cloudy
1457,3584,5/29/2012 8:00,15.4,12.7,84,0,19.3,100.17,Mainly Clear
1458,3585,5/29/2012 9:00,18.6,15.1,80,4,19.3,100.12,Mainly Clear
1459,3586,5/29/2012 10:00,20.4,15.8,75,4,19.3,100.08,Mostly Cloudy
1460,3587,5/29/2012 11:00,22.2,16.9,72,7,19.3,100.08,Mostly Cloudy
1461,3588,5/29/2012 12:00,24.2,17.7,67,7,19.3,100.0,Mostly Cloudy
1462,3589,5/29/2012 13:00,26.1,18.7,64,6,16.1,99.87,Mainly Clear
1463,3591,5/29/2012 15:00,26.8,19.0,62,13,19.3,99.65,Mostly Cloudy
1464,3601,5/30/2012 1:00,19.7,14.4,71,24,25.0,99.77,Mainly Clear
1465,3602,5/30/2012 2:00,18.6,10.5,59,22,25.0,99.88,Mainly Clear
1466,3603,5/30/2012 3:00,17.6,9.8,60,19,25.0,99.91,Mostly Cloudy
1467,3604,5/30/2012 4:00,16.6,10.3,66,13,24.1,99.98,Mostly Cloudy
1468,3605,5/30/2012 5:00,15.9,10.0,68,11,24.1,100.02,Mostly Cloudy
1469,3606,5/30/2012 6:00,17.2,10.2,63,15,24.1,100.07,Mostly Cloudy
1470,3607,5/30/2012 7:00,17.8,10.4,62,17,48.3,100.12,Mostly Cloudy
1471,3608,5/30/2012 8:00,19.1,10.7,58,19,48.3,100.11,Mainly Clear
1472,3610,5/30/2012 10:00,21.5,10.2,49,15,48.3,100.1,Mainly Clear
1473,3612,5/30/2012 12:00,23.1,8.2,38,35,48.3,100.06,Mainly Clear
1474,3615,5/30/2012 15:00,23.5,8.6,39,22,48.3,100.03,Mainly Clear
1475,3618,5/30/2012 18:00,22.4,8.4,41,20,48.3,100.06,Mainly Clear
1476,3619,5/30/2012 19:00,20.5,8.0,44,0,48.3,100.08,Mainly Clear
1477,3620,5/30/2012 20:00,18.3,8.1,51,6,48.3,100.13,Mainly Clear
1478,3621,5/30/2012 21:00,17.3,8.9,58,7,25.0,100.18,Mainly Clear
1479,3622,5/30/2012 22:00,17.4,9.5,60,9,25.0,100.17,Mostly Cloudy
1480,3624,5/31/2012 0:00,16.7,10.5,67,6,25.0,100.28,Mostly Cloudy
1481,3625,5/31/2012 1:00,16.3,10.8,70,7,25.0,100.31,Mostly Cloudy
1482,3626,5/31/2012 2:00,15.6,11.2,75,4,25.0,100.32,Mostly Cloudy
1483,3627,5/31/2012 3:00,15.5,9.5,67,9,25.0,100.3,Mostly Cloudy
1484,3628,5/31/2012 4:00,13.6,8.5,71,11,24.1,100.34,Mainly Clear
1485,3629,5/31/2012 5:00,13.9,8.2,68,9,48.3,100.44,Mainly Clear
1486,3630,5/31/2012 6:00,14.4,8.3,67,15,48.3,100.5,Mainly Clear
1487,3632,5/31/2012 8:00,14.9,8.6,66,13,24.1,100.64,Mainly Clear
1488,3633,5/31/2012 9:00,16.2,9.3,64,11,24.1,100.68,Mostly Cloudy
1489,3634,5/31/2012 10:00,15.9,8.7,62,9,24.1,100.71,Mostly Cloudy
1490,3635,5/31/2012 11:00,16.9,9.4,61,4,24.1,100.71,Mostly Cloudy
1491,3636,5/31/2012 12:00,16.8,8.6,58,0,48.3,100.72,Mostly Cloudy
1492,3637,5/31/2012 13:00,18.4,7.5,49,20,48.3,100.77,Mostly Cloudy
1493,3638,5/31/2012 14:00,18.8,7.5,48,19,48.3,100.78,Mostly Cloudy
1494,3639,5/31/2012 15:00,18.1,5.8,44,19,48.3,100.83,Mostly Cloudy
1495,3640,5/31/2012 16:00,18.8,6.0,43,19,48.3,100.85,Mainly Clear
1496,3641,5/31/2012 17:00,18.9,6.1,43,15,48.3,100.86,Mainly Clear
1497,3642,5/31/2012 18:00,18.4,4.6,40,22,48.3,100.91,Mainly Clear
1498,3643,5/31/2012 19:00,17.1,4.9,44,15,48.3,100.96,Mainly Clear
1499,3644,5/31/2012 20:00,14.8,3.7,47,13,24.1,101.01,Mainly Clear
1500,3650,6/1/2012 2:00,10.8,3.1,59,9,25.0,101.27,Mainly Clear
1501,3651,6/1/2012 3:00,9.5,2.6,62,9,25.0,101.29,Mainly Clear
1502,3652,6/1/2012 4:00,10.1,2.8,60,11,48.3,101.34,Mostly Cloudy
1503,3658,6/1/2012 10:00,18.5,1.2,31,20,48.3,101.44,Mostly Cloudy
1504,3700,6/3/2012 4:00,13.0,10.4,84,7,19.3,100.2,Mostly Cloudy
1505,3701,6/3/2012 5:00,12.0,9.9,87,0,19.3,100.24,Mostly Cloudy
1506,3702,6/3/2012 6:00,13.6,10.9,84,9,24.1,100.25,Mostly Cloudy
1507,3703,6/3/2012 7:00,14.6,10.5,76,15,24.1,100.25,Mostly Cloudy
1508,3704,6/3/2012 8:00,14.9,10.3,74,13,24.1,100.24,Mostly Cloudy
1509,3705,6/3/2012 9:00,16.1,10.9,71,11,24.1,100.2,Mostly Cloudy
1510,3706,6/3/2012 10:00,17.7,11.0,65,13,48.3,100.19,Mostly Cloudy
1511,3707,6/3/2012 11:00,18.2,10.4,60,11,48.3,100.14,Mostly Cloudy
1512,3708,6/3/2012 12:00,18.4,9.8,57,9,48.3,100.12,Mostly Cloudy
1513,3709,6/3/2012 13:00,18.9,10.8,59,24,48.3,100.07,Mostly Cloudy
1514,3710,6/3/2012 14:00,19.6,10.5,56,24,48.3,100.04,Mostly Cloudy
1515,3711,6/3/2012 15:00,18.5,10.4,59,24,48.3,100.02,Mostly Cloudy
1516,3712,6/3/2012 16:00,18.3,10.3,60,33,48.3,100.01,Mostly Cloudy
1517,3713,6/3/2012 17:00,17.8,9.3,57,30,48.3,100.03,Mostly Cloudy
1518,3714,6/3/2012 18:00,16.6,9.6,63,30,48.3,100.13,Mostly Cloudy
1519,3715,6/3/2012 19:00,15.3,8.8,65,28,25.0,100.2,Mostly Cloudy
1520,3716,6/3/2012 20:00,14.1,7.4,64,32,25.0,100.27,Mostly Cloudy
1521,3717,6/3/2012 21:00,13.8,7.1,64,28,25.0,100.29,Mostly Cloudy
1522,3719,6/3/2012 23:00,13.3,6.9,65,30,25.0,100.31,Mostly Cloudy
1523,3735,6/4/2012 15:00,15.8,7.2,57,22,24.1,100.73,Mostly Cloudy
1524,3736,6/4/2012 16:00,16.0,6.6,54,22,24.1,100.71,Mostly Cloudy
1525,3737,6/4/2012 17:00,15.9,7.1,56,22,24.1,100.71,Mostly Cloudy
1526,3738,6/4/2012 18:00,16.5,7.1,54,15,48.3,100.74,Mostly Cloudy
1527,3739,6/4/2012 19:00,16.3,6.9,54,20,48.3,100.77,Mostly Cloudy
1528,3740,6/4/2012 20:00,15.6,7.3,58,13,24.1,100.8,Mainly Clear
1529,3741,6/4/2012 21:00,14.5,7.5,63,15,25.0,100.84,Mainly Clear
1530,3742,6/4/2012 22:00,14.6,6.4,58,17,25.0,100.83,Mostly Cloudy
1531,3746,6/5/2012 2:00,12.7,6.3,65,13,25.0,100.82,Mostly Cloudy
1532,3747,6/5/2012 3:00,11.4,6.7,73,15,25.0,100.85,Mainly Clear
1533,3748,6/5/2012 4:00,10.7,6.5,75,13,24.1,100.87,Mainly Clear
1534,3749,6/5/2012 5:00,10.7,6.7,76,13,24.1,100.94,Mainly Clear
1535,3750,6/5/2012 6:00,12.6,7.1,69,15,48.3,100.98,Mainly Clear
1536,3751,6/5/2012 7:00,14.3,6.5,59,20,48.3,100.99,Mainly Clear
1537,3752,6/5/2012 8:00,15.9,6.4,53,26,48.3,101.02,Mainly Clear
1538,3754,6/5/2012 10:00,18.8,6.7,45,19,48.3,100.99,Mainly Clear
1539,3755,6/5/2012 11:00,19.8,5.3,39,26,48.3,101.0,Mainly Clear
1540,3756,6/5/2012 12:00,20.3,4.9,36,20,48.3,100.97,Mainly Clear
1541,3757,6/5/2012 13:00,21.3,3.8,32,15,48.3,100.93,Mainly Clear
1542,3758,6/5/2012 14:00,21.6,4.4,32,7,48.3,100.88,Mainly Clear
1543,3759,6/5/2012 15:00,21.9,4.4,32,11,48.3,100.83,Mainly Clear
1544,3760,6/5/2012 16:00,22.6,6.2,35,4,48.3,100.75,Mainly Clear
1545,3761,6/5/2012 17:00,22.2,5.4,34,15,48.3,100.74,Mostly Cloudy
1546,3765,6/5/2012 21:00,16.3,9.9,66,6,25.0,100.9,Mostly Cloudy
1547,3766,6/5/2012 22:00,14.7,11.0,78,7,25.0,100.95,Mostly Cloudy
1548,3767,6/5/2012 23:00,16.4,9.3,63,15,25.0,100.97,Mostly Cloudy
1549,3768,6/6/2012 0:00,14.7,7.9,64,9,25.0,100.97,Mostly Cloudy
1550,3769,6/6/2012 1:00,13.8,7.2,64,9,25.0,100.97,Mostly Cloudy
1551,3770,6/6/2012 2:00,12.6,6.6,67,11,25.0,100.99,Mostly Cloudy
1552,3771,6/6/2012 3:00,11.0,6.8,75,9,25.0,100.99,Mostly Cloudy
1553,3772,6/6/2012 4:00,11.2,6.9,75,6,24.1,101.03,Mostly Cloudy
1554,3773,6/6/2012 5:00,12.0,7.2,72,9,48.3,101.05,Mostly Cloudy
1555,3774,6/6/2012 6:00,12.4,7.7,73,15,24.1,101.07,Mostly Cloudy
1556,3775,6/6/2012 7:00,14.1,8.3,68,13,24.1,101.1,Mainly Clear
1557,3776,6/6/2012 8:00,15.3,9.6,69,7,24.1,101.14,Mainly Clear
1558,3777,6/6/2012 9:00,16.1,9.6,65,9,24.1,101.13,Mainly Clear
1559,3778,6/6/2012 10:00,17.6,9.7,60,11,24.1,101.12,Mainly Clear
1560,3779,6/6/2012 11:00,19.4,9.4,52,7,24.1,101.08,Mainly Clear
1561,3780,6/6/2012 12:00,19.8,9.7,52,9,24.1,101.05,Mainly Clear
1562,3781,6/6/2012 13:00,19.6,9.6,52,0,24.1,101.01,Mainly Clear
1563,3782,6/6/2012 14:00,20.6,9.8,50,4,48.3,100.94,Mostly Cloudy
1564,3783,6/6/2012 15:00,20.3,9.3,49,7,48.3,100.89,Mostly Cloudy
1565,3784,6/6/2012 16:00,21.3,8.2,43,13,48.3,100.9,Mostly Cloudy
1566,3785,6/6/2012 17:00,20.6,7.4,42,11,24.1,100.91,Mostly Cloudy
1567,3786,6/6/2012 18:00,20.0,7.6,45,15,24.1,100.95,Mostly Cloudy
1568,3787,6/6/2012 19:00,18.9,7.8,48,15,24.1,101.0,Mostly Cloudy
1569,3789,6/6/2012 21:00,16.3,9.7,65,11,25.0,101.04,Mostly Cloudy
1570,3792,6/7/2012 0:00,14.9,9.0,68,9,25.0,101.06,Mainly Clear
1571,3793,6/7/2012 1:00,13.3,9.2,76,7,25.0,101.06,Mainly Clear
1572,3796,6/7/2012 4:00,12.0,8.3,78,9,24.1,101.05,Mainly Clear
1573,3797,6/7/2012 5:00,11.3,8.1,81,11,48.3,101.11,Mainly Clear
1574,3798,6/7/2012 6:00,12.3,8.4,77,13,48.3,101.12,Mainly Clear
1575,3799,6/7/2012 7:00,13.9,8.4,69,4,24.1,101.13,Mainly Clear
1576,3800,6/7/2012 8:00,15.9,9.2,64,11,24.1,101.12,Mainly Clear
1577,3801,6/7/2012 9:00,17.5,9.5,59,6,48.3,101.09,Mainly Clear
1578,3802,6/7/2012 10:00,19.4,9.6,53,6,48.3,101.05,Mainly Clear
1579,3803,6/7/2012 11:00,20.1,10.5,54,7,48.3,101.02,Mainly Clear
1580,3804,6/7/2012 12:00,20.8,10.1,50,13,48.3,100.98,Mainly Clear
1581,3805,6/7/2012 13:00,21.6,10.9,51,11,48.3,100.92,Mainly Clear
1582,3806,6/7/2012 14:00,22.7,9.4,43,11,48.3,100.86,Mainly Clear
1583,3807,6/7/2012 15:00,22.3,9.3,43,13,48.3,100.8,Mainly Clear
1584,3808,6/7/2012 16:00,22.8,9.2,42,15,48.3,100.74,Mainly Clear
1585,3809,6/7/2012 17:00,22.6,8.9,42,11,48.3,100.69,Mostly Cloudy
1586,3810,6/7/2012 18:00,22.0,7.9,40,9,48.3,100.67,Mostly Cloudy
1587,3811,6/7/2012 19:00,22.2,9.0,43,11,48.3,100.67,Mostly Cloudy
1588,3812,6/7/2012 20:00,21.7,9.4,45,11,24.1,100.66,Mostly Cloudy
1589,3813,6/7/2012 21:00,18.6,10.4,59,30,25.0,100.74,Mostly Cloudy
1590,3816,6/8/2012 0:00,15.9,13.1,83,13,25.0,100.68,Mostly Cloudy
1591,3819,6/8/2012 3:00,14.1,11.7,85,7,25.0,100.56,Mainly Clear
1592,3820,6/8/2012 4:00,13.9,11.0,83,7,24.1,100.58,Mainly Clear
1593,3821,6/8/2012 5:00,14.4,11.2,81,7,48.3,100.58,Mainly Clear
1594,3822,6/8/2012 6:00,16.2,11.7,75,17,48.3,100.58,Mostly Cloudy
1595,3823,6/8/2012 7:00,16.7,11.3,70,22,48.3,100.56,Mostly Cloudy
1596,3824,6/8/2012 8:00,17.3,11.5,69,22,48.3,100.54,Mostly Cloudy
1597,3829,6/8/2012 13:00,20.5,14.4,68,20,24.1,100.33,Mostly Cloudy
1598,3832,6/8/2012 16:00,18.4,13.4,73,4,24.1,100.22,Mostly Cloudy
1599,3833,6/8/2012 17:00,20.0,14.3,70,7,24.1,100.22,Mostly Cloudy
1600,3834,6/8/2012 18:00,19.0,14.4,75,0,24.1,100.17,Mostly Cloudy
1601,3835,6/8/2012 19:00,19.0,12.0,64,15,24.1,100.28,Mainly Clear
1602,3836,6/8/2012 20:00,16.0,9.9,67,9,24.1,100.34,Mainly Clear
1603,3844,6/9/2012 4:00,10.0,6.9,81,0,25.0,100.6,Mainly Clear
1604,3845,6/9/2012 5:00,11.1,8.0,81,6,48.3,100.68,Mainly Clear
1605,3846,6/9/2012 6:00,14.2,9.4,73,0,48.3,100.71,Mainly Clear
1606,3847,6/9/2012 7:00,16.0,9.7,66,6,48.3,100.76,Mainly Clear
1607,3848,6/9/2012 8:00,18.4,8.9,54,4,48.3,100.79,Mainly Clear
1608,3849,6/9/2012 9:00,19.3,7.8,47,0,48.3,100.81,Mainly Clear
1609,3850,6/9/2012 10:00,21.0,10.1,50,4,48.3,100.78,Mainly Clear
1610,3851,6/9/2012 11:00,21.2,9.5,47,15,48.3,100.76,Mostly Cloudy
1611,3854,6/9/2012 14:00,23.2,7.2,36,7,48.3,100.68,Mostly Cloudy
1612,3855,6/9/2012 15:00,23.8,5.6,31,20,48.3,100.67,Mainly Clear
1613,3858,6/9/2012 18:00,23.6,7.1,35,11,48.3,100.73,Mainly Clear
1614,3859,6/9/2012 19:00,21.8,7.6,40,9,48.3,100.75,Mostly Cloudy
1615,3860,6/9/2012 20:00,18.5,8.2,51,6,48.3,100.8,Mainly Clear
1616,3861,6/9/2012 21:00,19.4,6.8,44,6,25.0,100.87,Mainly Clear
1617,3863,6/9/2012 23:00,16.9,7.8,55,4,25.0,100.97,Mainly Clear
1618,3864,6/10/2012 0:00,15.8,9.2,65,6,25.0,101.03,Mainly Clear
1619,3867,6/10/2012 3:00,14.3,11.6,84,4,25.0,101.11,Mainly Clear
1620,3869,6/10/2012 5:00,13.9,9.1,73,6,48.3,101.24,Mainly Clear
1621,3870,6/10/2012 6:00,16.6,9.6,63,0,48.3,101.36,Mainly Clear
1622,3871,6/10/2012 7:00,18.0,8.8,55,4,48.3,101.42,Mainly Clear
1623,3872,6/10/2012 8:00,20.2,9.5,50,6,48.3,101.45,Mainly Clear
1624,3873,6/10/2012 9:00,21.2,10.3,50,6,48.3,101.45,Mainly Clear
1625,3874,6/10/2012 10:00,23.5,11.8,48,7,48.3,101.42,Mainly Clear
1626,3875,6/10/2012 11:00,24.6,7.4,33,7,48.3,101.45,Mostly Cloudy
1627,3876,6/10/2012 12:00,25.4,7.8,33,7,48.3,101.41,Mainly Clear
1628,3877,6/10/2012 13:00,25.5,5.8,28,11,48.3,101.38,Mostly Cloudy
1629,3878,6/10/2012 14:00,26.5,5.9,27,6,48.3,101.4,Mostly Cloudy
1630,3879,6/10/2012 15:00,26.5,9.2,34,6,48.3,101.42,Mainly Clear
1631,3880,6/10/2012 16:00,26.8,10.7,37,6,48.3,101.41,Mainly Clear
1632,3883,6/10/2012 19:00,26.0,9.0,34,9,48.3,101.47,Mostly Cloudy
1633,3884,6/10/2012 20:00,25.3,7.5,32,9,48.3,101.47,Mostly Cloudy
1634,3886,6/10/2012 22:00,22.7,8.9,41,9,25.0,101.5,Mainly Clear
1635,3889,6/11/2012 1:00,20.4,9.2,49,0,25.0,101.45,Mainly Clear
1636,3890,6/11/2012 2:00,18.9,10.5,58,7,25.0,101.47,Mainly Clear
1637,3891,6/11/2012 3:00,18.5,10.9,61,9,25.0,101.45,Mostly Cloudy
1638,3892,6/11/2012 4:00,18.1,10.7,62,11,24.1,101.47,Mostly Cloudy
1639,3893,6/11/2012 5:00,17.5,11.8,69,11,24.1,101.54,Mainly Clear
1640,3894,6/11/2012 6:00,19.5,12.7,65,7,48.3,101.58,Mainly Clear
1641,3895,6/11/2012 7:00,19.4,13.8,70,11,48.3,101.63,Mostly Cloudy
1642,3896,6/11/2012 8:00,20.2,14.5,70,9,48.3,101.64,Mostly Cloudy
1643,3897,6/11/2012 9:00,22.4,15.6,65,7,24.1,101.63,Mostly Cloudy
1644,3898,6/11/2012 10:00,24.8,16.3,59,4,24.1,101.58,Mostly Cloudy
1645,3899,6/11/2012 11:00,26.6,17.2,56,4,24.1,101.54,Mostly Cloudy
1646,3900,6/11/2012 12:00,27.3,17.5,55,7,24.1,101.47,Mostly Cloudy
1647,3902,6/11/2012 14:00,29.4,18.3,51,17,48.3,101.32,Mainly Clear
1648,3903,6/11/2012 15:00,30.1,18.4,50,17,48.3,101.27,Mainly Clear
1649,3904,6/11/2012 16:00,29.6,17.4,48,22,48.3,101.2,Mainly Clear
1650,3905,6/11/2012 17:00,29.1,18.0,51,22,48.3,101.16,Mainly Clear
1651,3906,6/11/2012 18:00,28.2,18.1,54,19,48.3,101.16,Mainly Clear
1652,3907,6/11/2012 19:00,27.1,17.6,56,19,48.3,101.11,Mostly Cloudy
1653,3909,6/11/2012 21:00,25.3,16.6,59,20,25.0,101.09,Mostly Cloudy
1654,3910,6/11/2012 22:00,24.7,16.6,61,22,25.0,101.08,Mostly Cloudy
1655,3911,6/11/2012 23:00,23.8,16.5,64,17,25.0,101.09,Mostly Cloudy
1656,3912,6/12/2012 0:00,22.7,16.3,67,19,25.0,101.08,Mostly Cloudy
1657,3913,6/12/2012 1:00,21.7,15.5,68,17,25.0,101.07,Mostly Cloudy
1658,3914,6/12/2012 2:00,20.9,15.0,69,19,25.0,101.04,Mainly Clear
1659,3915,6/12/2012 3:00,20.2,14.3,69,17,25.0,101.0,Mostly Cloudy
1660,3916,6/12/2012 4:00,19.5,13.4,68,19,24.1,101.0,Mostly Cloudy
1661,3917,6/12/2012 5:00,19.3,13.1,67,17,24.1,101.01,Mostly Cloudy
1662,3918,6/12/2012 6:00,19.5,13.2,67,15,24.1,100.98,Mostly Cloudy
1663,3919,6/12/2012 7:00,21.1,14.1,64,22,24.1,100.95,Mostly Cloudy
1664,3922,6/12/2012 10:00,23.9,15.5,59,15,24.1,100.8,Mostly Cloudy
1665,3935,6/12/2012 23:00,18.6,16.1,85,13,25.0,100.44,Mostly Cloudy
1666,3936,6/13/2012 0:00,18.5,16.1,86,11,25.0,100.46,Mostly Cloudy
1667,3940,6/13/2012 4:00,18.7,15.6,82,22,24.1,100.54,Mostly Cloudy
1668,3941,6/13/2012 5:00,17.2,13.9,81,22,24.1,100.62,Mainly Clear
1669,3942,6/13/2012 6:00,17.7,14.1,79,22,24.1,100.75,Mainly Clear
1670,3943,6/13/2012 7:00,18.1,14.1,77,20,24.1,100.86,Mostly Cloudy
1671,3944,6/13/2012 8:00,17.9,12.6,71,32,24.1,100.96,Mostly Cloudy
1672,3945,6/13/2012 9:00,17.0,11.7,71,24,24.1,101.09,Mostly Cloudy
1673,3946,6/13/2012 10:00,17.9,11.0,64,19,24.1,101.18,Mostly Cloudy
1674,3947,6/13/2012 11:00,19.5,11.6,60,13,24.1,101.28,Mainly Clear
1675,3948,6/13/2012 12:00,19.6,10.6,56,13,48.3,101.3,Mainly Clear
1676,3949,6/13/2012 13:00,20.4,10.6,53,15,48.3,101.32,Mainly Clear
1677,3950,6/13/2012 14:00,20.7,9.8,50,9,48.3,101.36,Mainly Clear
1678,3951,6/13/2012 15:00,21.9,10.7,49,17,48.3,101.39,Mainly Clear
1679,3952,6/13/2012 16:00,21.8,9.3,45,17,48.3,101.42,Mainly Clear
1680,3953,6/13/2012 17:00,22.2,9.8,45,19,48.3,101.44,Mainly Clear
1681,3954,6/13/2012 18:00,21.6,9.8,47,20,48.3,101.48,Mainly Clear
1682,3992,6/15/2012 8:00,18.6,9.5,55,17,48.3,102.4,Mainly Clear
1683,3993,6/15/2012 9:00,20.3,7.9,45,17,48.3,102.39,Mainly Clear
1684,3994,6/15/2012 10:00,21.4,6.3,37,13,48.3,102.37,Mostly Cloudy
1685,3995,6/15/2012 11:00,22.2,7.9,40,15,48.3,102.35,Mostly Cloudy
1686,3996,6/15/2012 12:00,23.5,7.0,35,11,48.3,102.3,Mainly Clear
1687,3997,6/15/2012 13:00,24.4,6.7,32,15,48.3,102.22,Mostly Cloudy
1688,4004,6/15/2012 20:00,22.0,8.7,43,15,48.3,102.06,Mostly Cloudy
1689,4005,6/15/2012 21:00,22.1,7.8,40,11,25.0,102.06,Mainly Clear
1690,4006,6/15/2012 22:00,21.3,8.6,44,13,25.0,102.06,Mainly Clear
1691,4009,6/16/2012 1:00,16.1,10.4,69,11,25.0,102.02,Mainly Clear
1692,4011,6/16/2012 3:00,14.7,9.6,71,17,25.0,102.03,Mainly Clear
1693,4012,6/16/2012 4:00,13.8,8.8,72,19,25.0,102.11,Mainly Clear
1694,4013,6/16/2012 5:00,13.9,8.5,70,13,24.1,102.16,Mostly Cloudy
1695,4014,6/16/2012 6:00,15.2,8.8,66,17,24.1,102.18,Mostly Cloudy
1696,4015,6/16/2012 7:00,16.2,9.3,64,15,48.3,102.25,Mostly Cloudy
1697,4016,6/16/2012 8:00,17.4,9.5,60,9,48.3,102.23,Mostly Cloudy
1698,4020,6/16/2012 12:00,23.8,13.1,51,6,48.3,102.04,Mostly Cloudy
1699,4022,6/16/2012 14:00,24.9,13.5,49,6,48.3,101.91,Mostly Cloudy
1700,4023,6/16/2012 15:00,26.0,13.6,46,6,48.3,101.84,Mostly Cloudy
1701,4024,6/16/2012 16:00,26.5,11.0,38,7,48.3,101.77,Mostly Cloudy
1702,4025,6/16/2012 17:00,26.5,11.3,39,4,48.3,101.73,Mostly Cloudy
1703,4026,6/16/2012 18:00,26.2,12.1,41,6,48.3,101.71,Mainly Clear
1704,4027,6/16/2012 19:00,25.0,13.0,47,7,48.3,101.66,Mainly Clear
1705,4028,6/16/2012 20:00,23.1,11.8,49,4,48.3,101.62,Mainly Clear
1706,4030,6/16/2012 22:00,21.5,11.9,54,9,25.0,101.6,Mainly Clear
1707,4031,6/16/2012 23:00,20.9,12.9,60,0,25.0,101.58,Mainly Clear
1708,4032,6/17/2012 0:00,19.3,12.6,65,0,25.0,101.55,Mainly Clear
1709,4033,6/17/2012 1:00,19.8,13.7,68,7,25.0,101.52,Mainly Clear
1710,4034,6/17/2012 2:00,18.6,13.5,72,11,25.0,101.48,Mainly Clear
1711,4036,6/17/2012 4:00,17.4,13.4,77,9,24.1,101.46,Mainly Clear
1712,4037,6/17/2012 5:00,17.3,13.7,79,6,48.3,101.47,Mainly Clear
1713,4038,6/17/2012 6:00,18.9,14.1,74,9,48.3,101.51,Mainly Clear
1714,4039,6/17/2012 7:00,20.2,14.4,69,11,48.3,101.52,Mainly Clear
1715,4040,6/17/2012 8:00,22.2,15.1,64,9,48.3,101.5,Mainly Clear
1716,4041,6/17/2012 9:00,23.4,15.3,60,9,48.3,101.47,Mainly Clear
1717,4042,6/17/2012 10:00,25.0,16.1,58,9,48.3,101.43,Mainly Clear
1718,4045,6/17/2012 13:00,26.6,16.7,55,11,48.3,101.23,Mostly Cloudy
1719,4053,6/17/2012 21:00,24.1,14.1,54,19,25.0,100.99,Mostly Cloudy
1720,4054,6/17/2012 22:00,23.4,13.8,55,22,25.0,101.0,Mostly Cloudy
1721,4055,6/17/2012 23:00,23.2,13.7,55,13,25.0,101.03,Mostly Cloudy
1722,4056,6/18/2012 0:00,21.7,13.4,59,15,25.0,101.04,Mainly Clear
1723,4057,6/18/2012 1:00,20.5,13.4,64,13,25.0,101.07,Mainly Clear
1724,4058,6/18/2012 2:00,19.7,13.5,67,19,25.0,101.08,Mainly Clear
1725,4059,6/18/2012 3:00,19.3,13.4,69,17,25.0,101.06,Mainly Clear
1726,4060,6/18/2012 4:00,18.4,13.3,72,17,25.0,101.1,Mainly Clear
1727,4061,6/18/2012 5:00,17.9,13.2,74,19,24.1,101.12,Mostly Cloudy
1728,4062,6/18/2012 6:00,18.2,13.3,73,20,24.1,101.14,Mostly Cloudy
1729,4063,6/18/2012 7:00,19.3,13.4,69,17,48.3,101.16,Mostly Cloudy
1730,4064,6/18/2012 8:00,20.6,14.0,66,17,48.3,101.17,Mostly Cloudy
1731,4065,6/18/2012 9:00,22.0,14.4,62,17,48.3,101.15,Mostly Cloudy
1732,4066,6/18/2012 10:00,22.6,14.2,59,19,48.3,101.15,Mostly Cloudy
1733,4067,6/18/2012 11:00,24.0,14.9,57,19,24.1,101.14,Mostly Cloudy
1734,4068,6/18/2012 12:00,25.3,14.8,52,19,24.1,101.13,Mostly Cloudy
1735,4069,6/18/2012 13:00,25.3,14.2,50,20,24.1,101.06,Mostly Cloudy
1736,4070,6/18/2012 14:00,26.1,14.0,47,22,24.1,101.06,Mostly Cloudy
1737,4071,6/18/2012 15:00,25.8,13.4,46,24,24.1,101.02,Mostly Cloudy
1738,4072,6/18/2012 16:00,25.6,13.6,47,24,24.1,100.98,Mainly Clear
1739,4073,6/18/2012 17:00,25.2,13.5,48,20,24.1,100.95,Mainly Clear
1740,4074,6/18/2012 18:00,24.1,13.1,50,22,24.1,100.96,Mostly Cloudy
1741,4075,6/18/2012 19:00,23.2,13.1,53,20,24.1,100.97,Mostly Cloudy
1742,4077,6/18/2012 21:00,21.8,13.4,59,9,25.0,101.02,Mainly Clear
1743,4078,6/18/2012 22:00,21.5,14.0,62,13,25.0,101.02,Mainly Clear
1744,4079,6/18/2012 23:00,21.5,14.7,65,13,25.0,101.13,Mostly Cloudy
1745,4080,6/19/2012 0:00,20.8,14.7,68,13,25.0,101.14,Mostly Cloudy
1746,4081,6/19/2012 1:00,20.0,14.6,71,9,25.0,101.17,Mostly Cloudy
1747,4084,6/19/2012 4:00,18.1,13.6,75,9,24.1,101.13,Mostly Cloudy
1748,4085,6/19/2012 5:00,18.0,13.7,76,6,25.0,101.19,Mostly Cloudy
1749,4087,6/19/2012 7:00,19.6,14.3,71,22,24.1,101.01,Mostly Cloudy
1750,4095,6/19/2012 15:00,28.1,19.2,58,20,24.1,100.92,Mostly Cloudy
1751,4096,6/19/2012 16:00,27.7,19.0,59,17,24.1,100.87,Mostly Cloudy
1752,4097,6/19/2012 17:00,28.0,19.4,60,19,24.1,100.91,Mostly Cloudy
1753,4099,6/19/2012 19:00,27.0,19.0,62,20,24.1,100.94,Mostly Cloudy
1754,4102,6/19/2012 22:00,25.5,19.3,69,9,25.0,100.86,Mostly Cloudy
1755,4104,6/20/2012 0:00,25.0,18.8,68,17,25.0,100.82,Mostly Cloudy
1756,4105,6/20/2012 1:00,25.0,18.5,67,19,25.0,100.87,Mainly Clear
1757,4107,6/20/2012 3:00,23.7,18.4,72,20,25.0,100.9,Mainly Clear
1758,4108,6/20/2012 4:00,23.1,18.2,74,13,24.1,100.97,Mainly Clear
1759,4109,6/20/2012 5:00,23.0,18.1,74,19,24.1,101.01,Mainly Clear
1760,4110,6/20/2012 6:00,24.2,18.2,69,22,48.3,101.04,Mainly Clear
1761,4111,6/20/2012 7:00,25.4,18.1,64,24,48.3,101.07,Mostly Cloudy
1762,4112,6/20/2012 8:00,25.3,18.0,64,19,48.3,101.1,Mostly Cloudy
1763,4113,6/20/2012 9:00,26.3,18.5,62,17,24.1,101.09,Mostly Cloudy
1764,4114,6/20/2012 10:00,27.4,19.3,61,9,24.1,101.06,Mostly Cloudy
1765,4115,6/20/2012 11:00,28.5,19.8,59,17,24.1,101.06,Mainly Clear
1766,4116,6/20/2012 12:00,29.1,20.0,58,20,24.1,101.0,Mainly Clear
1767,4119,6/20/2012 15:00,32.2,19.6,47,22,24.1,100.75,Mainly Clear
1768,4120,6/20/2012 16:00,32.2,20.0,49,26,24.1,100.74,Mainly Clear
1769,4121,6/20/2012 17:00,32.3,20.3,49,15,24.1,100.69,Mainly Clear
1770,4122,6/20/2012 18:00,32.4,19.9,48,17,24.1,100.61,Mostly Cloudy
1771,4123,6/20/2012 19:00,30.6,21.1,57,11,24.1,100.63,Mostly Cloudy
1772,4124,6/20/2012 20:00,29.7,21.1,60,17,24.1,100.61,Mostly Cloudy
1773,4125,6/20/2012 21:00,28.0,21.0,66,15,25.0,100.61,Mainly Clear
1774,4127,6/20/2012 23:00,27.3,20.1,65,19,25.0,100.6,Mainly Clear
1775,4128,6/21/2012 0:00,26.5,19.9,67,20,25.0,100.61,Mainly Clear
1776,4130,6/21/2012 2:00,25.1,19.3,70,11,25.0,100.6,Mainly Clear
1777,4131,6/21/2012 3:00,24.6,18.9,71,11,25.0,100.58,Mainly Clear
1778,4132,6/21/2012 4:00,24.0,18.5,71,11,25.0,100.57,Mainly Clear
1779,4133,6/21/2012 5:00,24.1,18.2,70,17,24.1,100.6,Mainly Clear
1780,4134,6/21/2012 6:00,24.5,18.2,68,17,24.1,100.6,Mainly Clear
1781,4135,6/21/2012 7:00,25.6,18.6,65,17,24.1,100.6,Mainly Clear
1782,4136,6/21/2012 8:00,26.0,18.5,63,11,24.1,100.59,Mainly Clear
1783,4137,6/21/2012 9:00,28.1,19.0,58,19,24.1,100.52,Mainly Clear
1784,4139,6/21/2012 11:00,30.8,20.0,53,13,24.1,100.42,Mainly Clear
1785,4140,6/21/2012 12:00,31.8,20.8,52,15,24.1,100.36,Mainly Clear
1786,4141,6/21/2012 13:00,31.6,20.6,52,24,24.1,100.32,Mostly Cloudy
1787,4142,6/21/2012 14:00,32.6,20.4,49,20,24.1,100.25,Mainly Clear
1788,4143,6/21/2012 15:00,33.0,19.0,44,24,24.1,100.2,Mainly Clear
1789,4144,6/21/2012 16:00,32.5,17.9,42,24,24.1,100.14,Mainly Clear
1790,4145,6/21/2012 17:00,32.1,17.9,43,30,24.1,100.09,Mainly Clear
1791,4148,6/21/2012 20:00,28.9,17.6,51,22,24.1,100.1,Mainly Clear
1792,4149,6/21/2012 21:00,28.1,17.7,53,20,25.0,100.13,Mainly Clear
1793,4150,6/21/2012 22:00,27.5,17.8,55,17,25.0,100.14,Mainly Clear
1794,4153,6/22/2012 1:00,24.8,18.1,66,9,25.0,100.11,Mainly Clear
1795,4154,6/22/2012 2:00,24.7,16.9,62,15,25.0,100.1,Mainly Clear
1796,4155,6/22/2012 3:00,24.0,16.7,64,22,25.0,100.12,Mainly Clear
1797,4156,6/22/2012 4:00,23.0,16.7,68,19,24.1,100.14,Mainly Clear
1798,4157,6/22/2012 5:00,22.6,16.9,70,20,24.1,100.21,Mainly Clear
1799,4158,6/22/2012 6:00,22.7,17.2,71,19,24.1,100.28,Mostly Cloudy
1800,4159,6/22/2012 7:00,23.4,17.3,69,19,24.1,100.33,Mostly Cloudy
1801,4160,6/22/2012 8:00,23.0,17.3,70,17,24.1,100.37,Mostly Cloudy
1802,4161,6/22/2012 9:00,24.6,17.6,65,17,24.1,100.4,Mostly Cloudy
1803,4162,6/22/2012 10:00,24.4,16.9,63,19,24.1,100.4,Mostly Cloudy
1804,4163,6/22/2012 11:00,24.7,17.3,63,22,24.1,100.41,Mostly Cloudy
1805,4164,6/22/2012 12:00,26.8,17.8,58,22,24.1,100.41,Mostly Cloudy
1806,4165,6/22/2012 13:00,28.0,14.8,45,20,24.1,100.39,Mostly Cloudy
1807,4166,6/22/2012 14:00,29.1,14.0,40,22,48.3,100.37,Mostly Cloudy
1808,4167,6/22/2012 15:00,29.0,13.8,39,20,48.3,100.32,Mainly Clear
1809,4168,6/22/2012 16:00,28.5,12.7,38,22,48.3,100.29,Mainly Clear
1810,4169,6/22/2012 17:00,27.9,12.4,38,24,48.3,100.29,Mainly Clear
1811,4170,6/22/2012 18:00,27.2,11.7,38,17,48.3,100.31,Mainly Clear
1812,4171,6/22/2012 19:00,25.7,11.7,42,11,48.3,100.38,Mostly Cloudy
1813,4172,6/22/2012 20:00,23.2,10.9,46,7,24.1,100.42,Mostly Cloudy
1814,4173,6/22/2012 21:00,22.8,11.8,50,9,25.0,100.47,Mostly Cloudy
1815,4174,6/22/2012 22:00,21.1,11.7,55,9,25.0,100.48,Mainly Clear
1816,4175,6/22/2012 23:00,20.0,11.7,59,9,25.0,100.52,Mainly Clear
1817,4176,6/23/2012 0:00,19.6,12.1,62,7,25.0,100.56,Mostly Cloudy
1818,4177,6/23/2012 1:00,20.8,11.9,57,9,25.0,100.6,Mainly Clear
1819,4178,6/23/2012 2:00,20.1,12.0,60,13,25.0,100.62,Mainly Clear
1820,4179,6/23/2012 3:00,19.5,12.3,63,13,25.0,100.65,Mainly Clear
1821,4180,6/23/2012 4:00,19.5,12.3,63,15,24.1,100.7,Mainly Clear
1822,4181,6/23/2012 5:00,19.3,12.4,64,15,48.3,100.82,Mostly Cloudy
1823,4183,6/23/2012 7:00,18.6,13.7,73,11,48.3,100.84,Mostly Cloudy
1824,4184,6/23/2012 8:00,20.0,12.6,62,15,48.3,100.89,Mostly Cloudy
1825,4185,6/23/2012 9:00,21.5,11.8,54,15,48.3,100.9,Mostly Cloudy
1826,4186,6/23/2012 10:00,22.2,11.7,51,7,48.3,100.91,Mostly Cloudy
1827,4187,6/23/2012 11:00,23.8,11.4,46,11,48.3,100.89,Mostly Cloudy
1828,4188,6/23/2012 12:00,25.1,9.8,38,13,48.3,100.85,Mostly Cloudy
1829,4189,6/23/2012 13:00,25.6,9.6,36,19,48.3,100.84,Mainly Clear
1830,4190,6/23/2012 14:00,26.1,7.1,30,15,48.3,100.82,Mainly Clear
1831,4191,6/23/2012 15:00,26.4,5.7,27,13,48.3,100.86,Mostly Cloudy
1832,4192,6/23/2012 16:00,26.5,5.9,27,22,48.3,100.84,Mostly Cloudy
1833,4193,6/23/2012 17:00,26.4,4.4,24,15,48.3,100.83,Mainly Clear
1834,4194,6/23/2012 18:00,25.8,3.6,24,20,48.3,100.82,Mainly Clear
1835,4195,6/23/2012 19:00,25.8,3.5,24,13,48.3,100.84,Mainly Clear
1836,4198,6/23/2012 22:00,19.6,7.5,45,0,25.0,100.99,Mainly Clear
1837,4211,6/24/2012 11:00,26.3,12.0,41,17,48.3,100.91,Mainly Clear
1838,4212,6/24/2012 12:00,27.1,8.4,31,9,48.3,100.82,Mainly Clear
1839,4213,6/24/2012 13:00,27.3,9.9,34,17,48.3,100.75,Mostly Cloudy
1840,4214,6/24/2012 14:00,26.8,9.4,33,19,48.3,100.67,Mostly Cloudy
1841,4215,6/24/2012 15:00,26.7,8.9,33,22,48.3,100.63,Mostly Cloudy
1842,4230,6/25/2012 6:00,16.7,14.3,86,15,24.1,100.19,Mostly Cloudy
1843,4232,6/25/2012 8:00,18.7,13.9,74,17,24.1,100.16,Mainly Clear
1844,4233,6/25/2012 9:00,18.8,13.0,69,26,24.1,100.13,Mostly Cloudy
1845,4235,6/25/2012 11:00,19.8,13.1,65,22,24.1,100.1,Mostly Cloudy
1846,4236,6/25/2012 12:00,19.0,11.9,63,26,24.1,100.12,Mostly Cloudy
1847,4237,6/25/2012 13:00,19.7,12.4,63,19,24.1,100.12,Mostly Cloudy
1848,4238,6/25/2012 14:00,20.2,12.2,60,26,24.1,100.13,Mostly Cloudy
1849,4239,6/25/2012 15:00,18.8,10.8,60,28,24.1,100.09,Mostly Cloudy
1850,4240,6/25/2012 16:00,18.1,10.8,62,26,24.1,100.12,Mostly Cloudy
1851,4254,6/26/2012 6:00,15.6,10.2,70,17,24.1,100.18,Mostly Cloudy
1852,4255,6/26/2012 7:00,16.0,10.4,69,11,24.1,100.19,Mostly Cloudy
1853,4280,6/27/2012 8:00,18.0,12.9,72,28,24.1,99.83,Mostly Cloudy
1854,4287,6/27/2012 15:00,19.6,15.1,75,19,24.1,100.02,Mostly Cloudy
1855,4289,6/27/2012 17:00,19.9,14.3,70,20,24.1,100.05,Mostly Cloudy
1856,4290,6/27/2012 18:00,21.1,14.1,64,15,24.1,100.06,Mostly Cloudy
1857,4293,6/27/2012 21:00,19.3,12.7,66,13,25.0,100.19,Mostly Cloudy
1858,4301,6/28/2012 5:00,17.6,13.7,78,9,48.3,100.25,Mostly Cloudy
1859,4302,6/28/2012 6:00,17.7,13.7,77,11,48.3,100.27,Mostly Cloudy
1860,4303,6/28/2012 7:00,18.6,14.2,76,11,48.3,100.29,Mostly Cloudy
1861,4304,6/28/2012 8:00,19.4,14.2,72,9,48.3,100.28,Mostly Cloudy
1862,4305,6/28/2012 9:00,20.4,14.1,67,11,48.3,100.27,Mostly Cloudy
1863,4306,6/28/2012 10:00,21.7,14.7,64,11,48.3,100.23,Mostly Cloudy
1864,4307,6/28/2012 11:00,23.0,14.7,60,13,48.3,100.21,Mostly Cloudy
1865,4308,6/28/2012 12:00,24.6,15.3,56,9,48.3,100.19,Mostly Cloudy
1866,4309,6/28/2012 13:00,24.9,15.0,54,17,48.3,100.11,Mainly Clear
1867,4310,6/28/2012 14:00,25.5,15.3,53,22,48.3,100.08,Mainly Clear
1868,4311,6/28/2012 15:00,27.0,14.8,47,22,48.3,100.03,Mainly Clear
1869,4312,6/28/2012 16:00,27.1,14.0,45,22,48.3,100.01,Mainly Clear
1870,4313,6/28/2012 17:00,27.2,12.6,40,19,48.3,99.92,Mostly Cloudy
1871,4314,6/28/2012 18:00,26.4,12.1,41,19,48.3,99.9,Mostly Cloudy
1872,4315,6/28/2012 19:00,25.4,12.9,46,13,48.3,99.91,Mostly Cloudy
1873,4316,6/28/2012 20:00,24.1,13.5,52,11,24.1,99.89,Mainly Clear
1874,4317,6/28/2012 21:00,23.6,14.3,56,11,25.0,99.95,Mainly Clear
1875,4318,6/28/2012 22:00,22.5,15.0,63,11,25.0,99.88,Mostly Cloudy
1876,4319,6/28/2012 23:00,21.9,15.4,67,15,25.0,99.85,Mostly Cloudy
1877,4325,6/29/2012 5:00,18.9,16.4,85,13,24.1,99.71,Mostly Cloudy
1878,4326,6/29/2012 6:00,19.7,16.7,83,17,24.1,99.72,Mostly Cloudy
1879,4327,6/29/2012 7:00,21.4,16.7,75,20,24.1,99.65,Mainly Clear
1880,4328,6/29/2012 8:00,22.8,17.4,72,24,24.1,99.61,Mainly Clear
1881,4329,6/29/2012 9:00,24.8,18.0,66,24,24.1,99.55,Mainly Clear
1882,4331,6/29/2012 11:00,26.5,19.2,64,26,24.1,99.51,Mainly Clear
1883,4332,6/29/2012 12:00,27.3,18.5,59,32,24.1,99.47,Mostly Cloudy
1884,4333,6/29/2012 13:00,28.6,18.2,53,15,48.3,99.46,Mainly Clear
1885,4334,6/29/2012 14:00,29.8,17.1,46,33,48.3,99.44,Mainly Clear
1886,4335,6/29/2012 15:00,30.7,14.6,38,32,48.3,99.42,Mainly Clear
1887,4336,6/29/2012 16:00,31.1,13.0,33,28,48.3,99.39,Mainly Clear
1888,4337,6/29/2012 17:00,30.2,12.2,33,30,48.3,99.43,Mainly Clear
1889,4338,6/29/2012 18:00,29.8,12.5,35,24,48.3,99.45,Mainly Clear
1890,4339,6/29/2012 19:00,28.5,12.3,37,17,48.3,99.45,Mainly Clear
1891,4340,6/29/2012 20:00,27.6,13.4,42,9,25.0,99.51,Mainly Clear
1892,4341,6/29/2012 21:00,26.5,15.3,50,22,25.0,99.58,Mainly Clear
1893,4342,6/29/2012 22:00,25.7,14.0,48,22,25.0,99.59,Mostly Cloudy
1894,4343,6/29/2012 23:00,24.5,13.5,50,17,25.0,99.61,Mainly Clear
1895,4349,6/30/2012 5:00,20.8,12.4,59,26,48.3,99.83,Mostly Cloudy
1896,4350,6/30/2012 6:00,21.6,13.2,59,28,48.3,99.85,Mostly Cloudy
1897,4351,6/30/2012 7:00,22.1,13.8,59,20,48.3,99.86,Mostly Cloudy
1898,4352,6/30/2012 8:00,23.4,14.4,57,26,48.3,99.88,Mostly Cloudy
1899,4353,6/30/2012 9:00,24.2,13.9,53,26,48.3,99.83,Mainly Clear
1900,4354,6/30/2012 10:00,25.1,14.5,52,30,48.3,99.83,Mainly Clear
1901,4355,6/30/2012 11:00,26.3,14.9,50,26,48.3,99.79,Mainly Clear
1902,4356,6/30/2012 12:00,27.6,15.5,48,26,48.3,99.74,Mainly Clear
1903,4357,6/30/2012 13:00,28.0,14.8,45,30,48.3,99.68,Mainly Clear
1904,4358,6/30/2012 14:00,29.9,13.8,37,33,48.3,99.67,Mainly Clear
1905,4359,6/30/2012 15:00,28.8,13.2,38,28,24.1,99.66,Mostly Cloudy
1906,4360,6/30/2012 16:00,29.0,13.1,38,26,48.3,99.65,Mostly Cloudy
1907,4361,6/30/2012 17:00,24.8,17.6,64,11,48.3,99.69,Mostly Cloudy
1908,4362,6/30/2012 18:00,24.3,16.2,61,22,24.1,99.79,Mostly Cloudy
1909,4363,6/30/2012 19:00,23.9,16.6,64,7,48.3,99.86,Mostly Cloudy
1910,4364,6/30/2012 20:00,22.9,16.2,66,6,25.0,99.92,Mostly Cloudy
1911,4365,6/30/2012 21:00,23.6,16.3,64,13,25.0,100.02,Mostly Cloudy
1912,4366,6/30/2012 22:00,23.3,15.3,61,7,25.0,100.04,Mostly Cloudy
1913,4367,6/30/2012 23:00,22.3,15.6,66,4,25.0,100.07,Mostly Cloudy
1914,4368,7/1/2012 0:00,22.0,15.7,67,0,25.0,100.1,Mostly Cloudy
1915,4369,7/1/2012 1:00,21.1,16.8,76,6,25.0,100.14,Mostly Cloudy
1916,4370,7/1/2012 2:00,20.4,16.1,76,9,24.1,100.16,Mostly Cloudy
1917,4371,7/1/2012 3:00,20.2,13.8,67,7,25.0,100.22,Mostly Cloudy
1918,4372,7/1/2012 4:00,20.0,12.3,61,6,24.1,100.27,Mostly Cloudy
1919,4373,7/1/2012 5:00,20.2,12.3,60,0,24.1,100.32,Mostly Cloudy
1920,4374,7/1/2012 6:00,21.0,12.9,60,7,24.1,100.41,Mostly Cloudy
1921,4375,7/1/2012 7:00,21.3,13.4,61,11,24.1,100.46,Mostly Cloudy
1922,4376,7/1/2012 8:00,21.6,13.1,58,6,24.1,100.5,Mainly Clear
1923,4377,7/1/2012 9:00,22.9,13.0,54,4,48.3,100.51,Mainly Clear
1924,4378,7/1/2012 10:00,23.4,13.5,54,13,48.3,100.5,Mainly Clear
1925,4379,7/1/2012 11:00,24.6,14.4,53,19,48.3,100.5,Mainly Clear
1926,4380,7/1/2012 12:00,24.2,13.4,51,22,48.3,100.54,Mainly Clear
1927,4381,7/1/2012 13:00,25.4,14.0,49,22,48.3,100.55,Mainly Clear
1928,4382,7/1/2012 14:00,25.1,13.9,50,17,48.3,100.56,Mainly Clear
1929,4383,7/1/2012 15:00,24.7,14.0,51,15,48.3,100.56,Mostly Cloudy
1930,4384,7/1/2012 16:00,24.7,13.8,51,15,48.3,100.55,Mostly Cloudy
1931,4385,7/1/2012 17:00,25.3,14.5,51,11,48.3,100.52,Mainly Clear
1932,4386,7/1/2012 18:00,24.5,13.9,52,17,48.3,100.52,Mainly Clear
1933,4387,7/1/2012 19:00,23.6,13.0,51,15,48.3,100.51,Mainly Clear
1934,4388,7/1/2012 20:00,21.9,12.9,57,11,25.0,100.55,Mainly Clear
1935,4389,7/1/2012 21:00,21.3,12.9,59,7,25.0,100.63,Mainly Clear
1936,4390,7/1/2012 22:00,19.6,13.0,66,11,25.0,100.63,Mainly Clear
1937,4391,7/1/2012 23:00,19.1,12.9,67,9,25.0,100.67,Mainly Clear
1938,4392,7/2/2012 0:00,18.1,13.0,72,13,25.0,100.69,Mainly Clear
1939,4393,7/2/2012 1:00,17.3,12.6,74,7,25.0,100.71,Mainly Clear
1940,4394,7/2/2012 2:00,16.6,12.5,77,7,25.0,100.72,Mainly Clear
1941,4395,7/2/2012 3:00,16.6,12.5,77,6,25.0,100.72,Mainly Clear
1942,4396,7/2/2012 4:00,16.8,12.4,75,0,24.1,100.75,Mainly Clear
1943,4397,7/2/2012 5:00,16.6,12.7,78,6,24.1,100.76,Mainly Clear
1944,4398,7/2/2012 6:00,19.5,14.0,71,6,48.3,100.79,Mainly Clear
1945,4399,7/2/2012 7:00,21.5,14.6,65,9,48.3,100.81,Mainly Clear
1946,4400,7/2/2012 8:00,22.2,14.8,63,15,48.3,100.84,Mostly Cloudy
1947,4401,7/2/2012 9:00,23.4,15.0,59,15,48.3,100.83,Mainly Clear
1948,4402,7/2/2012 10:00,23.6,15.1,59,13,48.3,100.81,Mainly Clear
1949,4403,7/2/2012 11:00,25.2,15.6,55,19,48.3,100.78,Mainly Clear
1950,4404,7/2/2012 12:00,25.9,15.6,53,15,48.3,100.73,Mainly Clear
1951,4405,7/2/2012 13:00,26.5,13.7,45,17,48.3,100.66,Mainly Clear
1952,4406,7/2/2012 14:00,26.7,12.8,42,19,48.3,100.61,Mostly Cloudy
1953,4407,7/2/2012 15:00,28.3,12.3,37,30,48.3,100.55,Mainly Clear
1954,4408,7/2/2012 16:00,28.0,11.6,36,22,48.3,100.54,Mainly Clear
1955,4409,7/2/2012 17:00,26.3,9.7,35,26,48.3,100.62,Mostly Cloudy
1956,4410,7/2/2012 18:00,25.9,10.0,37,20,48.3,100.66,Mostly Cloudy
1957,4411,7/2/2012 19:00,24.5,9.7,39,15,48.3,100.69,Mostly Cloudy
1958,4412,7/2/2012 20:00,21.7,10.0,47,9,25.0,100.75,Mainly Clear
1959,4413,7/2/2012 21:00,20.0,10.4,54,6,25.0,100.81,Mainly Clear
1960,4414,7/2/2012 22:00,19.1,10.5,57,6,25.0,100.82,Mainly Clear
1961,4415,7/2/2012 23:00,19.0,10.8,59,7,25.0,100.81,Mainly Clear
1962,4416,7/3/2012 0:00,18.2,10.8,62,7,25.0,100.83,Mainly Clear
1963,4425,7/3/2012 9:00,21.9,11.1,50,9,48.3,100.94,Mainly Clear
1964,4426,7/3/2012 10:00,23.0,11.6,49,4,48.3,100.89,Mainly Clear
1965,4427,7/3/2012 11:00,24.1,12.0,47,9,48.3,100.85,Mostly Cloudy
1966,4428,7/3/2012 12:00,25.2,12.3,45,11,48.3,100.79,Mostly Cloudy
1967,4449,7/4/2012 9:00,23.2,18.4,74,17,16.1,100.2,Mostly Cloudy
1968,4453,7/4/2012 13:00,27.0,20.1,66,24,19.3,100.07,Mostly Cloudy
1969,4454,7/4/2012 14:00,27.5,19.9,63,24,19.3,100.04,Mostly Cloudy
1970,4455,7/4/2012 15:00,28.4,19.9,60,19,19.3,99.98,Mostly Cloudy
1971,4458,7/4/2012 18:00,23.4,20.7,85,9,24.1,100.06,Mainly Clear
1972,4459,7/4/2012 19:00,23.3,20.2,83,6,24.1,100.09,Mainly Clear
1973,4460,7/4/2012 20:00,21.8,19.1,85,9,24.1,100.15,Mainly Clear
1974,4461,7/4/2012 21:00,21.2,18.3,84,9,25.0,100.25,Mainly Clear
1975,4465,7/5/2012 1:00,17.2,14.8,86,6,25.0,100.45,Mainly Clear
1976,4466,7/5/2012 2:00,16.6,14.6,88,11,25.0,100.43,Mainly Clear
1977,4467,7/5/2012 3:00,16.8,14.6,87,11,25.0,100.46,Mainly Clear
1978,4468,7/5/2012 4:00,15.8,14.1,90,7,24.1,100.47,Mainly Clear
1979,4469,7/5/2012 5:00,16.1,14.5,90,9,24.1,100.56,Mainly Clear
1980,4470,7/5/2012 6:00,18.3,14.5,79,13,24.1,100.62,Mainly Clear
1981,4471,7/5/2012 7:00,19.4,14.7,74,17,24.1,100.68,Mainly Clear
1982,4472,7/5/2012 8:00,20.4,15.0,71,7,24.1,100.73,Mainly Clear
1983,4473,7/5/2012 9:00,21.1,15.3,69,6,48.3,100.74,Mostly Cloudy
1984,4474,7/5/2012 10:00,22.0,15.6,67,9,48.3,100.72,Mostly Cloudy
1985,4478,7/5/2012 14:00,24.5,16.1,59,11,48.3,100.66,Mostly Cloudy
1986,4479,7/5/2012 15:00,24.3,16.7,63,11,48.3,100.69,Mostly Cloudy
1987,4480,7/5/2012 16:00,24.8,17.9,66,17,48.3,100.66,Mostly Cloudy
1988,4481,7/5/2012 17:00,25.8,17.5,60,17,48.3,100.65,Mainly Clear
1989,4482,7/5/2012 18:00,25.0,17.2,62,19,48.3,100.64,Mainly Clear
1990,4483,7/5/2012 19:00,24.5,17.4,65,15,48.3,100.65,Mainly Clear
1991,4488,7/6/2012 0:00,20.5,17.2,81,7,25.0,100.73,Mainly Clear
1992,4489,7/6/2012 1:00,20.7,17.4,81,0,25.0,100.75,Mainly Clear
1993,4493,7/6/2012 5:00,19.3,16.3,83,6,48.3,100.78,Mainly Clear
1994,4494,7/6/2012 6:00,20.7,17.5,82,9,48.3,100.79,Mostly Cloudy
1995,4495,7/6/2012 7:00,20.6,16.8,79,13,48.3,100.79,Mostly Cloudy
1996,4496,7/6/2012 8:00,22.1,16.7,71,15,48.3,100.76,Mostly Cloudy
1997,4519,7/7/2012 7:00,23.5,17.1,67,19,24.1,100.42,Mostly Cloudy
1998,4521,7/7/2012 9:00,23.1,16.1,65,15,24.1,100.42,Mostly Cloudy
1999,4522,7/7/2012 10:00,24.1,16.0,61,19,24.1,100.43,Mostly Cloudy
2000,4523,7/7/2012 11:00,24.4,16.2,60,17,24.1,100.44,Mostly Cloudy
2001,4524,7/7/2012 12:00,26.5,16.5,54,22,24.1,100.42,Mainly Clear
2002,4525,7/7/2012 13:00,27.8,16.4,50,20,48.3,100.37,Mainly Clear
2003,4526,7/7/2012 14:00,28.8,16.5,47,17,48.3,100.32,Mainly Clear
2004,4527,7/7/2012 15:00,28.9,16.4,47,22,48.3,100.28,Mostly Cloudy
2005,4528,7/7/2012 16:00,29.1,15.7,44,17,48.3,100.28,Mostly Cloudy
2006,4529,7/7/2012 17:00,28.7,14.5,42,20,48.3,100.28,Mainly Clear
2007,4530,7/7/2012 18:00,27.7,15.3,47,15,48.3,100.33,Mainly Clear
2008,4531,7/7/2012 19:00,26.4,15.1,50,13,48.3,100.4,Mostly Cloudy
2009,4532,7/7/2012 20:00,25.5,14.5,51,9,48.3,100.43,Mostly Cloudy
2010,4533,7/7/2012 21:00,24.5,14.7,54,11,25.0,100.48,Mostly Cloudy
2011,4534,7/7/2012 22:00,23.2,15.1,60,9,25.0,100.49,Mainly Clear
2012,4535,7/7/2012 23:00,23.8,13.9,54,17,25.0,100.53,Mainly Clear
2013,4536,7/8/2012 0:00,22.0,13.6,59,17,25.0,100.56,Mainly Clear
2014,4537,7/8/2012 1:00,21.0,12.9,60,15,25.0,100.59,Mainly Clear
2015,4538,7/8/2012 2:00,20.0,12.7,63,11,25.0,100.62,Mainly Clear
2016,4539,7/8/2012 3:00,17.7,11.7,68,7,25.0,100.64,Mainly Clear
2017,4541,7/8/2012 5:00,16.6,13.1,80,9,24.1,100.76,Mainly Clear
2018,4542,7/8/2012 6:00,18.6,12.5,68,15,48.3,100.8,Mainly Clear
2019,4543,7/8/2012 7:00,18.8,12.2,65,20,48.3,100.83,Mainly Clear
2020,4544,7/8/2012 8:00,19.3,6.5,43,22,48.3,100.84,Mainly Clear
2021,4549,7/8/2012 13:00,23.9,7.7,35,17,48.3,100.76,Mainly Clear
2022,4550,7/8/2012 14:00,24.5,9.6,39,17,48.3,100.72,Mainly Clear
2023,4551,7/8/2012 15:00,24.3,8.5,37,15,48.3,100.72,Mainly Clear
2024,4552,7/8/2012 16:00,24.5,7.7,34,24,48.3,100.72,Mainly Clear
2025,4553,7/8/2012 17:00,24.2,7.8,35,26,48.3,100.7,Mainly Clear
2026,4554,7/8/2012 18:00,23.6,8.3,38,20,48.3,100.69,Mainly Clear
2027,4555,7/8/2012 19:00,22.2,8.5,41,19,48.3,100.72,Mainly Clear
2028,4563,7/9/2012 3:00,13.2,9.0,76,9,25.0,100.88,Mainly Clear
2029,4564,7/9/2012 4:00,13.5,8.9,74,9,25.0,100.91,Mainly Clear
2030,4565,7/9/2012 5:00,12.8,9.4,80,7,24.1,100.98,Mainly Clear
2031,4566,7/9/2012 6:00,16.1,9.6,65,13,48.3,101.07,Mainly Clear
2032,4573,7/9/2012 13:00,23.1,7.9,38,19,48.3,101.04,Mainly Clear
2033,4574,7/9/2012 14:00,24.3,6.5,32,22,48.3,101.01,Mainly Clear
2034,4575,7/9/2012 15:00,24.4,5.3,29,17,48.3,101.0,Mainly Clear
2035,4576,7/9/2012 16:00,24.5,4.7,28,15,48.3,100.99,Mainly Clear
2036,4577,7/9/2012 17:00,24.2,5.3,29,11,48.3,100.98,Mainly Clear
2037,4578,7/9/2012 18:00,23.6,6.9,34,13,48.3,101.0,Mainly Clear
2038,4579,7/9/2012 19:00,22.3,7.2,38,13,48.3,101.01,Mainly Clear
2039,4581,7/9/2012 21:00,19.9,8.1,46,6,25.0,101.05,Mainly Clear
2040,4583,7/9/2012 23:00,16.3,9.6,64,6,25.0,101.05,Mainly Clear
2041,4589,7/10/2012 5:00,16.6,11.7,73,9,48.3,101.15,Mainly Clear
2042,4590,7/10/2012 6:00,17.1,12.3,73,9,48.3,101.19,Mainly Clear
2043,4591,7/10/2012 7:00,19.3,11.8,62,9,48.3,101.22,Mainly Clear
2044,4592,7/10/2012 8:00,20.4,13.7,65,15,48.3,101.22,Mainly Clear
2045,4593,7/10/2012 9:00,22.3,12.9,55,9,48.3,101.24,Mainly Clear
2046,4594,7/10/2012 10:00,23.6,11.6,47,9,48.3,101.23,Mainly Clear
2047,4595,7/10/2012 11:00,25.0,10.7,41,15,48.3,101.21,Mainly Clear
2048,4596,7/10/2012 12:00,25.9,9.4,35,26,48.3,101.15,Mainly Clear
2049,4597,7/10/2012 13:00,25.8,8.5,33,22,48.3,101.14,Mainly Clear
2050,4598,7/10/2012 14:00,27.0,10.7,36,19,48.3,101.11,Mostly Cloudy
2051,4599,7/10/2012 15:00,26.5,11.2,38,19,48.3,101.09,Mainly Clear
2052,4600,7/10/2012 16:00,26.1,10.6,38,13,48.3,101.09,Mostly Cloudy
2053,4601,7/10/2012 17:00,26.5,10.3,36,13,48.3,101.1,Mainly Clear
2054,4602,7/10/2012 18:00,25.6,9.1,35,19,48.3,101.13,Mainly Clear
2055,4603,7/10/2012 19:00,23.9,10.1,42,13,48.3,101.18,Mainly Clear
2056,4605,7/10/2012 21:00,21.9,7.7,40,11,25.0,101.34,Mainly Clear
2057,4618,7/11/2012 10:00,23.9,9.2,39,7,48.3,101.74,Mainly Clear
2058,4619,7/11/2012 11:00,24.9,10.1,39,9,48.3,101.72,Mainly Clear
2059,4620,7/11/2012 12:00,26.4,8.7,33,13,48.3,101.69,Mainly Clear
2060,4621,7/11/2012 13:00,26.7,9.3,33,15,48.3,101.66,Mainly Clear
2061,4622,7/11/2012 14:00,27.4,9.4,32,13,48.3,101.61,Mostly Cloudy
2062,4623,7/11/2012 15:00,27.8,8.9,31,19,48.3,101.59,Mostly Cloudy
2063,4624,7/11/2012 16:00,27.6,8.9,31,20,48.3,101.54,Mostly Cloudy
2064,4625,7/11/2012 17:00,27.5,10.1,34,19,48.3,101.5,Mostly Cloudy
2065,4626,7/11/2012 18:00,27.3,8.0,30,19,48.3,101.48,Mostly Cloudy
2066,4627,7/11/2012 19:00,26.5,8.8,33,13,24.1,101.5,Mostly Cloudy
2067,4628,7/11/2012 20:00,25.6,10.5,39,9,25.0,101.49,Mainly Clear
2068,4629,7/11/2012 21:00,22.5,11.8,51,13,25.0,101.53,Mainly Clear
2069,4630,7/11/2012 22:00,21.8,11.2,51,9,25.0,101.5,Mainly Clear
2070,4636,7/12/2012 4:00,20.3,12.6,61,7,24.1,101.52,Mainly Clear
2071,4637,7/12/2012 5:00,17.7,12.8,73,9,48.3,101.56,Mainly Clear
2072,4638,7/12/2012 6:00,20.2,12.2,60,17,48.3,101.57,Mainly Clear
2073,4639,7/12/2012 7:00,21.6,12.6,57,15,48.3,101.58,Mainly Clear
2074,4640,7/12/2012 8:00,22.6,13.2,55,13,48.3,101.59,Mainly Clear
2075,4641,7/12/2012 9:00,24.2,16.1,61,15,48.3,101.56,Mainly Clear
2076,4642,7/12/2012 10:00,26.0,14.8,50,20,48.3,101.57,Mainly Clear
2077,4643,7/12/2012 11:00,27.6,13.5,42,22,48.3,101.54,Mainly Clear
2078,4644,7/12/2012 12:00,29.0,13.9,40,22,48.3,101.5,Mainly Clear
2079,4645,7/12/2012 13:00,29.6,13.6,38,24,48.3,101.46,Mainly Clear
2080,4646,7/12/2012 14:00,30.8,13.5,35,24,48.3,101.44,Mostly Cloudy
2081,4647,7/12/2012 15:00,30.6,12.9,34,24,48.3,101.38,Mostly Cloudy
2082,4648,7/12/2012 16:00,30.4,13.0,34,24,48.3,101.37,Mostly Cloudy
2083,4649,7/12/2012 17:00,29.8,13.1,36,19,48.3,101.33,Mostly Cloudy
2084,4652,7/12/2012 20:00,26.9,14.6,47,7,25.0,101.36,Mostly Cloudy
2085,4653,7/12/2012 21:00,25.7,15.0,52,6,25.0,101.41,Mainly Clear
2086,4654,7/12/2012 22:00,24.4,17.1,64,9,25.0,101.4,Mainly Clear
2087,4655,7/12/2012 23:00,23.5,16.1,63,11,25.0,101.41,Mainly Clear
2088,4656,7/13/2012 0:00,21.8,16.7,73,6,25.0,101.45,Mainly Clear
2089,4657,7/13/2012 1:00,22.6,15.5,64,7,25.0,101.44,Mainly Clear
2090,4658,7/13/2012 2:00,22.4,14.6,61,9,25.0,101.37,Mainly Clear
2091,4659,7/13/2012 3:00,21.1,14.7,67,11,25.0,101.45,Mainly Clear
2092,4661,7/13/2012 5:00,20.7,14.7,68,15,24.1,101.56,Mainly Clear
2093,4662,7/13/2012 6:00,21.7,15.7,69,15,24.1,101.57,Mainly Clear
2094,4663,7/13/2012 7:00,22.5,15.1,63,15,48.3,101.59,Mostly Cloudy
2095,4664,7/13/2012 8:00,24.4,15.1,56,13,24.1,101.61,Mostly Cloudy
2096,4665,7/13/2012 9:00,25.9,16.5,56,15,48.3,101.6,Mostly Cloudy
2097,4666,7/13/2012 10:00,27.2,17.2,54,15,48.3,101.59,Mostly Cloudy
2098,4667,7/13/2012 11:00,29.0,16.1,46,17,48.3,101.57,Mainly Clear
2099,4668,7/13/2012 12:00,30.1,15.2,40,19,48.3,101.54,Mainly Clear
2100,4669,7/13/2012 13:00,31.2,14.6,37,20,48.3,101.51,Mainly Clear
2101,4670,7/13/2012 14:00,32.1,10.2,26,20,48.3,101.49,Mainly Clear
2102,4673,7/13/2012 17:00,31.4,13.8,34,20,48.3,101.36,Mainly Clear
2103,4675,7/13/2012 19:00,29.9,15.4,41,11,24.1,101.33,Mainly Clear
2104,4676,7/13/2012 20:00,28.5,15.8,46,11,25.0,101.35,Mainly Clear
2105,4677,7/13/2012 21:00,27.4,16.4,51,11,25.0,101.38,Mainly Clear
2106,4685,7/14/2012 5:00,23.0,16.7,68,13,24.1,101.45,Mainly Clear
2107,4686,7/14/2012 6:00,23.4,16.8,66,15,24.1,101.47,Mainly Clear
2108,4687,7/14/2012 7:00,24.3,17.0,64,13,24.1,101.49,Mainly Clear
2109,4688,7/14/2012 8:00,25.7,16.7,58,17,24.1,101.49,Mainly Clear
2110,4689,7/14/2012 9:00,27.3,17.0,53,15,48.3,101.45,Mainly Clear
2111,4690,7/14/2012 10:00,30.2,17.7,47,17,48.3,101.46,Mainly Clear
2112,4691,7/14/2012 11:00,29.6,19.8,56,17,48.3,101.44,Mainly Clear
2113,4692,7/14/2012 12:00,31.7,19.7,49,22,48.3,101.41,Mainly Clear
2114,4693,7/14/2012 13:00,31.9,19.3,47,19,48.3,101.37,Mainly Clear
2115,4694,7/14/2012 14:00,32.7,15.3,35,28,48.3,101.35,Mainly Clear
2116,4695,7/14/2012 15:00,33.0,16.8,38,22,48.3,101.31,Mainly Clear
2117,4696,7/14/2012 16:00,32.9,15.3,35,24,48.3,101.26,Mainly Clear
2118,4697,7/14/2012 17:00,32.5,16.5,38,19,48.3,101.22,Mainly Clear
2119,4698,7/14/2012 18:00,31.5,18.4,46,15,24.1,101.19,Mainly Clear
2120,4699,7/14/2012 19:00,30.8,18.2,47,11,24.1,101.21,Mainly Clear
2121,4700,7/14/2012 20:00,29.8,17.7,48,9,25.0,101.22,Mainly Clear
2122,4706,7/15/2012 2:00,24.5,18.9,71,9,25.0,101.28,Mainly Clear
2123,4708,7/15/2012 4:00,21.6,17.8,79,7,24.1,101.24,Mainly Clear
2124,4709,7/15/2012 5:00,23.2,18.4,74,9,24.1,101.26,Mostly Cloudy
2125,4713,7/15/2012 9:00,26.5,18.8,63,13,24.1,101.21,Mostly Cloudy
2126,4723,7/15/2012 19:00,23.8,21.1,85,20,25.0,100.73,Mostly Cloudy
2127,4724,7/15/2012 20:00,23.2,19.5,80,6,25.0,100.73,Mostly Cloudy
2128,4725,7/15/2012 21:00,23.0,19.0,78,9,25.0,100.72,Mainly Clear
2129,4726,7/15/2012 22:00,22.2,18.9,82,7,25.0,100.67,Mainly Clear
2130,4727,7/15/2012 23:00,21.8,19.1,85,6,25.0,100.67,Mainly Clear
2131,4728,7/16/2012 0:00,21.2,19.0,87,6,25.0,100.64,Mostly Cloudy
2132,4732,7/16/2012 4:00,20.4,19.2,93,0,19.3,100.52,Mostly Cloudy
2133,4734,7/16/2012 6:00,21.8,19.8,88,6,19.3,100.55,Mainly Clear
2134,4735,7/16/2012 7:00,23.0,19.8,82,6,24.1,100.57,Mostly Cloudy
2135,4736,7/16/2012 8:00,24.5,20.8,80,7,24.1,100.57,Mostly Cloudy
2136,4737,7/16/2012 9:00,25.7,20.8,74,9,24.1,100.56,Mostly Cloudy
2137,4738,7/16/2012 10:00,26.8,20.9,70,9,24.1,100.55,Mostly Cloudy
2138,4739,7/16/2012 11:00,27.4,20.4,66,13,24.1,100.54,Mostly Cloudy
2139,4740,7/16/2012 12:00,27.4,20.3,65,11,24.1,100.52,Mostly Cloudy
2140,4741,7/16/2012 13:00,28.1,19.9,61,15,24.1,100.45,Mostly Cloudy
2141,4744,7/16/2012 16:00,28.8,17.5,50,15,24.1,100.35,Mostly Cloudy
2142,4745,7/16/2012 17:00,28.7,16.1,46,19,24.1,100.35,Mostly Cloudy
2143,4746,7/16/2012 18:00,27.6,16.6,51,15,24.1,100.35,Mostly Cloudy
2144,4747,7/16/2012 19:00,26.5,17.2,57,4,24.1,100.32,Mostly Cloudy
2145,4748,7/16/2012 20:00,24.3,17.9,67,7,24.1,100.3,Mostly Cloudy
2146,4750,7/16/2012 22:00,24.2,17.7,67,9,25.0,100.38,Mostly Cloudy
2147,4753,7/17/2012 1:00,24.4,17.0,63,6,25.0,100.28,Mostly Cloudy
2148,4762,7/17/2012 10:00,24.7,20.8,79,19,16.1,99.79,Mostly Cloudy
2149,4763,7/17/2012 11:00,27.2,20.4,66,22,16.1,99.75,Mainly Clear
2150,4770,7/17/2012 18:00,26.0,20.4,71,19,24.1,99.84,Mostly Cloudy
2151,4771,7/17/2012 19:00,24.3,18.9,72,19,24.1,99.94,Mostly Cloudy
2152,4772,7/17/2012 20:00,23.2,18.6,75,11,24.1,100.0,Mostly Cloudy
2153,4773,7/17/2012 21:00,23.0,18.5,76,9,25.0,100.09,Mostly Cloudy
2154,4774,7/17/2012 22:00,22.4,18.3,78,9,25.0,100.19,Mostly Cloudy
2155,4775,7/17/2012 23:00,21.6,18.1,80,13,25.0,100.25,Mostly Cloudy
2156,4776,7/18/2012 0:00,20.7,17.6,82,9,25.0,100.28,Mostly Cloudy
2157,4778,7/18/2012 2:00,19.9,17.6,87,7,25.0,100.35,Mostly Cloudy
2158,4780,7/18/2012 4:00,19.0,16.6,86,6,24.1,100.38,Mainly Clear
2159,4781,7/18/2012 5:00,18.8,16.7,88,0,48.3,100.44,Mainly Clear
2160,4782,7/18/2012 6:00,20.0,17.2,84,6,24.1,100.56,Mostly Cloudy
2161,4783,7/18/2012 7:00,20.5,16.6,78,11,24.1,100.6,Mostly Cloudy
2162,4784,7/18/2012 8:00,21.1,14.4,66,22,24.1,100.66,Mainly Clear
2163,4785,7/18/2012 9:00,22.6,13.1,55,24,24.1,100.73,Mainly Clear
2164,4786,7/18/2012 10:00,22.3,10.3,47,26,24.1,100.77,Mainly Clear
2165,4787,7/18/2012 11:00,22.6,10.9,48,24,48.3,100.8,Mainly Clear
2166,4788,7/18/2012 12:00,23.2,10.2,44,24,48.3,100.8,Mainly Clear
2167,4789,7/18/2012 13:00,23.9,10.6,43,24,48.3,100.83,Mostly Cloudy
2168,4790,7/18/2012 14:00,23.3,10.2,43,19,48.3,100.87,Mostly Cloudy
2169,4791,7/18/2012 15:00,24.0,10.1,41,26,48.3,100.83,Mainly Clear
2170,4792,7/18/2012 16:00,24.1,9.6,40,24,48.3,100.77,Mainly Clear
2171,4793,7/18/2012 17:00,23.5,9.8,42,15,48.3,100.78,Mainly Clear
2172,4794,7/18/2012 18:00,22.6,10.9,48,17,48.3,100.88,Mainly Clear
2173,4795,7/18/2012 19:00,21.5,10.7,50,17,48.3,100.98,Mainly Clear
2174,4796,7/18/2012 20:00,20.0,10.2,53,13,24.1,101.03,Mainly Clear
2175,4804,7/19/2012 4:00,12.4,10.4,88,6,25.0,101.11,Mainly Clear
2176,4805,7/19/2012 5:00,12.7,10.5,86,0,48.3,101.2,Mainly Clear
2177,4806,7/19/2012 6:00,15.2,11.0,76,6,48.3,101.25,Mainly Clear
2178,4808,7/19/2012 8:00,18.4,9.4,56,6,48.3,101.28,Mainly Clear
2179,4809,7/19/2012 9:00,19.3,9.7,54,6,48.3,101.29,Mainly Clear
2180,4810,7/19/2012 10:00,19.2,8.9,51,9,48.3,101.3,Mostly Cloudy
2181,4811,7/19/2012 11:00,20.3,10.2,52,7,48.3,101.33,Mostly Cloudy
2182,4812,7/19/2012 12:00,21.5,10.0,48,6,48.3,101.29,Mostly Cloudy
2183,4813,7/19/2012 13:00,21.3,8.8,45,7,48.3,101.27,Mostly Cloudy
2184,4814,7/19/2012 14:00,22.6,9.0,42,4,48.3,101.22,Mostly Cloudy
2185,4815,7/19/2012 15:00,22.9,9.0,41,13,48.3,101.21,Mostly Cloudy
2186,4816,7/19/2012 16:00,22.8,7.9,38,11,48.3,101.21,Mainly Clear
2187,4817,7/19/2012 17:00,22.9,8.2,39,15,48.3,101.21,Mainly Clear
2188,4818,7/19/2012 18:00,21.9,8.0,41,15,48.3,101.2,Mainly Clear
2189,4819,7/19/2012 19:00,21.4,8.5,44,11,48.3,101.25,Mainly Clear
2190,4820,7/19/2012 20:00,20.0,8.5,47,7,48.3,101.28,Mainly Clear
2191,4821,7/19/2012 21:00,19.2,9.2,52,13,25.0,101.34,Mainly Clear
2192,4822,7/19/2012 22:00,18.7,9.9,57,11,25.0,101.39,Mainly Clear
2193,4823,7/19/2012 23:00,19.5,8.1,48,15,25.0,101.41,Mainly Clear
2194,4830,7/20/2012 6:00,15.5,9.6,68,13,48.3,101.55,Mainly Clear
2195,4831,7/20/2012 7:00,17.1,9.9,63,9,48.3,101.56,Mainly Clear
2196,4832,7/20/2012 8:00,19.3,10.1,55,9,48.3,101.57,Mainly Clear
2197,4833,7/20/2012 9:00,20.3,9.7,51,11,48.3,101.58,Mainly Clear
2198,4834,7/20/2012 10:00,21.3,10.8,51,13,48.3,101.57,Mainly Clear
2199,4835,7/20/2012 11:00,21.3,10.7,51,9,48.3,101.57,Mainly Clear
2200,4836,7/20/2012 12:00,22.6,9.5,43,6,48.3,101.51,Mainly Clear
2201,4837,7/20/2012 13:00,23.2,10.4,44,9,48.3,101.45,Mainly Clear
2202,4838,7/20/2012 14:00,23.9,10.0,41,13,48.3,101.42,Mainly Clear
2203,4839,7/20/2012 15:00,24.2,9.9,40,4,48.3,101.37,Mainly Clear
2204,4840,7/20/2012 16:00,24.4,9.7,39,11,48.3,101.34,Mainly Clear
2205,4841,7/20/2012 17:00,24.2,9.8,40,4,48.3,101.34,Mainly Clear
2206,4842,7/20/2012 18:00,24.6,9.6,39,4,48.3,101.35,Mainly Clear
2207,4843,7/20/2012 19:00,23.5,7.6,36,7,48.3,101.33,Mainly Clear
2208,4844,7/20/2012 20:00,22.2,9.5,44,6,48.3,101.34,Mainly Clear
2209,4856,7/21/2012 8:00,21.1,14.2,65,0,48.3,101.47,Mainly Clear
2210,4857,7/21/2012 9:00,22.3,14.5,61,7,48.3,101.44,Mainly Clear
2211,4858,7/21/2012 10:00,23.2,14.1,57,9,48.3,101.4,Mainly Clear
2212,4859,7/21/2012 11:00,24.7,13.7,50,9,48.3,101.39,Mainly Clear
2213,4860,7/21/2012 12:00,24.9,12.3,45,6,48.3,101.36,Mainly Clear
2214,4861,7/21/2012 13:00,25.5,12.1,43,11,48.3,101.3,Mainly Clear
2215,4862,7/21/2012 14:00,26.2,13.5,45,17,48.3,101.26,Mostly Cloudy
2216,4863,7/21/2012 15:00,26.3,12.3,42,17,48.3,101.22,Mostly Cloudy
2217,4864,7/21/2012 16:00,26.2,13.1,44,15,48.3,101.19,Mostly Cloudy
2218,4865,7/21/2012 17:00,26.9,12.1,40,15,48.3,101.13,Mainly Clear
2219,4866,7/21/2012 18:00,26.1,10.8,38,15,48.3,101.11,Mainly Clear
2220,4867,7/21/2012 19:00,25.4,11.7,42,13,24.1,101.06,Mostly Cloudy
2221,4868,7/21/2012 20:00,24.6,13.5,50,13,25.0,101.08,Mostly Cloudy
2222,4869,7/21/2012 21:00,23.4,12.9,52,4,25.0,101.18,Mostly Cloudy
2223,4870,7/21/2012 22:00,23.0,15.3,62,4,25.0,101.19,Mostly Cloudy
2224,4873,7/22/2012 1:00,22.5,15.4,64,13,25.0,101.17,Mostly Cloudy
2225,4874,7/22/2012 2:00,22.4,15.9,67,15,25.0,101.13,Mostly Cloudy
2226,4875,7/22/2012 3:00,22.4,14.8,62,15,25.0,101.12,Mostly Cloudy
2227,4876,7/22/2012 4:00,21.9,15.3,66,15,25.0,101.15,Mainly Clear
2228,4877,7/22/2012 5:00,21.8,14.8,64,15,48.3,101.18,Mostly Cloudy
2229,4878,7/22/2012 6:00,22.2,15.1,64,17,48.3,101.22,Mainly Clear
2230,4879,7/22/2012 7:00,22.5,15.6,65,19,48.3,101.24,Mostly Cloudy
2231,4880,7/22/2012 8:00,23.3,17.2,69,19,48.3,101.26,Mainly Clear
2232,4881,7/22/2012 9:00,25.2,17.9,64,26,48.3,101.23,Mainly Clear
2233,4882,7/22/2012 10:00,25.7,18.5,64,22,48.3,101.2,Mainly Clear
2234,4883,7/22/2012 11:00,26.8,18.6,61,24,48.3,101.16,Mainly Clear
2235,4884,7/22/2012 12:00,27.8,18.3,56,22,48.3,101.15,Mainly Clear
2236,4885,7/22/2012 13:00,28.3,18.8,56,20,48.3,101.11,Mainly Clear
2237,4886,7/22/2012 14:00,28.3,18.5,55,20,48.3,101.09,Mostly Cloudy
2238,4887,7/22/2012 15:00,30.1,19.2,52,20,48.3,101.06,Mostly Cloudy
2239,4888,7/22/2012 16:00,29.9,17.8,48,24,48.3,101.02,Mostly Cloudy
2240,4889,7/22/2012 17:00,29.1,17.9,51,17,24.1,101.02,Mostly Cloudy
2241,4890,7/22/2012 18:00,29.2,16.9,47,20,48.3,100.99,Mostly Cloudy
2242,4891,7/22/2012 19:00,28.6,16.1,47,20,24.1,100.99,Mostly Cloudy
2243,4892,7/22/2012 20:00,27.3,17.5,55,13,25.0,101.05,Mainly Clear
2244,4893,7/22/2012 21:00,26.9,17.0,55,15,25.0,101.07,Mostly Cloudy
2245,4895,7/22/2012 23:00,25.0,17.8,64,9,25.0,101.03,Mainly Clear
2246,4896,7/23/2012 0:00,24.3,17.7,67,11,25.0,101.01,Mainly Clear
2247,4897,7/23/2012 1:00,24.3,17.6,66,11,25.0,101.0,Mainly Clear
2248,4898,7/23/2012 2:00,23.8,17.8,69,9,25.0,100.98,Mostly Cloudy
2249,4899,7/23/2012 3:00,23.4,18.0,72,9,25.0,100.97,Mainly Clear
2250,4900,7/23/2012 4:00,23.0,18.1,74,11,24.1,100.94,Mostly Cloudy
2251,4905,7/23/2012 9:00,26.3,19.8,67,19,48.3,100.76,Mainly Clear
2252,4906,7/23/2012 10:00,27.6,20.9,67,20,48.3,100.7,Mainly Clear
2253,4907,7/23/2012 11:00,27.8,20.7,65,15,48.3,100.64,Mainly Clear
2254,4908,7/23/2012 12:00,28.8,20.3,60,13,48.3,100.57,Mainly Clear
2255,4909,7/23/2012 13:00,30.1,20.4,56,11,48.3,100.46,Mainly Clear
2256,4910,7/23/2012 14:00,30.7,19.7,52,17,48.3,100.35,Mostly Cloudy
2257,4921,7/24/2012 1:00,19.4,18.3,93,11,25.0,99.76,Mostly Cloudy
2258,4923,7/24/2012 3:00,18.2,17.9,98,4,25.0,99.73,Mainly Clear
2259,4924,7/24/2012 4:00,18.9,18.5,98,7,16.1,99.75,Mostly Cloudy
2260,4925,7/24/2012 5:00,19.5,18.6,95,6,24.1,99.78,Mostly Cloudy
2261,4926,7/24/2012 6:00,20.5,18.9,91,7,24.1,99.8,Mainly Clear
2262,4927,7/24/2012 7:00,21.6,19.3,87,13,24.1,99.85,Mainly Clear
2263,4928,7/24/2012 8:00,22.7,19.2,81,13,24.1,99.89,Mainly Clear
2264,4929,7/24/2012 9:00,23.5,17.8,70,19,24.1,99.93,Mostly Cloudy
2265,4930,7/24/2012 10:00,24.0,16.2,62,19,24.1,99.95,Mostly Cloudy
2266,4932,7/24/2012 12:00,23.5,16.9,66,22,24.1,99.98,Mostly Cloudy
2267,4933,7/24/2012 13:00,23.8,14.6,56,30,24.1,100.04,Mainly Clear
2268,4934,7/24/2012 14:00,24.5,12.2,46,28,48.3,100.11,Mostly Cloudy
2269,4935,7/24/2012 15:00,23.0,10.4,45,24,48.3,100.14,Mostly Cloudy
2270,4936,7/24/2012 16:00,23.8,11.7,47,20,48.3,100.15,Mostly Cloudy
2271,4937,7/24/2012 17:00,23.0,11.5,48,24,48.3,100.19,Mostly Cloudy
2272,4938,7/24/2012 18:00,22.1,11.8,52,15,24.1,100.25,Mostly Cloudy
2273,4939,7/24/2012 19:00,21.4,11.5,53,15,25.0,100.29,Mostly Cloudy
2274,4940,7/24/2012 20:00,20.7,12.2,58,17,25.0,100.34,Mostly Cloudy
2275,4941,7/24/2012 21:00,19.6,12.2,62,17,25.0,100.41,Mostly Cloudy
2276,4942,7/24/2012 22:00,19.0,12.3,65,19,25.0,100.45,Mainly Clear
2277,4955,7/25/2012 11:00,22.3,13.5,57,13,48.3,100.76,Mainly Clear
2278,4956,7/25/2012 12:00,23.2,12.7,52,9,48.3,100.76,Mainly Clear
2279,4957,7/25/2012 13:00,23.4,13.1,52,19,48.3,100.66,Mostly Cloudy
2280,4958,7/25/2012 14:00,23.6,13.6,53,22,48.3,100.61,Mostly Cloudy
2281,4959,7/25/2012 15:00,24.8,13.6,50,19,48.3,100.58,Mostly Cloudy
2282,4969,7/26/2012 1:00,20.4,13.9,66,13,25.0,100.18,Mostly Cloudy
2283,4970,7/26/2012 2:00,20.3,13.8,66,11,25.0,100.12,Mostly Cloudy
2284,4979,7/26/2012 11:00,21.9,17.5,76,7,24.1,99.93,Mostly Cloudy
2285,4988,7/26/2012 20:00,20.5,17.6,83,4,24.1,99.94,Mostly Cloudy
2286,4989,7/26/2012 21:00,20.3,17.5,84,4,25.0,99.97,Mostly Cloudy
2287,4990,7/26/2012 22:00,18.8,17.5,92,0,25.0,99.94,Mainly Clear
2288,4991,7/26/2012 23:00,18.6,17.5,93,0,25.0,99.99,Mostly Cloudy
2289,4992,7/27/2012 0:00,18.1,17.2,94,0,25.0,100.01,Mainly Clear
2290,4993,7/27/2012 1:00,17.2,16.5,96,0,25.0,100.05,Mostly Cloudy
2291,4994,7/27/2012 2:00,16.9,16.3,96,4,25.0,100.08,Mainly Clear
2292,4995,7/27/2012 3:00,15.9,15.3,96,4,25.0,100.1,Mostly Cloudy
2293,4996,7/27/2012 4:00,17.5,16.2,92,0,25.0,100.19,Mainly Clear
2294,4997,7/27/2012 5:00,16.2,15.6,96,7,24.1,100.33,Mostly Cloudy
2295,4998,7/27/2012 6:00,18.4,15.3,82,17,24.1,100.34,Mostly Cloudy
2296,4999,7/27/2012 7:00,19.0,14.3,74,24,24.1,100.44,Mostly Cloudy
2297,5000,7/27/2012 8:00,20.2,14.3,69,13,24.1,100.46,Mostly Cloudy
2298,5001,7/27/2012 9:00,21.1,14.5,66,7,24.1,100.51,Mostly Cloudy
2299,5002,7/27/2012 10:00,22.0,15.3,66,6,24.1,100.53,Mainly Clear
2300,5003,7/27/2012 11:00,23.4,16.5,65,4,24.1,100.55,Mainly Clear
2301,5004,7/27/2012 12:00,24.1,15.6,59,6,24.1,100.56,Mainly Clear
2302,5005,7/27/2012 13:00,24.8,16.1,58,0,24.1,100.55,Mainly Clear
2303,5006,7/27/2012 14:00,26.6,16.8,55,0,24.1,100.57,Mainly Clear
2304,5007,7/27/2012 15:00,26.1,17.0,57,11,24.1,100.6,Mostly Cloudy
2305,5008,7/27/2012 16:00,25.6,16.0,55,6,24.1,100.63,Mostly Cloudy
2306,5009,7/27/2012 17:00,25.8,15.8,54,6,24.1,100.66,Mostly Cloudy
2307,5010,7/27/2012 18:00,26.1,15.2,51,7,24.1,100.71,Mostly Cloudy
2308,5011,7/27/2012 19:00,23.7,17.0,66,4,24.1,100.74,Mainly Clear
2309,5012,7/27/2012 20:00,22.5,16.6,69,6,24.1,100.8,Mainly Clear
2310,5013,7/27/2012 21:00,21.4,16.6,74,4,25.0,100.86,Mainly Clear
2311,5014,7/27/2012 22:00,21.3,16.0,72,0,25.0,100.88,Mainly Clear
2312,5015,7/27/2012 23:00,21.1,16.7,76,0,25.0,100.92,Mostly Cloudy
2313,5016,7/28/2012 0:00,22.8,16.8,69,9,25.0,100.95,Mostly Cloudy
2314,5017,7/28/2012 1:00,22.3,11.4,50,4,25.0,101.01,Mainly Clear
2315,5018,7/28/2012 2:00,20.8,11.9,57,13,25.0,101.06,Mostly Cloudy
2316,5019,7/28/2012 3:00,18.7,14.3,76,11,25.0,101.09,Mostly Cloudy
2317,5020,7/28/2012 4:00,17.6,12.1,70,13,25.0,101.14,Mostly Cloudy
2318,5021,7/28/2012 5:00,17.4,11.2,67,15,48.3,101.18,Mostly Cloudy
2319,5022,7/28/2012 6:00,18.1,11.5,65,17,48.3,101.2,Mostly Cloudy
2320,5023,7/28/2012 7:00,19.5,11.1,58,15,48.3,101.22,Mostly Cloudy
2321,5024,7/28/2012 8:00,20.3,11.5,57,17,48.3,101.25,Mostly Cloudy
2322,5025,7/28/2012 9:00,20.7,12.3,59,19,48.3,101.25,Mostly Cloudy
2323,5026,7/28/2012 10:00,21.6,12.8,57,15,48.3,101.29,Mostly Cloudy
2324,5030,7/28/2012 14:00,26.4,11.1,38,13,48.3,101.13,Mostly Cloudy
2325,5031,7/28/2012 15:00,26.7,11.2,38,22,48.3,101.12,Mostly Cloudy
2326,5032,7/28/2012 16:00,25.8,11.9,42,17,48.3,101.1,Mostly Cloudy
2327,5033,7/28/2012 17:00,26.2,10.6,38,17,48.3,101.1,Mostly Cloudy
2328,5034,7/28/2012 18:00,26.2,10.3,37,15,48.3,101.15,Mostly Cloudy
2329,5035,7/28/2012 19:00,25.6,10.2,38,13,48.3,101.15,Mostly Cloudy
2330,5036,7/28/2012 20:00,24.6,10.8,42,9,24.1,101.14,Mostly Cloudy
2331,5037,7/28/2012 21:00,22.8,11.8,50,4,25.0,101.14,Mainly Clear
2332,5038,7/28/2012 22:00,19.5,13.1,66,7,25.0,101.16,Mainly Clear
2333,5039,7/28/2012 23:00,18.9,13.8,72,9,25.0,101.18,Mainly Clear
2334,5043,7/29/2012 3:00,17.1,10.8,66,15,25.0,101.14,Mainly Clear
2335,5044,7/29/2012 4:00,16.8,10.7,67,13,25.0,101.15,Mainly Clear
2336,5045,7/29/2012 5:00,16.6,10.8,69,13,48.3,101.23,Mainly Clear
2337,5046,7/29/2012 6:00,17.6,11.2,66,15,48.3,101.27,Mainly Clear
2338,5047,7/29/2012 7:00,19.2,12.3,64,15,24.1,101.29,Mainly Clear
2339,5048,7/29/2012 8:00,20.5,13.3,63,13,24.1,101.31,Mainly Clear
2340,5049,7/29/2012 9:00,22.2,14.8,63,9,48.3,101.3,Mainly Clear
2341,5050,7/29/2012 10:00,24.0,16.9,65,7,48.3,101.28,Mainly Clear
2342,5051,7/29/2012 11:00,24.7,16.7,61,11,48.3,101.26,Mainly Clear
2343,5052,7/29/2012 12:00,26.6,17.5,57,6,48.3,101.21,Mainly Clear
2344,5053,7/29/2012 13:00,26.6,17.5,57,9,48.3,101.17,Mainly Clear
2345,5054,7/29/2012 14:00,27.3,17.4,55,4,48.3,101.12,Mainly Clear
2346,5055,7/29/2012 15:00,27.8,17.7,54,11,48.3,101.09,Mainly Clear
2347,5056,7/29/2012 16:00,27.5,17.5,54,0,48.3,101.06,Mainly Clear
2348,5057,7/29/2012 17:00,27.0,16.9,54,7,48.3,101.03,Mainly Clear
2349,5058,7/29/2012 18:00,26.8,16.9,55,6,48.3,101.05,Mainly Clear
2350,5059,7/29/2012 19:00,26.5,17.4,57,6,48.3,101.08,Mostly Cloudy
2351,5060,7/29/2012 20:00,25.8,17.3,59,9,24.1,101.12,Mostly Cloudy
2352,5061,7/29/2012 21:00,25.3,18.3,65,11,25.0,101.15,Mainly Clear
2353,5062,7/29/2012 22:00,22.5,19.5,83,4,25.0,101.16,Mainly Clear
2354,5064,7/30/2012 0:00,21.9,17.6,77,0,25.0,101.17,Mainly Clear
2355,5065,7/30/2012 1:00,19.7,17.2,85,6,25.0,101.16,Mainly Clear
2356,5068,7/30/2012 4:00,19.0,15.6,81,6,25.0,101.22,Mainly Clear
2357,5069,7/30/2012 5:00,17.9,16.7,93,0,24.1,101.27,Mainly Clear
2358,5070,7/30/2012 6:00,20.5,16.9,80,6,24.1,101.28,Mainly Clear
2359,5071,7/30/2012 7:00,21.6,17.2,76,6,48.3,101.31,Mainly Clear
2360,5073,7/30/2012 9:00,24.1,16.9,64,7,48.3,101.31,Mainly Clear
2361,5074,7/30/2012 10:00,25.0,15.8,57,15,48.3,101.29,Mainly Clear
2362,5075,7/30/2012 11:00,26.0,15.0,51,15,48.3,101.27,Mainly Clear
2363,5076,7/30/2012 12:00,27.2,15.8,50,19,48.3,101.22,Mainly Clear
2364,5077,7/30/2012 13:00,28.5,15.5,45,15,48.3,101.17,Mostly Cloudy
2365,5082,7/30/2012 18:00,28.2,15.4,46,13,48.3,101.01,Mainly Clear
2366,5083,7/30/2012 19:00,26.9,16.4,53,11,48.3,101.01,Mainly Clear
2367,5084,7/30/2012 20:00,25.2,16.5,59,7,48.3,101.01,Mainly Clear
2368,5087,7/30/2012 23:00,22.9,17.7,73,6,25.0,101.02,Mainly Clear
2369,5088,7/31/2012 0:00,22.2,19.0,82,6,25.0,101.03,Mainly Clear
2370,5089,7/31/2012 1:00,21.3,18.0,81,9,25.0,101.03,Mainly Clear
2371,5090,7/31/2012 2:00,21.5,16.6,74,13,25.0,101.02,Mainly Clear
2372,5092,7/31/2012 4:00,19.4,15.8,80,9,25.0,101.03,Mainly Clear
2373,5093,7/31/2012 5:00,19.8,17.1,84,11,25.0,101.04,Mainly Clear
2374,5094,7/31/2012 6:00,21.1,17.7,81,7,48.3,101.05,Mainly Clear
2375,5097,7/31/2012 9:00,25.9,19.5,68,7,24.1,100.98,Mainly Clear
2376,5098,7/31/2012 10:00,27.3,19.8,64,11,24.1,100.97,Mainly Clear
2377,5099,7/31/2012 11:00,28.4,20.8,63,13,24.1,100.93,Mainly Clear
2378,5100,7/31/2012 12:00,28.9,20.7,61,19,24.1,100.87,Mainly Clear
2379,5101,7/31/2012 13:00,28.7,19.2,56,19,24.1,100.79,Mainly Clear
2380,5102,7/31/2012 14:00,28.8,18.4,53,20,24.1,100.7,Mainly Clear
2381,5103,7/31/2012 15:00,28.8,18.4,53,19,24.1,100.64,Mainly Clear
2382,5104,7/31/2012 16:00,28.8,19.1,56,22,24.1,100.58,Mostly Cloudy
2383,5105,7/31/2012 17:00,28.0,17.7,54,20,24.1,100.55,Mostly Cloudy
2384,5106,7/31/2012 18:00,25.3,19.3,69,17,24.1,100.53,Mostly Cloudy
2385,5110,7/31/2012 22:00,22.8,19.4,81,7,25.0,100.57,Mostly Cloudy
2386,5111,7/31/2012 23:00,21.8,19.2,85,4,25.0,100.52,Mainly Clear
2387,5112,8/1/2012 0:00,21.0,19.8,93,0,25.0,100.53,Mainly Clear
2388,5114,8/1/2012 2:00,21.3,19.1,87,9,25.0,100.55,Mostly Cloudy
2389,5116,8/1/2012 4:00,20.8,18.7,88,6,25.0,100.57,Mostly Cloudy
2390,5122,8/1/2012 10:00,24.1,19.4,75,13,24.1,100.6,Mostly Cloudy
2391,5123,8/1/2012 11:00,24.1,18.0,69,17,24.1,100.6,Mostly Cloudy
2392,5124,8/1/2012 12:00,25.2,18.6,67,13,24.1,100.56,Mainly Clear
2393,5125,8/1/2012 13:00,25.7,18.2,63,15,24.1,100.51,Mainly Clear
2394,5126,8/1/2012 14:00,26.9,19.2,63,15,24.1,100.48,Mainly Clear
2395,5127,8/1/2012 15:00,27.3,18.6,59,13,24.1,100.46,Mainly Clear
2396,5128,8/1/2012 16:00,27.8,18.7,58,9,24.1,100.4,Mainly Clear
2397,5129,8/1/2012 17:00,27.4,19.0,60,13,24.1,100.38,Mainly Clear
2398,5130,8/1/2012 18:00,27.0,18.9,61,15,24.1,100.39,Mainly Clear
2399,5131,8/1/2012 19:00,26.3,19.2,65,13,24.1,100.46,Mostly Cloudy
2400,5132,8/1/2012 20:00,25.7,19.1,67,15,25.0,100.48,Mostly Cloudy
2401,5133,8/1/2012 21:00,23.1,20.3,84,6,25.0,100.49,Mainly Clear
2402,5134,8/1/2012 22:00,24.2,20.3,79,7,25.0,100.52,Mainly Clear
2403,5135,8/1/2012 23:00,23.9,19.8,78,6,25.0,100.5,Mainly Clear
2404,5136,8/2/2012 0:00,23.9,19.8,78,7,25.0,100.51,Mostly Cloudy
2405,5137,8/2/2012 1:00,22.6,19.6,83,7,25.0,100.48,Mainly Clear
2406,5138,8/2/2012 2:00,21.8,19.6,87,9,25.0,100.49,Mainly Clear
2407,5139,8/2/2012 3:00,22.2,20.1,88,11,25.0,100.47,Mainly Clear
2408,5140,8/2/2012 4:00,21.5,19.6,89,11,25.0,100.51,Mainly Clear
2409,5143,8/2/2012 7:00,22.5,20.1,86,13,48.3,100.6,Mainly Clear
2410,5144,8/2/2012 8:00,23.9,19.9,78,11,48.3,100.61,Mainly Clear
2411,5145,8/2/2012 9:00,24.5,19.8,75,17,48.3,100.63,Mainly Clear
2412,5146,8/2/2012 10:00,25.8,19.5,68,11,24.1,100.6,Mainly Clear
2413,5147,8/2/2012 11:00,27.3,20.1,65,17,24.1,100.56,Mainly Clear
2414,5148,8/2/2012 12:00,27.4,18.5,58,13,24.1,100.56,Mainly Clear
2415,5149,8/2/2012 13:00,29.1,18.0,51,20,24.1,100.5,Mainly Clear
2416,5150,8/2/2012 14:00,29.6,18.8,52,13,24.1,100.44,Mainly Clear
2417,5151,8/2/2012 15:00,29.8,18.9,52,19,24.1,100.43,Mostly Cloudy
2418,5152,8/2/2012 16:00,30.0,17.8,48,22,24.1,100.4,Mostly Cloudy
2419,5153,8/2/2012 17:00,29.9,16.1,43,20,24.1,100.41,Mostly Cloudy
2420,5154,8/2/2012 18:00,28.4,16.3,48,15,24.1,100.42,Mostly Cloudy
2421,5155,8/2/2012 19:00,27.7,14.8,45,15,24.1,100.44,Mostly Cloudy
2422,5159,8/2/2012 23:00,25.0,17.1,62,24,25.0,100.5,Mostly Cloudy
2423,5160,8/3/2012 0:00,24.4,16.9,63,17,25.0,100.5,Mainly Clear
2424,5161,8/3/2012 1:00,24.1,16.9,64,13,25.0,100.5,Mainly Clear
2425,5162,8/3/2012 2:00,23.5,17.3,68,13,25.0,100.52,Mostly Cloudy
2426,5163,8/3/2012 3:00,23.4,18.0,72,15,25.0,100.54,Mostly Cloudy
2427,5165,8/3/2012 5:00,22.3,17.9,76,11,24.1,100.68,Mainly Clear
2428,5166,8/3/2012 6:00,22.5,18.3,77,13,24.1,100.74,Mainly Clear
2429,5167,8/3/2012 7:00,23.2,18.5,75,17,24.1,100.81,Mainly Clear
2430,5169,8/3/2012 9:00,25.6,17.8,62,15,24.1,100.91,Mainly Clear
2431,5170,8/3/2012 10:00,26.0,17.7,60,11,24.1,100.95,Mainly Clear
2432,5171,8/3/2012 11:00,27.1,17.3,55,13,24.1,100.99,Mainly Clear
2433,5172,8/3/2012 12:00,27.1,16.7,53,17,24.1,101.03,Mainly Clear
2434,5173,8/3/2012 13:00,28.2,16.6,49,19,24.1,101.07,Mainly Clear
2435,5174,8/3/2012 14:00,27.6,15.6,48,24,24.1,101.1,Mainly Clear
2436,5175,8/3/2012 15:00,29.2,16.7,47,17,24.1,101.11,Mainly Clear
2437,5176,8/3/2012 16:00,28.9,15.9,45,20,24.1,101.1,Mainly Clear
2438,5185,8/4/2012 1:00,22.3,15.2,64,9,25.0,101.55,Mostly Cloudy
2439,5186,8/4/2012 2:00,22.0,15.0,64,7,25.0,101.59,Mostly Cloudy
2440,5187,8/4/2012 3:00,21.8,14.8,64,6,25.0,101.61,Mostly Cloudy
2441,5190,8/4/2012 6:00,20.2,16.0,77,9,48.3,101.67,Mostly Cloudy
2442,5191,8/4/2012 7:00,21.8,15.3,67,17,48.3,101.75,Mainly Clear
2443,5192,8/4/2012 8:00,23.1,15.6,63,13,48.3,101.75,Mainly Clear
2444,5193,8/4/2012 9:00,24.7,16.4,60,15,24.1,101.73,Mainly Clear
2445,5194,8/4/2012 10:00,27.2,17.2,54,13,24.1,101.72,Mainly Clear
2446,5202,8/4/2012 18:00,32.2,20.1,49,13,24.1,101.29,Mostly Cloudy
2447,5203,8/4/2012 19:00,30.8,19.2,50,20,24.1,101.23,Mainly Clear
2448,5205,8/4/2012 21:00,27.5,18.4,58,17,25.0,101.3,Mainly Clear
2449,5206,8/4/2012 22:00,26.5,18.2,60,13,25.0,101.28,Mainly Clear
2450,5211,8/5/2012 3:00,24.4,19.3,73,22,25.0,101.06,Mainly Clear
2451,5212,8/5/2012 4:00,24.3,19.6,75,19,25.0,101.04,Mainly Clear
2452,5213,8/5/2012 5:00,24.1,19.8,77,22,24.1,101.02,Mostly Cloudy
2453,5217,8/5/2012 9:00,26.9,21.3,71,24,19.3,100.72,Mostly Cloudy
2454,5219,8/5/2012 11:00,27.9,23.2,76,24,24.1,100.63,Mostly Cloudy
2455,5220,8/5/2012 12:00,29.7,22.2,64,19,24.1,100.5,Mostly Cloudy
2456,5223,8/5/2012 15:00,29.0,24.4,76,13,24.1,100.31,Mostly Cloudy
2457,5224,8/5/2012 16:00,31.1,22.0,58,28,24.1,100.26,Mostly Cloudy
2458,5229,8/5/2012 21:00,23.9,21.2,85,32,25.0,100.43,Mainly Clear
2459,5230,8/5/2012 22:00,23.9,20.0,79,26,25.0,100.5,Mainly Clear
2460,5233,8/6/2012 1:00,20.7,14.3,67,24,25.0,100.7,Mainly Clear
2461,5239,8/6/2012 7:00,19.0,14.0,73,17,48.3,101.06,Mainly Clear
2462,5240,8/6/2012 8:00,19.7,13.6,68,17,48.3,101.09,Mainly Clear
2463,5241,8/6/2012 9:00,20.0,13.3,65,20,48.3,101.11,Mostly Cloudy
2464,5242,8/6/2012 10:00,20.8,13.2,62,22,48.3,101.13,Mostly Cloudy
2465,5243,8/6/2012 11:00,22.1,13.6,59,28,48.3,101.15,Mainly Clear
2466,5244,8/6/2012 12:00,21.9,13.0,57,24,48.3,101.17,Mostly Cloudy
2467,5245,8/6/2012 13:00,21.4,13.7,61,13,48.3,101.18,Mostly Cloudy
2468,5246,8/6/2012 14:00,22.5,13.0,55,13,48.3,101.15,Mostly Cloudy
2469,5247,8/6/2012 15:00,22.6,13.8,58,22,48.3,101.12,Mainly Clear
2470,5248,8/6/2012 16:00,23.0,12.2,51,19,48.3,101.07,Mainly Clear
2471,5249,8/6/2012 17:00,23.0,12.8,53,24,48.3,101.06,Mainly Clear
2472,5250,8/6/2012 18:00,23.0,12.8,53,15,48.3,101.03,Mainly Clear
2473,5263,8/7/2012 7:00,19.6,16.1,80,15,48.3,101.01,Mainly Clear
2474,5264,8/7/2012 8:00,21.2,16.4,74,17,48.3,101.01,Mainly Clear
2475,5265,8/7/2012 9:00,22.8,16.7,68,19,48.3,100.99,Mainly Clear
2476,5266,8/7/2012 10:00,24.1,17.1,65,24,48.3,100.96,Mainly Clear
2477,5267,8/7/2012 11:00,25.3,16.9,60,22,48.3,100.96,Mainly Clear
2478,5268,8/7/2012 12:00,26.5,16.1,53,17,48.3,100.9,Mainly Clear
2479,5269,8/7/2012 13:00,27.7,15.7,48,20,48.3,100.87,Mainly Clear
2480,5270,8/7/2012 14:00,27.6,14.2,44,20,48.3,100.82,Mainly Clear
2481,5271,8/7/2012 15:00,28.7,13.6,40,24,48.3,100.79,Mostly Cloudy
2482,5272,8/7/2012 16:00,27.4,13.6,43,17,48.3,100.74,Mostly Cloudy
2483,5273,8/7/2012 17:00,27.8,13.1,40,15,48.3,100.74,Mostly Cloudy
2484,5274,8/7/2012 18:00,27.0,13.8,44,15,48.3,100.74,Mostly Cloudy
2485,5275,8/7/2012 19:00,26.3,14.8,49,13,48.3,100.73,Mostly Cloudy
2486,5276,8/7/2012 20:00,25.8,13.7,47,17,25.0,100.81,Mostly Cloudy
2487,5278,8/7/2012 22:00,20.2,16.6,80,0,25.0,100.86,Mostly Cloudy
2488,5280,8/8/2012 0:00,19.3,18.0,92,7,25.0,100.92,Mostly Cloudy
2489,5281,8/8/2012 1:00,18.7,17.8,95,7,25.0,100.94,Mainly Clear
2490,5282,8/8/2012 2:00,18.3,17.6,96,4,19.3,100.91,Mainly Clear
2491,5285,8/8/2012 5:00,16.8,16.7,99,0,19.3,101.02,Mainly Clear
2492,5288,8/8/2012 8:00,21.1,17.5,80,0,48.3,101.12,Mostly Cloudy
2493,5289,8/8/2012 9:00,22.5,16.6,69,4,48.3,101.11,Mainly Clear
2494,5290,8/8/2012 10:00,24.1,16.0,61,9,48.3,101.11,Mainly Clear
2495,5291,8/8/2012 11:00,24.8,15.2,55,4,48.3,101.08,Mainly Clear
2496,5292,8/8/2012 12:00,26.4,11.9,40,0,48.3,101.05,Mainly Clear
2497,5293,8/8/2012 13:00,27.4,14.1,44,4,48.3,101.0,Mainly Clear
2498,5294,8/8/2012 14:00,28.0,15.6,47,11,24.1,100.98,Mainly Clear
2499,5295,8/8/2012 15:00,28.3,14.7,43,7,24.1,100.94,Mostly Cloudy
2500,5296,8/8/2012 16:00,28.0,16.1,48,9,24.1,100.92,Mostly Cloudy
2501,5297,8/8/2012 17:00,24.8,17.1,62,19,24.1,100.91,Mostly Cloudy
2502,5298,8/8/2012 18:00,25.1,16.8,60,9,24.1,100.9,Mostly Cloudy
2503,5301,8/8/2012 21:00,23.0,17.8,73,6,25.0,100.93,Mostly Cloudy
2504,5302,8/8/2012 22:00,23.5,17.1,67,4,25.0,100.89,Mostly Cloudy
2505,5303,8/8/2012 23:00,23.1,17.0,69,6,25.0,100.92,Mostly Cloudy
2506,5304,8/9/2012 0:00,22.8,17.7,73,9,25.0,100.93,Mainly Clear
2507,5305,8/9/2012 1:00,22.8,16.7,68,11,25.0,100.89,Mostly Cloudy
2508,5308,8/9/2012 4:00,21.4,17.4,78,11,25.0,100.9,Mostly Cloudy
2509,5363,8/11/2012 11:00,23.9,19.8,78,13,24.1,100.61,Mostly Cloudy
2510,5364,8/11/2012 12:00,26.1,20.6,72,9,24.1,100.58,Mostly Cloudy
2511,5371,8/11/2012 19:00,20.4,18.6,89,11,24.1,100.59,Mainly Clear
2512,5372,8/11/2012 20:00,19.9,18.9,94,13,25.0,100.65,Mostly Cloudy
2513,5373,8/11/2012 21:00,20.0,18.5,91,9,25.0,100.68,Mostly Cloudy
2514,5375,8/11/2012 23:00,20.0,18.8,93,9,25.0,100.71,Mostly Cloudy
2515,5376,8/12/2012 0:00,20.1,18.9,93,4,19.3,100.7,Mostly Cloudy
2516,5379,8/12/2012 3:00,19.5,19.0,97,0,12.9,100.65,Mostly Cloudy
2517,5382,8/12/2012 6:00,19.8,18.9,95,9,12.9,100.75,Mostly Cloudy
2518,5383,8/12/2012 7:00,20.5,19.0,91,7,24.1,100.79,Mostly Cloudy
2519,5384,8/12/2012 8:00,21.6,17.8,79,15,24.1,100.8,Mostly Cloudy
2520,5385,8/12/2012 9:00,22.3,16.6,70,19,48.3,100.79,Mainly Clear
2521,5386,8/12/2012 10:00,22.9,16.7,68,17,48.3,100.76,Mainly Clear
2522,5387,8/12/2012 11:00,24.0,17.6,67,13,48.3,100.72,Mainly Clear
2523,5388,8/12/2012 12:00,24.4,16.9,63,17,48.3,100.67,Mainly Clear
2524,5389,8/12/2012 13:00,25.4,17.2,60,13,48.3,100.64,Mainly Clear
2525,5390,8/12/2012 14:00,26.4,17.0,56,13,48.3,100.62,Mainly Clear
2526,5391,8/12/2012 15:00,26.2,16.9,57,15,48.3,100.58,Mainly Clear
2527,5392,8/12/2012 16:00,26.7,16.9,55,17,48.3,100.56,Mainly Clear
2528,5393,8/12/2012 17:00,26.0,16.9,57,17,24.1,100.55,Mostly Cloudy
2529,5394,8/12/2012 18:00,23.2,18.6,75,15,48.3,100.61,Mainly Clear
2530,5395,8/12/2012 19:00,23.2,17.8,72,15,24.1,100.63,Mainly Clear
2531,5396,8/12/2012 20:00,22.9,17.5,72,13,25.0,100.69,Mainly Clear
2532,5397,8/12/2012 21:00,22.3,17.8,76,11,25.0,100.71,Mainly Clear
2533,5398,8/12/2012 22:00,21.8,17.7,78,17,25.0,100.7,Mainly Clear
2534,5399,8/12/2012 23:00,21.8,17.8,78,19,25.0,100.69,Mainly Clear
2535,5402,8/13/2012 2:00,20.4,17.6,84,13,25.0,100.67,Mainly Clear
2536,5403,8/13/2012 3:00,20.2,18.0,87,9,25.0,100.7,Mainly Clear
2537,5404,8/13/2012 4:00,19.5,17.3,87,9,25.0,100.74,Mainly Clear
2538,5405,8/13/2012 5:00,19.5,17.5,88,13,24.1,100.78,Mainly Clear
2539,5406,8/13/2012 6:00,19.7,17.6,88,13,24.1,100.81,Mainly Clear
2540,5408,8/13/2012 8:00,20.9,18.0,83,13,19.3,100.89,Mostly Cloudy
2541,5409,8/13/2012 9:00,21.9,18.0,79,15,19.3,100.88,Mostly Cloudy
2542,5410,8/13/2012 10:00,22.4,17.8,75,22,19.3,100.88,Mostly Cloudy
2543,5411,8/13/2012 11:00,22.5,17.8,75,20,24.1,100.87,Mostly Cloudy
2544,5412,8/13/2012 12:00,23.8,17.4,67,17,24.1,100.85,Mostly Cloudy
2545,5413,8/13/2012 13:00,25.2,17.9,64,20,24.1,100.82,Mostly Cloudy
2546,5414,8/13/2012 14:00,25.1,17.4,62,19,24.1,100.79,Mostly Cloudy
2547,5415,8/13/2012 15:00,25.4,17.4,61,13,24.1,100.74,Mostly Cloudy
2548,5416,8/13/2012 16:00,25.2,17.1,61,19,24.1,100.76,Mostly Cloudy
2549,5417,8/13/2012 17:00,24.5,18.0,67,11,24.1,100.78,Mostly Cloudy
2550,5418,8/13/2012 18:00,24.6,16.9,62,11,24.1,100.8,Mostly Cloudy
2551,5419,8/13/2012 19:00,24.4,17.4,65,7,24.1,100.8,Mainly Clear
2552,5420,8/13/2012 20:00,23.2,17.6,71,7,25.0,100.83,Mainly Clear
2553,5421,8/13/2012 21:00,22.4,17.8,75,6,25.0,100.87,Mainly Clear
2554,5422,8/13/2012 22:00,22.2,17.7,76,9,25.0,100.88,Mainly Clear
2555,5423,8/13/2012 23:00,21.7,17.3,76,9,25.0,100.86,Mainly Clear
2556,5424,8/14/2012 0:00,21.2,17.4,79,7,25.0,100.85,Mainly Clear
2557,5425,8/14/2012 1:00,21.1,17.7,81,9,25.0,100.85,Mainly Clear
2558,5426,8/14/2012 2:00,20.9,18.2,85,11,25.0,100.83,Mostly Cloudy
2559,5427,8/14/2012 3:00,20.7,17.6,82,11,25.0,100.82,Mainly Clear
2560,5428,8/14/2012 4:00,19.5,17.4,88,6,25.0,100.83,Mostly Cloudy
2561,5429,8/14/2012 5:00,19.8,17.3,86,7,24.1,100.84,Mainly Clear
2562,5430,8/14/2012 6:00,20.9,17.2,79,9,24.1,100.83,Mostly Cloudy
2563,5431,8/14/2012 7:00,21.0,16.7,76,13,24.1,100.88,Mostly Cloudy
2564,5432,8/14/2012 8:00,21.9,17.1,74,9,24.1,100.87,Mostly Cloudy
2565,5437,8/14/2012 13:00,23.7,19.2,76,15,24.1,100.79,Mostly Cloudy
2566,5438,8/14/2012 14:00,24.2,18.5,71,13,24.1,100.75,Mostly Cloudy
2567,5439,8/14/2012 15:00,25.7,18.4,64,15,24.1,100.71,Mostly Cloudy
2568,5440,8/14/2012 16:00,24.5,17.2,64,7,24.1,100.69,Mostly Cloudy
2569,5441,8/14/2012 17:00,24.9,17.2,62,7,24.1,100.67,Mostly Cloudy
2570,5442,8/14/2012 18:00,24.5,17.1,63,6,24.1,100.69,Mostly Cloudy
2571,5443,8/14/2012 19:00,24.3,17.2,65,0,24.1,100.67,Mostly Cloudy
2572,5444,8/14/2012 20:00,23.3,17.8,71,6,25.0,100.68,Mostly Cloudy
2573,5456,8/15/2012 8:00,20.1,18.2,89,0,24.1,100.69,Mostly Cloudy
2574,5457,8/15/2012 9:00,21.0,18.4,85,11,24.1,100.73,Mostly Cloudy
2575,5459,8/15/2012 11:00,21.6,18.2,81,9,24.1,100.78,Mostly Cloudy
2576,5460,8/15/2012 12:00,23.7,17.8,70,7,24.1,100.73,Mostly Cloudy
2577,5461,8/15/2012 13:00,25.3,18.0,64,9,24.1,100.72,Mostly Cloudy
2578,5462,8/15/2012 14:00,25.2,16.7,59,15,24.1,100.7,Mainly Clear
2579,5463,8/15/2012 15:00,25.7,17.8,62,15,24.1,100.68,Mainly Clear
2580,5464,8/15/2012 16:00,25.7,16.4,56,17,24.1,100.69,Mainly Clear
2581,5465,8/15/2012 17:00,25.6,15.7,54,13,24.1,100.67,Mainly Clear
2582,5466,8/15/2012 18:00,24.9,16.0,58,13,24.1,100.68,Mainly Clear
2583,5467,8/15/2012 19:00,22.5,16.1,67,7,24.1,100.69,Mainly Clear
2584,5468,8/15/2012 20:00,21.7,16.1,70,6,25.0,100.71,Mainly Clear
2585,5470,8/15/2012 22:00,19.9,16.0,78,7,25.0,100.76,Mainly Clear
2586,5471,8/15/2012 23:00,20.6,16.5,77,0,25.0,100.81,Mainly Clear
2587,5473,8/16/2012 1:00,18.5,16.0,85,9,25.0,100.76,Mainly Clear
2588,5474,8/16/2012 2:00,17.8,15.7,88,6,25.0,100.75,Mainly Clear
2589,5475,8/16/2012 3:00,17.4,15.6,89,6,25.0,100.76,Mainly Clear
2590,5476,8/16/2012 4:00,16.7,15.2,91,6,25.0,100.79,Mainly Clear
2591,5477,8/16/2012 5:00,16.6,15.3,92,0,25.0,100.81,Mainly Clear
2592,5478,8/16/2012 6:00,18.2,15.7,85,0,48.3,100.85,Mainly Clear
2593,5479,8/16/2012 7:00,19.3,16.8,85,9,24.1,100.87,Mostly Cloudy
2594,5480,8/16/2012 8:00,20.5,17.2,81,7,48.3,100.82,Mainly Clear
2595,5481,8/16/2012 9:00,21.7,17.8,79,0,48.3,100.79,Mostly Cloudy
2596,5482,8/16/2012 10:00,23.8,17.7,69,0,24.1,100.78,Mainly Clear
2597,5483,8/16/2012 11:00,23.8,17.3,67,7,24.1,100.74,Mostly Cloudy
2598,5484,8/16/2012 12:00,24.9,16.7,60,6,24.1,100.71,Mostly Cloudy
2599,5485,8/16/2012 13:00,25.8,17.3,59,11,24.1,100.71,Mainly Clear
2600,5486,8/16/2012 14:00,25.9,15.7,53,17,24.1,100.71,Mainly Clear
2601,5487,8/16/2012 15:00,26.9,15.6,50,13,24.1,100.63,Mainly Clear
2602,5488,8/16/2012 16:00,27.0,12.6,41,7,24.1,100.54,Mainly Clear
2603,5489,8/16/2012 17:00,26.4,14.7,49,9,24.1,100.53,Mainly Clear
2604,5491,8/16/2012 19:00,23.7,13.8,54,4,24.1,100.5,Mainly Clear
2605,5492,8/16/2012 20:00,23.5,15.3,60,6,25.0,100.52,Mainly Clear
2606,5493,8/16/2012 21:00,21.6,17.4,77,6,25.0,100.5,Mainly Clear
2607,5494,8/16/2012 22:00,22.0,17.5,76,4,25.0,100.48,Mainly Clear
2608,5495,8/16/2012 23:00,22.3,17.6,75,9,25.0,100.48,Mainly Clear
2609,5496,8/17/2012 0:00,21.9,17.0,74,7,25.0,100.51,Mainly Clear
2610,5500,8/17/2012 4:00,18.2,16.1,88,11,25.0,100.32,Mainly Clear
2611,5502,8/17/2012 6:00,18.2,14.9,81,11,24.1,100.28,Mostly Cloudy
2612,5503,8/17/2012 7:00,19.5,16.0,80,15,24.1,100.24,Mostly Cloudy
2613,5511,8/17/2012 15:00,24.9,15.8,57,30,24.1,100.11,Mostly Cloudy
2614,5512,8/17/2012 16:00,24.3,14.6,55,28,24.1,100.14,Mostly Cloudy
2615,5513,8/17/2012 17:00,24.8,15.7,57,30,24.1,100.15,Mostly Cloudy
2616,5514,8/17/2012 18:00,23.9,16.1,62,24,48.3,100.19,Mostly Cloudy
2617,5515,8/17/2012 19:00,23.4,16.3,64,17,48.3,100.24,Mainly Clear
2618,5516,8/17/2012 20:00,22.4,15.8,66,13,25.0,100.34,Mainly Clear
2619,5517,8/17/2012 21:00,21.7,14.9,65,9,25.0,100.37,Mainly Clear
2620,5518,8/17/2012 22:00,21.1,14.2,65,13,25.0,100.4,Mainly Clear
2621,5519,8/17/2012 23:00,18.6,13.0,70,13,25.0,100.44,Mainly Clear
2622,5520,8/18/2012 0:00,18.1,11.3,64,11,25.0,100.47,Mainly Clear
2623,5522,8/18/2012 2:00,15.3,11.1,76,7,25.0,100.52,Mainly Clear
2624,5523,8/18/2012 3:00,15.7,11.2,75,7,25.0,100.54,Mainly Clear
2625,5524,8/18/2012 4:00,14.8,10.9,77,11,25.0,100.57,Mainly Clear
2626,5525,8/18/2012 5:00,14.8,11.1,78,13,24.1,100.64,Mainly Clear
2627,5526,8/18/2012 6:00,15.1,12.0,82,17,48.3,100.69,Mainly Clear
2628,5527,8/18/2012 7:00,15.6,12.2,80,20,48.3,100.77,Mainly Clear
2629,5528,8/18/2012 8:00,17.1,12.6,75,17,48.3,100.79,Mainly Clear
2630,5529,8/18/2012 9:00,18.0,11.7,67,19,24.1,100.82,Mainly Clear
2631,5530,8/18/2012 10:00,18.3,11.6,65,17,24.1,100.83,Mostly Cloudy
2632,5531,8/18/2012 11:00,19.0,10.9,59,19,48.3,100.84,Mostly Cloudy
2633,5532,8/18/2012 12:00,21.0,11.2,53,22,48.3,100.83,Mainly Clear
2634,5533,8/18/2012 13:00,21.2,10.4,50,20,48.3,100.85,Mainly Clear
2635,5534,8/18/2012 14:00,20.1,10.2,53,17,48.3,100.81,Mainly Clear
2636,5535,8/18/2012 15:00,22.0,9.3,44,20,48.3,100.79,Mainly Clear
2637,5536,8/18/2012 16:00,21.3,7.8,42,22,48.3,100.78,Mostly Cloudy
2638,5537,8/18/2012 17:00,21.3,8.1,43,13,48.3,100.78,Mostly Cloudy
2639,5538,8/18/2012 18:00,20.8,6.9,40,15,48.3,100.8,Mostly Cloudy
2640,5539,8/18/2012 19:00,18.4,7.6,49,11,48.3,100.83,Mainly Clear
2641,5542,8/18/2012 22:00,15.2,8.9,66,6,25.0,100.89,Mainly Clear
2642,5549,8/19/2012 5:00,12.8,11.0,89,9,24.1,100.97,Mainly Clear
2643,5550,8/19/2012 6:00,15.2,12.2,82,15,48.3,101.02,Mainly Clear
2644,5551,8/19/2012 7:00,16.5,12.6,78,13,48.3,101.06,Mainly Clear
2645,5553,8/19/2012 9:00,19.4,14.3,72,11,48.3,101.06,Mainly Clear
2646,5554,8/19/2012 10:00,20.6,14.5,68,9,48.3,101.02,Mainly Clear
2647,5555,8/19/2012 11:00,22.5,13.8,58,15,48.3,101.0,Mainly Clear
2648,5556,8/19/2012 12:00,23.3,12.7,51,15,48.3,100.93,Mostly Cloudy
2649,5557,8/19/2012 13:00,23.3,11.3,47,13,48.3,100.9,Mostly Cloudy
2650,5558,8/19/2012 14:00,24.5,10.6,42,15,48.3,100.84,Mostly Cloudy
2651,5559,8/19/2012 15:00,23.5,11.3,46,17,48.3,100.77,Mostly Cloudy
2652,5561,8/19/2012 17:00,23.7,10.6,44,13,48.3,100.73,Mostly Cloudy
2653,5562,8/19/2012 18:00,22.1,12.3,54,9,48.3,100.74,Mostly Cloudy
2654,5563,8/19/2012 19:00,20.7,11.7,56,11,48.3,100.75,Mostly Cloudy
2655,5564,8/19/2012 20:00,19.5,12.1,62,6,25.0,100.83,Mainly Clear
2656,5565,8/19/2012 21:00,16.7,12.2,75,4,25.0,100.81,Mainly Clear
2657,5567,8/19/2012 23:00,16.8,11.6,71,0,25.0,100.78,Mainly Clear
2658,5568,8/20/2012 0:00,15.4,11.9,80,0,25.0,100.79,Mainly Clear
2659,5569,8/20/2012 1:00,16.5,13.6,83,0,25.0,100.75,Mainly Clear
2660,5571,8/20/2012 3:00,15.6,13.3,86,0,25.0,100.75,Mainly Clear
2661,5572,8/20/2012 4:00,15.3,13.2,87,0,25.0,100.72,Mainly Clear
2662,5573,8/20/2012 5:00,14.5,13.4,93,0,25.0,100.72,Mainly Clear
2663,5574,8/20/2012 6:00,16.0,12.8,81,6,48.3,100.76,Mainly Clear
2664,5575,8/20/2012 7:00,17.8,13.6,76,7,48.3,100.77,Mainly Clear
2665,5576,8/20/2012 8:00,19.0,14.4,75,11,48.3,100.76,Mainly Clear
2666,5578,8/20/2012 10:00,21.6,14.2,63,17,48.3,100.77,Mostly Cloudy
2667,5579,8/20/2012 11:00,23.1,15.7,63,13,48.3,100.74,Mainly Clear
2668,5580,8/20/2012 12:00,24.8,13.5,49,17,24.1,100.69,Mainly Clear
2669,5581,8/20/2012 13:00,24.6,13.2,49,17,24.1,100.64,Mainly Clear
2670,5582,8/20/2012 14:00,25.2,11.7,43,11,24.1,100.62,Mainly Clear
2671,5583,8/20/2012 15:00,24.6,10.5,41,15,24.1,100.6,Mainly Clear
2672,5585,8/20/2012 17:00,23.8,10.6,43,13,24.1,100.57,Mainly Clear
2673,5586,8/20/2012 18:00,22.5,10.0,45,17,24.1,100.64,Mainly Clear
2674,5587,8/20/2012 19:00,20.1,9.0,49,9,24.1,100.69,Mainly Clear
2675,5589,8/20/2012 21:00,18.2,9.9,58,7,25.0,100.77,Mainly Clear
2676,5590,8/20/2012 22:00,18.5,10.0,58,7,25.0,100.78,Mainly Clear
2677,5591,8/20/2012 23:00,16.6,10.8,69,6,25.0,100.8,Mainly Clear
2678,5592,8/21/2012 0:00,16.5,10.4,67,4,25.0,100.82,Mainly Clear
2679,5593,8/21/2012 1:00,15.0,10.8,76,4,25.0,100.85,Mainly Clear
2680,5594,8/21/2012 2:00,15.9,11.0,73,0,25.0,100.9,Mostly Cloudy
2681,5595,8/21/2012 3:00,15.9,11.3,74,0,25.0,100.92,Mostly Cloudy
2682,5596,8/21/2012 4:00,16.1,11.0,72,6,25.0,100.93,Mainly Clear
2683,5597,8/21/2012 5:00,15.0,10.3,73,0,24.1,100.99,Mainly Clear
2684,5598,8/21/2012 6:00,14.6,10.9,78,7,48.3,101.02,Mainly Clear
2685,5599,8/21/2012 7:00,17.2,12.6,74,6,48.3,101.08,Mainly Clear
2686,5600,8/21/2012 8:00,19.3,11.8,62,7,48.3,101.12,Mostly Cloudy
2687,5601,8/21/2012 9:00,20.4,9.1,48,13,48.3,101.15,Mostly Cloudy
2688,5602,8/21/2012 10:00,21.8,10.9,50,13,48.3,101.18,Mainly Clear
2689,5603,8/21/2012 11:00,21.1,9.6,48,11,48.3,101.17,Mainly Clear
2690,5604,8/21/2012 12:00,23.7,10.4,43,17,48.3,101.19,Mainly Clear
2691,5605,8/21/2012 13:00,23.2,10.3,44,22,48.3,101.19,Mostly Cloudy
2692,5606,8/21/2012 14:00,22.6,10.9,48,15,48.3,101.18,Mostly Cloudy
2693,5607,8/21/2012 15:00,23.4,11.4,47,19,48.3,101.15,Mostly Cloudy
2694,5608,8/21/2012 16:00,23.1,11.9,49,17,48.3,101.14,Mostly Cloudy
2695,5609,8/21/2012 17:00,22.6,10.9,48,19,48.3,101.17,Mostly Cloudy
2696,5610,8/21/2012 18:00,22.4,10.8,48,13,48.3,101.18,Mostly Cloudy
2697,5611,8/21/2012 19:00,22.1,11.7,52,7,48.3,101.21,Mostly Cloudy
2698,5612,8/21/2012 20:00,21.5,10.7,50,6,25.0,101.25,Mainly Clear
2699,5613,8/21/2012 21:00,19.2,12.9,67,20,24.1,101.36,Mostly Cloudy
2700,5614,8/21/2012 22:00,18.5,13.3,72,6,25.0,101.33,Mostly Cloudy
2701,5615,8/21/2012 23:00,18.1,13.6,75,4,25.0,101.34,Mostly Cloudy
2702,5616,8/22/2012 0:00,19.0,14.6,76,13,25.0,101.34,Mostly Cloudy
2703,5618,8/22/2012 2:00,18.8,13.8,73,11,25.0,101.35,Mostly Cloudy
2704,5621,8/22/2012 5:00,18.0,12.4,70,7,48.3,101.41,Mainly Clear
2705,5622,8/22/2012 6:00,17.6,12.6,72,6,48.3,101.45,Mainly Clear
2706,5623,8/22/2012 7:00,18.9,12.1,65,15,48.3,101.46,Mainly Clear
2707,5624,8/22/2012 8:00,19.9,11.7,59,15,48.3,101.48,Mainly Clear
2708,5625,8/22/2012 9:00,21.1,12.9,59,15,48.3,101.5,Mostly Cloudy
2709,5626,8/22/2012 10:00,22.0,14.1,61,17,48.3,101.5,Mainly Clear
2710,5627,8/22/2012 11:00,23.2,13.9,56,24,48.3,101.46,Mainly Clear
2711,5628,8/22/2012 12:00,24.4,12.9,49,24,48.3,101.44,Mainly Clear
2712,5629,8/22/2012 13:00,25.8,12.8,44,24,48.3,101.39,Mainly Clear
2713,5630,8/22/2012 14:00,25.5,11.5,42,19,48.3,101.35,Mainly Clear
2714,5632,8/22/2012 16:00,25.6,10.6,39,28,48.3,101.28,Mainly Clear
2715,5633,8/22/2012 17:00,25.4,10.9,40,15,48.3,101.27,Mainly Clear
2716,5634,8/22/2012 18:00,25.1,10.5,40,11,48.3,101.24,Mainly Clear
2717,5635,8/22/2012 19:00,23.9,12.7,49,9,48.3,101.25,Mainly Clear
2718,5636,8/22/2012 20:00,23.3,14.6,58,13,25.0,101.28,Mainly Clear
2719,5638,8/22/2012 22:00,21.9,14.0,61,17,25.0,101.27,Mainly Clear
2720,5639,8/22/2012 23:00,21.5,12.7,57,19,25.0,101.26,Mainly Clear
2721,5640,8/23/2012 0:00,20.7,12.0,57,11,24.1,101.29,Mainly Clear
2722,5641,8/23/2012 1:00,20.2,12.9,63,13,25.0,101.29,Mainly Clear
2723,5642,8/23/2012 2:00,19.3,13.0,67,13,25.0,101.32,Mostly Cloudy
2724,5643,8/23/2012 3:00,18.9,12.8,68,13,25.0,101.31,Mainly Clear
2725,5644,8/23/2012 4:00,18.9,13.5,71,15,25.0,101.31,Mainly Clear
2726,5645,8/23/2012 5:00,18.5,14.3,77,15,25.0,101.33,Mainly Clear
2727,5646,8/23/2012 6:00,19.1,15.2,78,24,24.1,101.36,Mainly Clear
2728,5648,8/23/2012 8:00,21.8,15.8,69,22,24.1,101.37,Mainly Clear
2729,5649,8/23/2012 9:00,22.9,16.8,69,24,48.3,101.39,Mainly Clear
2730,5650,8/23/2012 10:00,23.9,15.1,58,22,48.3,101.39,Mainly Clear
2731,5651,8/23/2012 11:00,26.0,16.0,54,24,48.3,101.37,Mainly Clear
2732,5652,8/23/2012 12:00,26.5,15.5,51,28,48.3,101.36,Mostly Cloudy
2733,5653,8/23/2012 13:00,27.0,15.6,50,26,48.3,101.37,Mostly Cloudy
2734,5655,8/23/2012 15:00,25.8,16.2,55,19,48.3,101.35,Mostly Cloudy
2735,5656,8/23/2012 16:00,25.6,15.5,54,22,48.3,101.34,Mainly Clear
2736,5657,8/23/2012 17:00,25.9,15.7,53,17,48.3,101.33,Mainly Clear
2737,5658,8/23/2012 18:00,25.0,16.0,57,11,48.3,101.34,Mainly Clear
2738,5659,8/23/2012 19:00,22.6,15.8,65,9,25.0,101.36,Mainly Clear
2739,5661,8/23/2012 21:00,22.9,16.6,68,7,25.0,101.47,Mainly Clear
2740,5662,8/23/2012 22:00,20.5,16.3,77,6,25.0,101.53,Mostly Cloudy
2741,5663,8/23/2012 23:00,21.8,16.7,73,6,25.0,101.55,Mainly Clear
2742,5664,8/24/2012 0:00,19.1,16.2,83,4,25.0,101.59,Mainly Clear
2743,5665,8/24/2012 1:00,19.2,15.6,80,13,25.0,101.62,Mainly Clear
2744,5666,8/24/2012 2:00,20.4,12.4,60,9,25.0,101.63,Mostly Cloudy
2745,5667,8/24/2012 3:00,19.6,12.4,63,13,25.0,101.64,Mainly Clear
2746,5668,8/24/2012 4:00,19.0,12.6,66,13,25.0,101.65,Mainly Clear
2747,5669,8/24/2012 5:00,16.4,13.7,84,6,48.3,101.72,Mainly Clear
2748,5670,8/24/2012 6:00,16.6,12.9,79,11,48.3,101.76,Mainly Clear
2749,5671,8/24/2012 7:00,18.5,12.4,68,11,24.1,101.78,Mainly Clear
2750,5673,8/24/2012 9:00,22.1,13.1,57,9,48.3,101.81,Mainly Clear
2751,5674,8/24/2012 10:00,24.2,13.3,51,13,48.3,101.84,Mainly Clear
2752,5675,8/24/2012 11:00,25.4,13.4,47,0,48.3,101.82,Mainly Clear
2753,5676,8/24/2012 12:00,26.5,13.9,46,6,48.3,101.8,Mainly Clear
2754,5677,8/24/2012 13:00,27.3,14.2,45,4,48.3,101.77,Mainly Clear
2755,5678,8/24/2012 14:00,27.7,13.5,42,11,48.3,101.71,Mainly Clear
2756,5679,8/24/2012 15:00,27.7,12.5,39,9,48.3,101.69,Mainly Clear
2757,5680,8/24/2012 16:00,27.9,13.3,41,11,48.3,101.68,Mainly Clear
2758,5681,8/24/2012 17:00,27.3,13.7,43,6,48.3,101.7,Mainly Clear
2759,5682,8/24/2012 18:00,25.8,14.2,49,6,24.1,101.71,Mainly Clear
2760,5683,8/24/2012 19:00,26.1,13.4,45,11,25.0,101.73,Mostly Cloudy
2761,5684,8/24/2012 20:00,25.9,13.1,45,13,25.0,101.76,Mostly Cloudy
2762,5685,8/24/2012 21:00,24.9,13.3,48,7,25.0,101.77,Mainly Clear
2763,5686,8/24/2012 22:00,23.0,14.3,58,11,25.0,101.77,Mainly Clear
2764,5687,8/24/2012 23:00,22.4,13.8,58,13,25.0,101.79,Mainly Clear
2765,5688,8/25/2012 0:00,22.1,13.9,60,9,25.0,101.8,Mostly Cloudy
2766,5689,8/25/2012 1:00,21.6,14.0,62,11,25.0,101.77,Mainly Clear
2767,5690,8/25/2012 2:00,20.9,13.7,63,6,25.0,101.8,Mainly Clear
2768,5691,8/25/2012 3:00,20.9,14.0,65,6,25.0,101.8,Mainly Clear
2769,5692,8/25/2012 4:00,20.8,14.3,66,11,25.0,101.81,Mainly Clear
2770,5693,8/25/2012 5:00,20.4,14.6,69,4,24.1,101.88,Mainly Clear
2771,5694,8/25/2012 6:00,20.2,15.1,72,6,24.1,101.93,Mainly Clear
2772,5695,8/25/2012 7:00,21.5,15.9,70,6,24.1,101.96,Mainly Clear
2773,5696,8/25/2012 8:00,21.9,16.4,71,4,24.1,101.96,Mainly Clear
2774,5697,8/25/2012 9:00,24.8,16.7,61,6,48.3,101.97,Mainly Clear
2775,5699,8/25/2012 11:00,27.1,17.0,54,7,48.3,101.94,Mainly Clear
2776,5700,8/25/2012 12:00,29.1,17.3,49,7,48.3,101.92,Mainly Clear
2777,5702,8/25/2012 14:00,30.8,15.7,40,7,48.3,101.79,Mainly Clear
2778,5703,8/25/2012 15:00,31.1,15.2,38,9,48.3,101.75,Mainly Clear
2779,5704,8/25/2012 16:00,31.1,16.6,42,13,48.3,101.74,Mainly Clear
2780,5705,8/25/2012 17:00,30.2,17.1,45,11,48.3,101.72,Mainly Clear
2781,5706,8/25/2012 18:00,28.9,16.5,47,13,48.3,101.74,Mainly Clear
2782,5707,8/25/2012 19:00,27.0,16.3,52,9,25.0,101.76,Mainly Clear
2783,5708,8/25/2012 20:00,26.5,16.6,55,13,25.0,101.78,Mainly Clear
2784,5720,8/26/2012 8:00,24.2,17.3,65,15,24.1,102.09,Mainly Clear
2785,5721,8/26/2012 9:00,24.7,17.5,64,11,24.1,102.08,Mainly Clear
2786,5722,8/26/2012 10:00,26.3,17.7,59,15,48.3,102.07,Mainly Clear
2787,5723,8/26/2012 11:00,27.9,17.4,53,20,48.3,102.04,Mainly Clear
2788,5724,8/26/2012 12:00,28.9,17.1,49,17,48.3,101.99,Mainly Clear
2789,5725,8/26/2012 13:00,29.7,16.7,46,13,48.3,101.92,Mainly Clear
2790,5726,8/26/2012 14:00,30.2,15.5,41,17,48.3,101.81,Mainly Clear
2791,5727,8/26/2012 15:00,30.1,15.7,42,13,48.3,101.76,Mainly Clear
2792,5728,8/26/2012 16:00,30.4,16.1,42,11,48.3,101.68,Mainly Clear
2793,5729,8/26/2012 17:00,29.5,16.8,46,4,48.3,101.62,Mainly Clear
2794,5730,8/26/2012 18:00,28.5,15.2,44,11,48.3,101.56,Mainly Clear
2795,5731,8/26/2012 19:00,27.2,14.9,47,15,25.0,101.55,Mainly Clear
2796,5732,8/26/2012 20:00,25.7,15.8,54,11,25.0,101.56,Mainly Clear
2797,5733,8/26/2012 21:00,24.8,16.1,58,9,25.0,101.55,Mostly Cloudy
2798,5734,8/26/2012 22:00,23.9,16.9,65,15,25.0,101.52,Mostly Cloudy
2799,5735,8/26/2012 23:00,24.3,17.5,66,15,25.0,101.51,Mostly Cloudy
2800,5736,8/27/2012 0:00,24.3,16.9,63,15,25.0,101.49,Mostly Cloudy
2801,5737,8/27/2012 1:00,23.2,17.0,68,11,25.0,101.44,Mainly Clear
2802,5738,8/27/2012 2:00,22.3,16.2,68,11,25.0,101.43,Mostly Cloudy
2803,5739,8/27/2012 3:00,21.8,15.9,69,11,25.0,101.4,Mostly Cloudy
2804,5740,8/27/2012 4:00,22.4,15.8,66,13,25.0,101.37,Mostly Cloudy
2805,5741,8/27/2012 5:00,21.4,15.7,70,15,24.1,101.36,Mostly Cloudy
2806,5742,8/27/2012 6:00,22.0,16.4,71,13,24.1,101.38,Mostly Cloudy
2807,5743,8/27/2012 7:00,23.1,16.9,68,13,24.1,101.36,Mostly Cloudy
2808,5744,8/27/2012 8:00,24.7,16.7,61,17,24.1,101.33,Mostly Cloudy
2809,5745,8/27/2012 9:00,25.6,17.5,61,19,48.3,101.31,Mostly Cloudy
2810,5746,8/27/2012 10:00,26.0,17.9,61,22,48.3,101.25,Mostly Cloudy
2811,5756,8/27/2012 20:00,22.8,20.1,85,13,25.0,100.68,Mostly Cloudy
2812,5757,8/27/2012 21:00,21.8,20.6,93,11,25.0,100.66,Mostly Cloudy
2813,5758,8/27/2012 22:00,22.3,20.2,88,15,25.0,100.63,Mostly Cloudy
2814,5759,8/27/2012 23:00,22.5,19.1,81,22,25.0,100.59,Mostly Cloudy
2815,5763,8/28/2012 3:00,21.1,19.3,89,13,25.0,100.44,Mostly Cloudy
2816,5764,8/28/2012 4:00,20.9,19.3,91,11,25.0,100.42,Mainly Clear
2817,5765,8/28/2012 5:00,20.0,19.0,94,13,16.1,100.47,Mostly Cloudy
2818,5766,8/28/2012 6:00,20.3,19.3,94,15,19.3,100.5,Mostly Cloudy
2819,5767,8/28/2012 7:00,21.4,19.5,89,15,19.3,100.53,Mostly Cloudy
2820,5769,8/28/2012 9:00,22.7,16.7,69,24,48.3,100.59,Mainly Clear
2821,5770,8/28/2012 10:00,23.8,15.5,60,15,48.3,100.61,Mainly Clear
2822,5771,8/28/2012 11:00,22.6,15.1,63,13,48.3,100.6,Mostly Cloudy
2823,5772,8/28/2012 12:00,25.2,13.9,50,22,48.3,100.6,Mainly Clear
2824,5773,8/28/2012 13:00,25.4,12.1,44,30,48.3,100.61,Mainly Clear
2825,5774,8/28/2012 14:00,24.2,10.0,41,30,48.3,100.61,Mainly Clear
2826,5775,8/28/2012 15:00,23.2,8.8,40,28,48.3,100.65,Mainly Clear
2827,5776,8/28/2012 16:00,22.4,8.7,42,24,48.3,100.71,Mainly Clear
2828,5777,8/28/2012 17:00,21.5,7.7,41,22,48.3,100.76,Mainly Clear
2829,5778,8/28/2012 18:00,20.0,7.3,44,20,48.3,100.79,Mainly Clear
2830,5779,8/28/2012 19:00,19.3,7.4,46,17,25.0,100.87,Mostly Cloudy
2831,5780,8/28/2012 20:00,16.9,6.9,52,15,25.0,100.97,Mainly Clear
2832,5781,8/28/2012 21:00,14.9,7.1,60,7,25.0,101.01,Mainly Clear
2833,5782,8/28/2012 22:00,13.9,7.4,65,9,25.0,101.01,Mainly Clear
2834,5783,8/28/2012 23:00,14.1,8.7,70,7,25.0,101.05,Mostly Cloudy
2835,5785,8/29/2012 1:00,11.5,8.0,79,9,25.0,101.07,Mostly Cloudy
2836,5786,8/29/2012 2:00,13.4,8.6,73,11,25.0,101.08,Mostly Cloudy
2837,5796,8/29/2012 12:00,22.6,8.2,40,26,48.3,101.01,Mainly Clear
2838,5799,8/29/2012 15:00,24.2,8.0,36,32,48.3,100.87,Mainly Clear
2839,5800,8/29/2012 16:00,24.2,8.1,36,24,48.3,100.86,Mainly Clear
2840,5801,8/29/2012 17:00,23.5,7.6,36,26,48.3,100.86,Mainly Clear
2841,5810,8/30/2012 2:00,15.4,12.1,81,11,25.0,100.97,Mostly Cloudy
2842,5811,8/30/2012 3:00,16.2,11.7,75,17,25.0,100.93,Mainly Clear
2843,5813,8/30/2012 5:00,15.5,11.7,78,20,48.3,100.97,Mainly Clear
2844,5814,8/30/2012 6:00,16.3,11.8,75,26,48.3,100.95,Mostly Cloudy
2845,5815,8/30/2012 7:00,16.8,11.8,72,20,24.1,100.95,Mainly Clear
2846,5816,8/30/2012 8:00,17.9,12.6,71,24,24.1,100.94,Mainly Clear
2847,5817,8/30/2012 9:00,19.6,13.2,67,32,48.3,100.93,Mainly Clear
2848,5818,8/30/2012 10:00,21.8,13.3,58,26,48.3,100.88,Mainly Clear
2849,5819,8/30/2012 11:00,23.1,14.0,57,33,48.3,100.84,Mainly Clear
2850,5820,8/30/2012 12:00,25.0,15.4,55,32,48.3,100.79,Mainly Clear
2851,5821,8/30/2012 13:00,26.7,16.6,54,15,48.3,100.73,Mainly Clear
2852,5822,8/30/2012 14:00,27.8,16.5,50,26,48.3,100.65,Mainly Clear
2853,5823,8/30/2012 15:00,28.5,17.0,50,35,48.3,100.61,Mainly Clear
2854,5824,8/30/2012 16:00,27.8,16.2,49,33,48.3,100.54,Mostly Cloudy
2855,5825,8/30/2012 17:00,27.4,16.5,51,15,48.3,100.53,Mostly Cloudy
2856,5826,8/30/2012 18:00,26.6,16.3,53,35,48.3,100.5,Mostly Cloudy
2857,5827,8/30/2012 19:00,25.5,16.3,57,15,25.0,100.49,Mostly Cloudy
2858,5828,8/30/2012 20:00,24.5,15.2,56,15,25.0,100.51,Mostly Cloudy
2859,5829,8/30/2012 21:00,24.5,15.6,58,15,25.0,100.53,Mainly Clear
2860,5830,8/30/2012 22:00,24.2,15.5,58,15,25.0,100.54,Mainly Clear
2861,5831,8/30/2012 23:00,23.7,15.6,60,15,25.0,100.57,Mainly Clear
2862,5833,8/31/2012 1:00,23.5,14.1,56,35,25.0,100.51,Mainly Clear
2863,5834,8/31/2012 2:00,23.2,13.9,56,35,25.0,100.5,Mainly Clear
2864,5835,8/31/2012 3:00,22.8,12.3,52,28,25.0,100.52,Mostly Cloudy
2865,5836,8/31/2012 4:00,22.8,13.0,54,28,25.0,100.47,Mostly Cloudy
2866,5837,8/31/2012 5:00,22.6,14.6,61,28,24.1,100.45,Mostly Cloudy
2867,5847,8/31/2012 15:00,25.6,18.6,65,30,24.1,100.35,Mostly Cloudy
2868,5848,8/31/2012 16:00,24.8,18.5,68,20,24.1,100.38,Mostly Cloudy
2869,5849,8/31/2012 17:00,25.0,18.4,67,17,24.1,100.41,Mostly Cloudy
2870,5850,8/31/2012 18:00,24.2,18.6,71,13,24.1,100.47,Mostly Cloudy
2871,5851,8/31/2012 19:00,23.1,18.9,77,9,25.0,100.52,Mainly Clear
2872,5852,8/31/2012 20:00,22.3,19.1,82,11,25.0,100.61,Mainly Clear
2873,5853,8/31/2012 21:00,21.6,19.0,85,11,25.0,100.65,Mainly Clear
2874,5854,8/31/2012 22:00,21.7,16.9,74,20,25.0,100.78,Mainly Clear
2875,5856,9/1/2012 0:00,19.6,13.1,66,11,25.0,100.94,Mainly Clear
2876,5857,9/1/2012 1:00,19.1,12.5,66,4,25.0,101.0,Mainly Clear
2877,5858,9/1/2012 2:00,19.1,12.6,66,9,25.0,101.05,Mainly Clear
2878,5859,9/1/2012 3:00,17.7,12.8,73,11,25.0,101.13,Mainly Clear
2879,5861,9/1/2012 5:00,16.0,12.9,82,13,25.0,101.31,Mainly Clear
2880,5862,9/1/2012 6:00,16.2,12.5,79,13,48.3,101.41,Mainly Clear
2881,5863,9/1/2012 7:00,17.8,10.6,63,24,48.3,101.48,Mainly Clear
2882,5864,9/1/2012 8:00,18.6,9.5,55,20,48.3,101.54,Mainly Clear
2883,5867,9/1/2012 11:00,22.7,6.2,34,15,48.3,101.6,Mainly Clear
2884,5879,9/1/2012 23:00,17.0,9.1,60,7,25.0,101.45,Mainly Clear
2885,5883,9/2/2012 3:00,13.0,9.5,79,0,25.0,101.43,Mainly Clear
2886,5884,9/2/2012 4:00,13.3,9.7,79,0,25.0,101.41,Mainly Clear
2887,5885,9/2/2012 5:00,14.2,10.2,77,6,25.0,101.43,Mainly Clear
2888,5886,9/2/2012 6:00,13.0,10.8,86,7,24.1,101.48,Mainly Clear
2889,5887,9/2/2012 7:00,15.5,11.6,78,4,48.3,101.49,Mainly Clear
2890,5888,9/2/2012 8:00,17.3,11.7,70,7,48.3,101.51,Mostly Cloudy
2891,5889,9/2/2012 9:00,19.1,11.5,61,4,48.3,101.52,Mostly Cloudy
2892,5890,9/2/2012 10:00,20.7,11.4,55,6,48.3,101.53,Mostly Cloudy
2893,5891,9/2/2012 11:00,21.8,10.3,48,4,48.3,101.52,Mostly Cloudy
2894,5892,9/2/2012 12:00,24.4,8.8,37,4,48.3,101.49,Mainly Clear
2895,5893,9/2/2012 13:00,25.5,7.0,31,9,48.3,101.47,Mainly Clear
2896,5894,9/2/2012 14:00,25.3,7.4,32,9,48.3,101.45,Mainly Clear
2897,5895,9/2/2012 15:00,25.6,6.5,29,7,48.3,101.41,Mainly Clear
2898,5896,9/2/2012 16:00,25.4,6.0,29,11,48.3,101.43,Mainly Clear
2899,5897,9/2/2012 17:00,23.6,6.9,34,9,48.3,101.44,Mainly Clear
2900,5898,9/2/2012 18:00,24.0,6.8,33,11,48.3,101.47,Mainly Clear
2901,5899,9/2/2012 19:00,20.9,8.4,45,13,48.3,101.51,Mainly Clear
2902,5901,9/2/2012 21:00,19.7,9.4,51,7,25.0,101.53,Mainly Clear
2903,5902,9/2/2012 22:00,19.2,10.0,55,4,25.0,101.57,Mainly Clear
2904,5905,9/3/2012 1:00,15.6,9.3,66,0,25.0,101.61,Mainly Clear
2905,5906,9/3/2012 2:00,13.7,8.9,73,6,25.0,101.59,Mainly Clear
2906,5907,9/3/2012 3:00,14.0,10.4,79,4,25.0,101.61,Mainly Clear
2907,5909,9/3/2012 5:00,14.5,10.3,76,6,25.0,101.68,Mainly Clear
2908,5910,9/3/2012 6:00,13.4,10.7,84,6,48.3,101.68,Mainly Clear
2909,5911,9/3/2012 7:00,16.3,12.2,77,7,48.3,101.69,Mainly Clear
2910,5912,9/3/2012 8:00,18.5,13.0,70,11,48.3,101.67,Mainly Clear
2911,5913,9/3/2012 9:00,21.1,11.8,55,9,48.3,101.65,Mainly Clear
2912,5914,9/3/2012 10:00,23.5,11.7,47,9,48.3,101.63,Mainly Clear
2913,5915,9/3/2012 11:00,24.3,10.9,43,9,48.3,101.59,Mainly Clear
2914,5916,9/3/2012 12:00,26.0,11.1,39,13,48.3,101.54,Mainly Clear
2915,5917,9/3/2012 13:00,26.2,10.0,36,4,48.3,101.5,Mainly Clear
2916,5918,9/3/2012 14:00,28.0,10.4,33,0,48.3,101.41,Mainly Clear
2917,5919,9/3/2012 15:00,27.8,10.5,34,13,48.3,101.33,Mainly Clear
2918,5920,9/3/2012 16:00,27.8,11.4,36,4,48.3,101.29,Mostly Cloudy
2919,5921,9/3/2012 17:00,26.6,12.8,42,13,48.3,101.25,Mostly Cloudy
2920,5922,9/3/2012 18:00,25.8,12.5,44,13,48.3,101.2,Mostly Cloudy
2921,5923,9/3/2012 19:00,25.3,12.4,45,9,25.0,101.19,Mostly Cloudy
2922,5924,9/3/2012 20:00,25.0,12.6,46,9,25.0,101.21,Mostly Cloudy
2923,5925,9/3/2012 21:00,24.2,12.8,49,15,25.0,101.19,Mainly Clear
2924,5926,9/3/2012 22:00,22.7,14.7,61,13,25.0,101.19,Mainly Clear
2925,5927,9/3/2012 23:00,21.1,15.8,72,11,25.0,101.18,Mainly Clear
2926,5928,9/4/2012 0:00,20.6,15.9,74,9,25.0,101.21,Mainly Clear
2927,5929,9/4/2012 1:00,21.1,16.0,73,9,25.0,101.2,Mostly Cloudy
2928,5930,9/4/2012 2:00,20.8,15.8,73,13,25.0,101.16,Mostly Cloudy
2929,5931,9/4/2012 3:00,20.9,15.3,70,7,25.0,101.14,Mostly Cloudy
2930,5933,9/4/2012 5:00,20.7,14.6,68,9,25.0,101.11,Mostly Cloudy
2931,5936,9/4/2012 8:00,21.1,16.4,75,15,24.1,101.11,Mostly Cloudy
2932,5937,9/4/2012 9:00,22.0,16.9,73,11,24.1,101.1,Mostly Cloudy
2933,5939,9/4/2012 11:00,25.0,17.5,63,15,24.1,101.02,Mostly Cloudy
2934,5956,9/5/2012 4:00,18.5,17.6,94,11,25.0,100.43,Mostly Cloudy
2935,5957,9/5/2012 5:00,17.6,17.1,97,7,25.0,100.46,Mostly Cloudy
2936,5958,9/5/2012 6:00,18.2,17.4,95,7,24.1,100.51,Mostly Cloudy
2937,5959,9/5/2012 7:00,19.5,18.3,93,11,24.1,100.55,Mainly Clear
2938,5960,9/5/2012 8:00,21.3,18.6,85,13,48.3,100.51,Mainly Clear
2939,5961,9/5/2012 9:00,22.4,18.5,79,15,24.1,100.54,Mostly Cloudy
2940,5962,9/5/2012 10:00,23.3,18.9,76,11,24.1,100.59,Mostly Cloudy
2941,5964,9/5/2012 12:00,25.5,19.2,68,11,24.1,100.54,Mainly Clear
2942,5965,9/5/2012 13:00,25.9,18.3,63,11,24.1,100.52,Mainly Clear
2943,5966,9/5/2012 14:00,26.4,18.1,60,13,24.1,100.49,Mainly Clear
2944,5967,9/5/2012 15:00,26.2,17.6,59,11,24.1,100.47,Mainly Clear
2945,5968,9/5/2012 16:00,27.0,17.7,57,9,24.1,100.45,Mainly Clear
2946,5969,9/5/2012 17:00,26.1,17.2,58,13,24.1,100.44,Mainly Clear
2947,5970,9/5/2012 18:00,25.8,17.1,59,9,24.1,100.5,Mainly Clear
2948,5971,9/5/2012 19:00,25.2,17.5,62,6,25.0,100.55,Mostly Cloudy
2949,5972,9/5/2012 20:00,24.2,18.7,71,7,25.0,100.57,Mostly Cloudy
2950,5974,9/5/2012 22:00,22.9,18.2,75,7,25.0,100.55,Mostly Cloudy
2951,5975,9/5/2012 23:00,22.1,18.1,78,6,25.0,100.53,Mainly Clear
2952,5976,9/6/2012 0:00,21.3,18.1,82,7,25.0,100.53,Mainly Clear
2953,5977,9/6/2012 1:00,21.0,18.4,85,7,25.0,100.55,Mostly Cloudy
2954,5978,9/6/2012 2:00,21.3,18.5,84,7,25.0,100.55,Mainly Clear
2955,5979,9/6/2012 3:00,21.1,18.5,85,6,25.0,100.55,Mostly Cloudy
2956,5980,9/6/2012 4:00,21.1,18.8,87,7,25.0,100.54,Mainly Clear
2957,5981,9/6/2012 5:00,21.0,18.1,84,6,25.0,100.61,Mostly Cloudy
2958,5982,9/6/2012 6:00,19.5,17.8,90,9,25.0,100.58,Mostly Cloudy
2959,5984,9/6/2012 8:00,21.1,18.1,83,7,24.1,100.62,Mostly Cloudy
2960,5985,9/6/2012 9:00,23.1,18.3,74,6,24.1,100.59,Mainly Clear
2961,5986,9/6/2012 10:00,24.7,17.8,65,6,24.1,100.55,Mainly Clear
2962,5987,9/6/2012 11:00,26.1,18.1,61,13,24.1,100.5,Mainly Clear
2963,5988,9/6/2012 12:00,26.8,17.3,56,15,24.1,100.45,Mainly Clear
2964,5989,9/6/2012 13:00,27.9,17.5,53,11,24.1,100.41,Mainly Clear
2965,5990,9/6/2012 14:00,28.1,17.8,54,13,24.1,100.34,Mostly Cloudy
2966,5991,9/6/2012 15:00,28.2,18.4,55,13,24.1,100.3,Mainly Clear
2967,5992,9/6/2012 16:00,27.6,17.9,56,19,24.1,100.31,Mainly Clear
2968,5993,9/6/2012 17:00,26.9,17.6,57,17,24.1,100.36,Mainly Clear
2969,5994,9/6/2012 18:00,24.8,16.5,60,9,24.1,100.38,Mainly Clear
2970,5995,9/6/2012 19:00,22.6,16.5,68,6,25.0,100.42,Mainly Clear
2971,5997,9/6/2012 21:00,21.4,15.1,67,7,25.0,100.52,Mainly Clear
2972,5998,9/6/2012 22:00,19.6,15.0,75,9,25.0,100.55,Mainly Clear
2973,5999,9/6/2012 23:00,20.2,14.6,70,0,25.0,100.59,Mainly Clear
2974,6002,9/7/2012 2:00,17.6,15.6,88,9,25.0,100.62,Mainly Clear
2975,6005,9/7/2012 5:00,15.8,14.3,91,7,25.0,100.72,Mainly Clear
2976,6006,9/7/2012 6:00,17.5,14.6,83,11,48.3,100.77,Mainly Clear
2977,6007,9/7/2012 7:00,18.6,14.4,77,15,48.3,100.81,Mostly Cloudy
2978,6008,9/7/2012 8:00,19.9,13.9,68,9,48.3,100.79,Mostly Cloudy
2979,6009,9/7/2012 9:00,21.2,14.4,65,19,48.3,100.8,Mostly Cloudy
2980,6010,9/7/2012 10:00,22.2,15.8,67,19,48.3,100.82,Mostly Cloudy
2981,6011,9/7/2012 11:00,22.6,15.4,64,19,48.3,100.84,Mostly Cloudy
2982,6013,9/7/2012 13:00,24.6,12.7,47,17,48.3,100.8,Mostly Cloudy
2983,6014,9/7/2012 14:00,25.6,12.5,44,9,48.3,100.76,Mostly Cloudy
2984,6015,9/7/2012 15:00,25.1,10.5,40,13,48.3,100.72,Mostly Cloudy
2985,6016,9/7/2012 16:00,25.0,9.9,38,6,48.3,100.7,Mostly Cloudy
2986,6019,9/7/2012 19:00,21.7,12.0,54,6,25.0,100.61,Mostly Cloudy
2987,6020,9/7/2012 20:00,23.2,11.9,49,4,25.0,100.58,Mostly Cloudy
2988,6043,9/8/2012 19:00,19.9,14.6,72,15,25.0,99.44,Mostly Cloudy
2989,6044,9/8/2012 20:00,19.2,13.2,68,15,25.0,99.51,Mainly Clear
2990,6045,9/8/2012 21:00,16.1,12.7,80,15,25.0,99.67,Mostly Cloudy
2991,6046,9/8/2012 22:00,14.2,10.8,80,30,25.0,99.87,Mostly Cloudy
2992,6050,9/9/2012 2:00,13.7,9.6,76,24,25.0,100.3,Mostly Cloudy
2993,6051,9/9/2012 3:00,12.6,9.4,81,17,25.0,100.28,Mainly Clear
2994,6052,9/9/2012 4:00,12.2,9.5,84,20,25.0,100.39,Mainly Clear
2995,6054,9/9/2012 6:00,11.0,9.6,91,6,24.1,100.5,Mainly Clear
2996,6055,9/9/2012 7:00,12.1,9.8,86,7,24.1,100.57,Mainly Clear
2997,6056,9/9/2012 8:00,13.7,9.9,78,17,24.1,100.6,Mainly Clear
2998,6057,9/9/2012 9:00,14.8,8.8,67,17,48.3,100.65,Mainly Clear
2999,6058,9/9/2012 10:00,15.7,9.0,64,17,48.3,100.69,Mostly Cloudy
3000,6059,9/9/2012 11:00,16.8,9.0,60,19,48.3,100.66,Mainly Clear
3001,6060,9/9/2012 12:00,17.3,8.9,58,22,48.3,100.65,Mainly Clear
3002,6061,9/9/2012 13:00,17.3,8.6,57,11,48.3,100.68,Mainly Clear
3003,6062,9/9/2012 14:00,18.1,8.4,53,19,48.3,100.67,Mostly Cloudy
3004,6063,9/9/2012 15:00,17.6,8.9,57,17,48.3,100.67,Mostly Cloudy
3005,6064,9/9/2012 16:00,17.9,8.4,54,22,48.3,100.71,Mainly Clear
3006,6065,9/9/2012 17:00,15.6,8.4,62,15,48.3,100.76,Mainly Clear
3007,6066,9/9/2012 18:00,15.5,8.6,63,11,48.3,100.8,Mostly Cloudy
3008,6067,9/9/2012 19:00,15.2,8.6,65,11,25.0,100.83,Mostly Cloudy
3009,6068,9/9/2012 20:00,14.1,8.6,69,9,25.0,100.87,Mostly Cloudy
3010,6069,9/9/2012 21:00,13.7,9.0,73,9,25.0,100.89,Mostly Cloudy
3011,6070,9/9/2012 22:00,14.2,9.0,71,9,25.0,100.9,Mostly Cloudy
3012,6072,9/10/2012 0:00,13.4,10.2,81,9,25.0,100.94,Mostly Cloudy
3013,6073,9/10/2012 1:00,13.0,10.3,84,9,25.0,100.95,Mostly Cloudy
3014,6074,9/10/2012 2:00,12.7,9.9,83,11,25.0,100.96,Mostly Cloudy
3015,6075,9/10/2012 3:00,12.4,9.5,82,11,25.0,100.98,Mostly Cloudy
3016,6076,9/10/2012 4:00,11.3,8.7,84,13,25.0,101.0,Mainly Clear
3017,6077,9/10/2012 5:00,10.4,8.5,88,17,25.0,101.05,Mainly Clear
3018,6078,9/10/2012 6:00,10.1,8.1,87,17,24.1,101.15,Mainly Clear
3019,6079,9/10/2012 7:00,11.5,7.6,77,15,24.1,101.23,Mainly Clear
3020,6080,9/10/2012 8:00,12.8,7.1,68,19,24.1,101.29,Mostly Cloudy
3021,6081,9/10/2012 9:00,13.3,7.3,67,15,24.1,101.33,Mainly Clear
3022,6082,9/10/2012 10:00,14.4,6.5,59,15,24.1,101.32,Mostly Cloudy
3023,6083,9/10/2012 11:00,14.9,6.3,56,19,48.3,101.31,Mostly Cloudy
3024,6084,9/10/2012 12:00,16.0,6.1,52,20,48.3,101.31,Mostly Cloudy
3025,6085,9/10/2012 13:00,16.6,6.0,50,13,48.3,101.32,Mostly Cloudy
3026,6086,9/10/2012 14:00,17.5,6.1,47,20,48.3,101.3,Mostly Cloudy
3027,6087,9/10/2012 15:00,17.8,5.9,46,24,24.1,101.27,Mostly Cloudy
3028,6088,9/10/2012 16:00,16.7,5.1,46,20,48.3,101.31,Mostly Cloudy
3029,6089,9/10/2012 17:00,16.1,4.9,47,20,48.3,101.39,Mostly Cloudy
3030,6090,9/10/2012 18:00,14.5,4.9,52,17,24.1,101.43,Mostly Cloudy
3031,6091,9/10/2012 19:00,13.5,4.9,56,9,25.0,101.47,Mainly Clear
3032,6102,9/11/2012 6:00,7.6,6.3,91,6,24.1,101.83,Mainly Clear
3033,6103,9/11/2012 7:00,11.0,8.4,84,9,48.3,101.89,Mostly Cloudy
3034,6104,9/11/2012 8:00,13.2,8.9,75,9,48.3,101.92,Mostly Cloudy
3035,6105,9/11/2012 9:00,15.1,8.6,65,13,48.3,101.95,Mostly Cloudy
3036,6106,9/11/2012 10:00,16.8,8.9,60,17,48.3,101.93,Mostly Cloudy
3037,6107,9/11/2012 11:00,18.4,8.4,52,19,48.3,101.89,Mainly Clear
3038,6108,9/11/2012 12:00,18.9,9.1,53,19,48.3,101.87,Mainly Clear
3039,6109,9/11/2012 13:00,20.6,9.7,50,20,48.3,101.81,Mainly Clear
3040,6110,9/11/2012 14:00,21.0,8.9,46,20,48.3,101.75,Mainly Clear
3041,6111,9/11/2012 15:00,21.3,8.4,44,19,48.3,101.69,Mainly Clear
3042,6112,9/11/2012 16:00,21.5,8.9,44,20,48.3,101.67,Mainly Clear
3043,6113,9/11/2012 17:00,21.4,9.4,46,20,48.3,101.67,Mainly Clear
3044,6114,9/11/2012 18:00,20.7,10.3,51,17,48.3,101.66,Mainly Clear
3045,6115,9/11/2012 19:00,19.8,11.1,57,9,25.0,101.68,Mainly Clear
3046,6116,9/11/2012 20:00,19.8,11.6,59,15,25.0,101.73,Mainly Clear
3047,6130,9/12/2012 10:00,21.9,13.2,58,11,48.3,102.02,Mainly Clear
3048,6132,9/12/2012 12:00,25.3,13.4,48,19,48.3,101.95,Mainly Clear
3049,6133,9/12/2012 13:00,26.1,14.0,47,13,48.3,101.87,Mainly Clear
3050,6134,9/12/2012 14:00,26.9,13.5,44,17,48.3,101.84,Mainly Clear
3051,6135,9/12/2012 15:00,27.3,13.4,42,17,48.3,101.8,Mainly Clear
3052,6136,9/12/2012 16:00,27.3,12.2,39,19,48.3,101.77,Mainly Clear
3053,6137,9/12/2012 17:00,26.8,11.6,39,17,48.3,101.77,Mainly Clear
3054,6138,9/12/2012 18:00,25.0,12.9,47,11,48.3,101.78,Mainly Clear
3055,6139,9/12/2012 19:00,22.2,15.0,64,11,25.0,101.83,Mainly Clear
3056,6140,9/12/2012 20:00,22.4,14.0,59,11,25.0,101.88,Mainly Clear
3057,6142,9/12/2012 22:00,21.0,14.4,66,13,25.0,101.95,Mainly Clear
3058,6143,9/12/2012 23:00,20.2,14.6,70,11,25.0,101.96,Mainly Clear
3059,6144,9/13/2012 0:00,19.8,13.6,67,9,25.0,101.96,Mainly Clear
3060,6145,9/13/2012 1:00,19.5,13.4,68,7,25.0,101.97,Mainly Clear
3061,6146,9/13/2012 2:00,16.3,12.9,80,11,25.0,101.98,Mainly Clear
3062,6150,9/13/2012 6:00,15.7,12.4,81,6,48.3,102.02,Mainly Clear
3063,6151,9/13/2012 7:00,18.1,13.8,76,6,48.3,102.03,Mainly Clear
3064,6152,9/13/2012 8:00,19.8,12.8,64,9,48.3,102.04,Mainly Clear
3065,6153,9/13/2012 9:00,21.5,13.7,61,13,48.3,102.05,Mainly Clear
3066,6154,9/13/2012 10:00,22.6,14.2,59,17,48.3,102.05,Mainly Clear
3067,6155,9/13/2012 11:00,24.6,14.8,54,15,48.3,102.02,Mainly Clear
3068,6156,9/13/2012 12:00,26.2,14.9,50,17,48.3,101.97,Mainly Clear
3069,6157,9/13/2012 13:00,27.3,14.2,45,19,48.3,101.89,Mainly Clear
3070,6158,9/13/2012 14:00,27.9,13.7,42,24,48.3,101.82,Mainly Clear
3071,6159,9/13/2012 15:00,28.2,13.9,42,22,48.3,101.77,Mainly Clear
3072,6160,9/13/2012 16:00,28.4,14.0,41,19,48.3,101.73,Mainly Clear
3073,6161,9/13/2012 17:00,27.8,13.1,40,20,48.3,101.73,Mainly Clear
3074,6162,9/13/2012 18:00,26.0,14.7,50,9,48.3,101.71,Mainly Clear
3075,6163,9/13/2012 19:00,24.2,15.8,59,11,25.0,101.72,Mainly Clear
3076,6165,9/13/2012 21:00,22.3,16.0,68,13,25.0,101.71,Mainly Clear
3077,6166,9/13/2012 22:00,21.8,15.2,66,15,25.0,101.7,Mainly Clear
3078,6173,9/14/2012 5:00,16.4,14.1,86,4,25.0,101.65,Mostly Cloudy
3079,6176,9/14/2012 8:00,19.5,15.1,76,9,24.1,101.63,Mostly Cloudy
3080,6178,9/14/2012 10:00,22.6,15.4,64,13,24.1,101.56,Mostly Cloudy
3081,6182,9/14/2012 14:00,27.3,16.4,51,9,48.3,101.27,Mostly Cloudy
3082,6196,9/15/2012 4:00,14.2,12.2,88,30,25.0,101.12,Mostly Cloudy
3083,6198,9/15/2012 6:00,13.4,11.1,86,22,24.1,101.25,Mostly Cloudy
3084,6199,9/15/2012 7:00,13.8,10.5,80,20,24.1,101.36,Mostly Cloudy
3085,6200,9/15/2012 8:00,14.6,10.5,76,19,24.1,101.44,Mainly Clear
3086,6201,9/15/2012 9:00,14.9,9.7,71,19,24.1,101.5,Mostly Cloudy
3087,6202,9/15/2012 10:00,16.0,9.6,66,22,24.1,101.51,Mostly Cloudy
3088,6203,9/15/2012 11:00,16.1,7.8,58,22,48.3,101.49,Mostly Cloudy
3089,6204,9/15/2012 12:00,16.6,7.3,54,17,48.3,101.49,Mostly Cloudy
3090,6205,9/15/2012 13:00,16.6,7.9,56,20,48.3,101.44,Mostly Cloudy
3091,6207,9/15/2012 15:00,14.2,11.4,83,13,24.1,101.41,Mostly Cloudy
3092,6208,9/15/2012 16:00,16.6,9.2,62,17,24.1,101.36,Mainly Clear
3093,6210,9/15/2012 18:00,13.3,8.6,73,7,24.1,101.4,Mostly Cloudy
3094,6211,9/15/2012 19:00,12.7,7.1,69,13,25.0,101.42,Mainly Clear
3095,6212,9/15/2012 20:00,11.6,6.3,70,11,25.0,101.46,Mainly Clear
3096,6213,9/15/2012 21:00,9.9,6.1,77,13,25.0,101.48,Mainly Clear
3097,6225,9/16/2012 9:00,13.1,3.0,50,19,48.3,101.57,Mainly Clear
3098,6226,9/16/2012 10:00,14.0,4.3,52,20,48.3,101.53,Mainly Clear
3099,6227,9/16/2012 11:00,14.9,3.9,48,20,48.3,101.49,Mainly Clear
3100,6228,9/16/2012 12:00,15.3,3.2,44,19,48.3,101.44,Mainly Clear
3101,6229,9/16/2012 13:00,15.7,2.9,42,24,48.3,101.35,Mainly Clear
3102,6230,9/16/2012 14:00,16.6,3.8,42,24,48.3,101.3,Mainly Clear
3103,6235,9/16/2012 19:00,14.2,3.9,50,6,25.0,101.18,Mainly Clear
3104,6243,9/17/2012 3:00,10.1,8.4,89,7,25.0,101.16,Mostly Cloudy
3105,6249,9/17/2012 9:00,16.8,13.1,79,13,24.1,101.13,Mainly Clear
3106,6250,9/17/2012 10:00,18.2,13.6,75,17,24.1,101.11,Mainly Clear
3107,6251,9/17/2012 11:00,19.9,14.9,73,15,24.1,101.09,Mainly Clear
3108,6252,9/17/2012 12:00,21.8,14.2,62,17,24.1,101.06,Mainly Clear
3109,6253,9/17/2012 13:00,23.5,14.1,56,17,24.1,101.01,Mainly Clear
3110,6256,9/17/2012 16:00,25.0,12.5,46,13,24.1,100.87,Mainly Clear
3111,6258,9/17/2012 18:00,22.1,14.8,63,15,24.1,100.88,Mainly Clear
3112,6259,9/17/2012 19:00,20.6,15.1,71,15,25.0,100.9,Mainly Clear
3113,6260,9/17/2012 20:00,20.0,15.4,75,13,25.0,100.88,Mainly Clear
3114,6261,9/17/2012 21:00,19.3,15.3,78,0,25.0,100.88,Mainly Clear
3115,6262,9/17/2012 22:00,18.8,15.1,79,6,25.0,100.83,Mainly Clear
3116,6263,9/17/2012 23:00,17.0,15.0,88,7,25.0,100.84,Mainly Clear
3117,6264,9/18/2012 0:00,16.2,14.2,88,6,25.0,100.84,Mainly Clear
3118,6265,9/18/2012 1:00,16.9,12.5,75,0,25.0,100.81,Mainly Clear
3119,6267,9/18/2012 3:00,16.1,13.0,82,19,25.0,100.67,Mostly Cloudy
3120,6268,9/18/2012 4:00,16.2,12.9,81,17,25.0,100.59,Mostly Cloudy
3121,6269,9/18/2012 5:00,16.1,12.8,81,24,25.0,100.52,Mostly Cloudy
3122,6270,9/18/2012 6:00,16.4,12.9,80,22,24.1,100.49,Mainly Clear
3123,6271,9/18/2012 7:00,16.9,13.1,78,20,24.1,100.44,Mostly Cloudy
3124,6289,9/19/2012 1:00,11.0,9.1,88,28,25.0,99.95,Mostly Cloudy
3125,6293,9/19/2012 5:00,8.2,4.8,79,30,25.0,100.63,Mostly Cloudy
3126,6295,9/19/2012 7:00,8.2,4.1,75,33,24.1,100.92,Mostly Cloudy
3127,6296,9/19/2012 8:00,8.6,4.1,73,26,24.1,101.04,Mostly Cloudy
3128,6297,9/19/2012 9:00,9.2,4.1,70,32,24.1,101.13,Mostly Cloudy
3129,6298,9/19/2012 10:00,11.0,3.6,60,32,48.3,101.19,Mostly Cloudy
3130,6299,9/19/2012 11:00,12.0,3.9,58,24,48.3,101.29,Mostly Cloudy
3131,6300,9/19/2012 12:00,13.2,4.0,54,22,48.3,101.37,Mostly Cloudy
3132,6301,9/19/2012 13:00,13.6,2.7,48,24,48.3,101.41,Mostly Cloudy
3133,6302,9/19/2012 14:00,14.5,3.0,46,24,48.3,101.45,Mainly Clear
3134,6303,9/19/2012 15:00,14.3,0.9,40,15,48.3,101.49,Mainly Clear
3135,6304,9/19/2012 16:00,14.2,2.2,44,19,48.3,101.6,Mainly Clear
3136,6305,9/19/2012 17:00,12.7,2.3,49,11,48.3,101.66,Mainly Clear
3137,6325,9/20/2012 13:00,18.3,6.7,47,22,48.3,101.48,Mainly Clear
3138,6326,9/20/2012 14:00,19.3,6.9,44,15,48.3,101.43,Mainly Clear
3139,6332,9/20/2012 20:00,15.6,7.9,60,20,25.0,101.24,Mainly Clear
3140,6335,9/20/2012 23:00,14.0,8.9,71,19,25.0,101.24,Mainly Clear
3141,6336,9/21/2012 0:00,13.7,9.6,76,19,25.0,101.23,Mainly Clear
3142,6337,9/21/2012 1:00,13.1,9.9,81,20,25.0,101.23,Mainly Clear
3143,6338,9/21/2012 2:00,13.5,10.5,82,19,25.0,101.18,Mostly Cloudy
3144,6339,9/21/2012 3:00,13.9,11.0,83,15,25.0,101.14,Mostly Cloudy
3145,6341,9/21/2012 5:00,14.4,11.2,81,19,25.0,101.17,Mostly Cloudy
3146,6342,9/21/2012 6:00,14.4,11.4,82,19,48.3,101.19,Mostly Cloudy
3147,6351,9/21/2012 15:00,19.3,13.9,71,13,24.1,100.93,Mostly Cloudy
3148,6366,9/22/2012 6:00,15.6,12.8,83,26,24.1,100.43,Mostly Cloudy
3149,6367,9/22/2012 7:00,16.2,12.8,80,33,24.1,100.36,Mostly Cloudy
3150,6368,9/22/2012 8:00,16.4,13.1,81,32,48.3,100.25,Mostly Cloudy
3151,6370,9/22/2012 10:00,18.5,13.8,74,33,24.1,100.14,Mostly Cloudy
3152,6376,9/22/2012 16:00,16.8,15.2,90,15,24.1,100.28,Mostly Cloudy
3153,6377,9/22/2012 17:00,16.4,14.9,91,13,24.1,100.32,Mostly Cloudy
3154,6384,9/23/2012 0:00,14.2,10.4,78,26,25.0,100.41,Mostly Cloudy
3155,6385,9/23/2012 1:00,12.8,9.6,81,17,25.0,100.46,Mostly Cloudy
3156,6386,9/23/2012 2:00,12.2,8.3,77,26,25.0,100.56,Mostly Cloudy
3157,6388,9/23/2012 4:00,11.0,7.4,78,24,25.0,100.63,Mostly Cloudy
3158,6389,9/23/2012 5:00,10.2,7.3,82,20,25.0,100.7,Mainly Clear
3159,6390,9/23/2012 6:00,9.9,7.4,84,19,24.1,100.77,Mainly Clear
3160,6391,9/23/2012 7:00,10.6,7.8,83,20,24.1,100.82,Mainly Clear
3161,6392,9/23/2012 8:00,11.3,7.6,78,28,48.3,100.89,Mainly Clear
3162,6393,9/23/2012 9:00,12.0,6.8,70,24,48.3,100.9,Mainly Clear
3163,6394,9/23/2012 10:00,13.2,5.6,60,33,48.3,100.97,Mainly Clear
3164,6395,9/23/2012 11:00,13.5,4.0,53,28,48.3,101.0,Mainly Clear
3165,6396,9/23/2012 12:00,15.6,4.5,48,26,48.3,101.0,Mainly Clear
3166,6397,9/23/2012 13:00,14.6,4.2,50,30,48.3,101.01,Mainly Clear
3167,6398,9/23/2012 14:00,16.0,4.1,45,28,48.3,101.02,Mainly Clear
3168,6399,9/23/2012 15:00,15.1,4.6,49,24,48.3,101.04,Mainly Clear
3169,6400,9/23/2012 16:00,15.1,5.7,53,15,48.3,101.07,Mainly Clear
3170,6401,9/23/2012 17:00,14.3,3.4,48,20,48.3,101.11,Mainly Clear
3171,6402,9/23/2012 18:00,10.9,4.3,64,9,25.0,101.17,Mainly Clear
3172,6403,9/23/2012 19:00,9.8,5.3,74,4,25.0,101.23,Mainly Clear
3173,6404,9/23/2012 20:00,11.4,4.7,63,9,25.0,101.31,Mainly Clear
3174,6405,9/23/2012 21:00,8.7,5.2,79,7,25.0,101.38,Mainly Clear
3175,6406,9/23/2012 22:00,7.2,4.9,85,7,25.0,101.41,Mainly Clear
3176,6407,9/23/2012 23:00,9.2,5.2,76,7,25.0,101.43,Mostly Cloudy
3177,6408,9/24/2012 0:00,7.7,5.1,84,0,25.0,101.42,Mainly Clear
3178,6409,9/24/2012 1:00,5.7,4.3,91,6,25.0,101.41,Mainly Clear
3179,6412,9/24/2012 4:00,7.2,5.0,86,4,25.0,101.42,Mainly Clear
3180,6413,9/24/2012 5:00,8.0,7.8,99,0,25.0,101.44,Mostly Cloudy
3181,6414,9/24/2012 6:00,6.9,6.8,99,9,48.3,101.47,Mostly Cloudy
3182,6415,9/24/2012 7:00,7.9,7.5,97,6,48.3,101.48,Mostly Cloudy
3183,6416,9/24/2012 8:00,9.9,7.5,85,13,48.3,101.51,Mainly Clear
3184,6417,9/24/2012 9:00,11.0,7.9,81,13,48.3,101.49,Mainly Clear
3185,6418,9/24/2012 10:00,12.8,7.5,70,22,48.3,101.46,Mainly Clear
3186,6419,9/24/2012 11:00,14.2,5.5,56,28,48.3,101.44,Mainly Clear
3187,6420,9/24/2012 12:00,15.0,5.7,54,20,48.3,101.37,Mainly Clear
3188,6421,9/24/2012 13:00,15.8,3.2,43,28,48.3,101.28,Mainly Clear
3189,6422,9/24/2012 14:00,16.6,3.7,42,32,48.3,101.23,Mainly Clear
3190,6423,9/24/2012 15:00,16.3,3.6,43,24,48.3,101.13,Mainly Clear
3191,6424,9/24/2012 16:00,16.4,4.5,45,26,48.3,101.09,Mainly Clear
3192,6425,9/24/2012 17:00,15.3,5.2,51,28,48.3,101.06,Mainly Clear
3193,6426,9/24/2012 18:00,14.4,5.8,56,22,25.0,101.03,Mainly Clear
3194,6427,9/24/2012 19:00,13.8,5.6,58,33,25.0,101.05,Mainly Clear
3195,6428,9/24/2012 20:00,12.1,6.3,68,15,25.0,101.06,Mainly Clear
3196,6429,9/24/2012 21:00,11.7,6.2,69,17,25.0,101.06,Mostly Cloudy
3197,6430,9/24/2012 22:00,12.6,5.6,62,17,25.0,101.08,Mostly Cloudy
3198,6431,9/24/2012 23:00,12.1,5.6,64,20,25.0,101.04,Mainly Clear
3199,6432,9/25/2012 0:00,11.9,6.0,67,17,25.0,101.02,Mostly Cloudy
3200,6433,9/25/2012 1:00,12.1,6.4,68,19,25.0,100.92,Mostly Cloudy
3201,6434,9/25/2012 2:00,11.7,5.3,65,20,25.0,100.88,Mostly Cloudy
3202,6435,9/25/2012 3:00,11.2,5.5,68,20,25.0,100.85,Mostly Cloudy
3203,6436,9/25/2012 4:00,11.6,5.3,65,24,25.0,100.85,Mostly Cloudy
3204,6438,9/25/2012 6:00,12.4,6.1,65,19,48.3,100.89,Mostly Cloudy
3205,6439,9/25/2012 7:00,13.0,6.9,66,28,48.3,100.89,Mainly Clear
3206,6440,9/25/2012 8:00,14.1,7.2,63,24,48.3,100.92,Mainly Clear
3207,6441,9/25/2012 9:00,16.3,8.6,60,32,48.3,100.93,Mainly Clear
3208,6442,9/25/2012 10:00,17.4,9.0,58,35,48.3,100.92,Mainly Clear
3209,6443,9/25/2012 11:00,18.0,9.2,56,28,48.3,100.94,Mainly Clear
3210,6444,9/25/2012 12:00,18.1,9.6,58,30,48.3,100.99,Mostly Cloudy
3211,6445,9/25/2012 13:00,18.9,9.9,56,33,48.3,100.99,Mostly Cloudy
3212,6446,9/25/2012 14:00,19.0,10.4,57,32,48.3,100.97,Mostly Cloudy
3213,6447,9/25/2012 15:00,19.0,10.2,57,28,48.3,100.98,Mostly Cloudy
3214,6448,9/25/2012 16:00,19.2,9.5,53,19,48.3,100.98,Mostly Cloudy
3215,6449,9/25/2012 17:00,18.8,10.5,59,9,48.3,100.98,Mainly Clear
3216,6450,9/25/2012 18:00,17.8,10.9,64,13,24.1,100.99,Mainly Clear
3217,6452,9/25/2012 20:00,15.7,10.6,72,7,25.0,101.03,Mainly Clear
3218,6453,9/25/2012 21:00,14.3,10.5,78,13,25.0,101.06,Mostly Cloudy
3219,6454,9/25/2012 22:00,13.1,9.5,79,7,25.0,101.05,Mainly Clear
3220,6456,9/26/2012 0:00,14.2,9.9,75,15,25.0,101.02,Mostly Cloudy
3221,6457,9/26/2012 1:00,14.0,9.7,75,17,25.0,100.96,Mostly Cloudy
3222,6458,9/26/2012 2:00,14.1,9.3,73,17,25.0,100.89,Mostly Cloudy
3223,6459,9/26/2012 3:00,14.7,8.7,67,17,25.0,100.87,Mostly Cloudy
3224,6460,9/26/2012 4:00,14.6,9.0,69,17,25.0,100.88,Mostly Cloudy
3225,6461,9/26/2012 5:00,15.1,9.2,68,17,25.0,100.84,Mostly Cloudy
3226,6471,9/26/2012 15:00,17.6,15.6,88,11,24.1,100.75,Mostly Cloudy
3227,6473,9/26/2012 17:00,16.1,12.6,80,19,24.1,100.86,Mostly Cloudy
3228,6474,9/26/2012 18:00,14.6,10.2,75,17,24.1,101.0,Mostly Cloudy
3229,6475,9/26/2012 19:00,13.6,9.5,76,7,25.0,101.09,Mostly Cloudy
3230,6478,9/26/2012 22:00,12.6,7.5,71,7,25.0,101.39,Mostly Cloudy
3231,6479,9/26/2012 23:00,11.9,6.2,68,7,25.0,101.46,Mostly Cloudy
3232,6480,9/27/2012 0:00,10.1,6.0,76,7,25.0,101.51,Mainly Clear
3233,6481,9/27/2012 1:00,8.3,6.3,87,9,25.0,101.54,Mainly Clear
3234,6482,9/27/2012 2:00,7.4,5.9,90,9,25.0,101.56,Mainly Clear
3235,6489,9/27/2012 9:00,10.9,5.1,67,9,48.3,102.03,Mainly Clear
3236,6490,9/27/2012 10:00,12.8,4.4,57,4,48.3,102.06,Mainly Clear
3237,6491,9/27/2012 11:00,12.8,3.5,53,6,48.3,102.04,Mainly Clear
3238,6492,9/27/2012 12:00,12.9,3.8,54,4,48.3,102.04,Mainly Clear
3239,6493,9/27/2012 13:00,13.6,4.5,54,11,48.3,101.99,Mostly Cloudy
3240,6494,9/27/2012 14:00,14.9,4.4,49,4,48.3,101.95,Mainly Clear
3241,6495,9/27/2012 15:00,15.1,4.7,50,9,48.3,101.93,Mainly Clear
3242,6496,9/27/2012 16:00,15.1,3.7,46,11,48.3,101.93,Mainly Clear
3243,6497,9/27/2012 17:00,14.6,3.6,48,7,48.3,101.94,Mainly Clear
3244,6498,9/27/2012 18:00,13.1,3.8,53,7,48.3,101.97,Mainly Clear
3245,6500,9/27/2012 20:00,11.5,4.9,64,4,25.0,102.01,Mainly Clear
3246,6505,9/28/2012 1:00,8.0,4.7,80,7,25.0,101.98,Mainly Clear
3247,6506,9/28/2012 2:00,8.9,5.2,78,6,25.0,101.94,Mainly Clear
3248,6509,9/28/2012 5:00,5.1,4.6,97,7,25.0,101.87,Mainly Clear
3249,6510,9/28/2012 6:00,5.3,4.1,92,9,48.3,101.83,Mainly Clear
3250,6511,9/28/2012 7:00,7.6,4.7,82,11,48.3,101.8,Mainly Clear
3251,6512,9/28/2012 8:00,9.3,5.8,79,9,48.3,101.81,Mainly Clear
3252,6513,9/28/2012 9:00,10.7,5.3,69,13,48.3,101.76,Mostly Cloudy
3253,6514,9/28/2012 10:00,13.3,6.0,61,13,48.3,101.67,Mostly Cloudy
3254,6515,9/28/2012 11:00,14.6,5.2,53,13,48.3,101.62,Mostly Cloudy
3255,6516,9/28/2012 12:00,15.8,7.1,56,7,48.3,101.55,Mostly Cloudy
3256,6517,9/28/2012 13:00,16.6,6.9,53,9,48.3,101.42,Mainly Clear
3257,6518,9/28/2012 14:00,16.7,8.7,59,17,24.1,101.37,Mostly Cloudy
3258,6519,9/28/2012 15:00,15.6,9.6,67,19,24.1,101.35,Mostly Cloudy
3259,6520,9/28/2012 16:00,14.2,10.0,76,17,24.1,101.33,Mostly Cloudy
3260,6521,9/28/2012 17:00,13.3,10.1,81,17,24.1,101.34,Mostly Cloudy
3261,6522,9/28/2012 18:00,12.9,10.0,83,15,24.1,101.33,Mostly Cloudy
3262,6523,9/28/2012 19:00,13.0,10.0,82,15,25.0,101.35,Mostly Cloudy
3263,6524,9/28/2012 20:00,13.1,10.1,82,4,25.0,101.34,Mostly Cloudy
3264,6525,9/28/2012 21:00,13.1,9.8,80,7,25.0,101.32,Mostly Cloudy
3265,6526,9/28/2012 22:00,13.1,9.8,80,9,25.0,101.3,Mostly Cloudy
3266,6537,9/29/2012 9:00,12.4,9.6,83,22,24.1,101.27,Mostly Cloudy
3267,6585,10/1/2012 9:00,14.0,12.3,89,19,24.1,99.8,Mostly Cloudy
3268,6593,10/1/2012 17:00,14.9,11.4,80,17,48.3,100.45,Mostly Cloudy
3269,6595,10/1/2012 19:00,14.6,11.7,83,9,25.0,100.57,Mostly Cloudy
3270,6596,10/1/2012 20:00,13.8,11.7,87,9,25.0,100.61,Mostly Cloudy
3271,6597,10/1/2012 21:00,13.8,12.0,89,6,25.0,100.65,Mostly Cloudy
3272,6598,10/1/2012 22:00,13.1,12.7,97,6,25.0,100.66,Mostly Cloudy
3273,6599,10/1/2012 23:00,14.2,12.9,92,22,25.0,100.75,Mostly Cloudy
3274,6600,10/2/2012 0:00,13.5,12.7,95,9,25.0,100.74,Mostly Cloudy
3275,6601,10/2/2012 1:00,12.8,12.6,99,9,25.0,100.76,Mostly Cloudy
3276,6602,10/2/2012 2:00,12.4,12.3,99,7,19.3,100.77,Mostly Cloudy
3277,6603,10/2/2012 3:00,12.1,11.8,98,7,19.3,100.82,Mainly Clear
3278,6605,10/2/2012 5:00,11.1,11.0,99,6,16.1,100.92,Mainly Clear
3279,6606,10/2/2012 6:00,11.2,11.2,100,0,48.3,100.96,Mostly Cloudy
3280,6607,10/2/2012 7:00,11.9,11.8,99,4,24.1,101.04,Mostly Cloudy
3281,6608,10/2/2012 8:00,13.0,12.4,96,9,24.1,101.08,Mostly Cloudy
3282,6611,10/2/2012 11:00,16.6,13.9,84,7,24.1,101.08,Mostly Cloudy
3283,6612,10/2/2012 12:00,18.2,13.6,75,13,24.1,101.1,Mostly Cloudy
3284,6614,10/2/2012 14:00,18.7,12.4,67,11,24.1,101.03,Mostly Cloudy
3285,6615,10/2/2012 15:00,18.8,11.5,63,9,24.1,101.08,Mostly Cloudy
3286,6616,10/2/2012 16:00,18.7,12.6,68,6,24.1,101.06,Mostly Cloudy
3287,6617,10/2/2012 17:00,17.9,13.9,77,9,24.1,101.1,Mostly Cloudy
3288,6618,10/2/2012 18:00,16.6,13.3,81,9,24.1,101.16,Mainly Clear
3289,6619,10/2/2012 19:00,15.0,13.3,90,11,25.0,101.18,Mainly Clear
3290,6620,10/2/2012 20:00,14.6,13.0,90,9,25.0,101.22,Mainly Clear
3291,6621,10/2/2012 21:00,14.0,12.8,92,6,25.0,101.27,Mainly Clear
3292,6636,10/3/2012 12:00,16.9,13.2,79,19,24.1,101.42,Mostly Cloudy
3293,6637,10/3/2012 13:00,17.5,13.5,77,13,19.3,101.4,Mostly Cloudy
3294,6670,10/4/2012 22:00,15.3,13.8,91,13,12.9,101.01,Mainly Clear
3295,6672,10/5/2012 0:00,15.8,12.7,82,11,12.9,100.94,Mainly Clear
3296,6673,10/5/2012 1:00,15.3,12.6,84,15,12.9,100.94,Mainly Clear
3297,6678,10/5/2012 6:00,13.7,12.9,95,4,16.1,100.93,Mainly Clear
3298,6679,10/5/2012 7:00,15.3,14.0,92,6,24.1,100.92,Mainly Clear
3299,6680,10/5/2012 8:00,16.8,14.3,85,9,24.1,100.92,Mostly Cloudy
3300,6681,10/5/2012 9:00,17.3,13.6,79,13,24.1,100.84,Mostly Cloudy
3301,6686,10/5/2012 14:00,20.2,15.6,75,19,24.1,100.6,Mostly Cloudy
3302,6708,10/6/2012 12:00,10.9,9.3,90,17,24.1,100.32,Mostly Cloudy
3303,6710,10/6/2012 14:00,13.8,8.9,72,17,24.1,100.28,Mostly Cloudy
3304,6711,10/6/2012 15:00,14.4,8.8,69,28,48.3,100.25,Mainly Clear
3305,6712,10/6/2012 16:00,14.6,7.7,63,28,48.3,100.26,Mainly Clear
3306,6713,10/6/2012 17:00,12.0,7.9,76,9,48.3,100.32,Mostly Cloudy
3307,6714,10/6/2012 18:00,9.7,7.2,84,19,25.0,100.43,Mostly Cloudy
3308,6715,10/6/2012 19:00,10.2,5.9,75,26,25.0,100.52,Mostly Cloudy
3309,6716,10/6/2012 20:00,9.8,5.5,75,17,25.0,100.58,Mainly Clear
3310,6717,10/6/2012 21:00,9.7,5.2,74,19,25.0,100.66,Mainly Clear
3311,6718,10/6/2012 22:00,9.2,4.4,72,26,25.0,100.75,Mainly Clear
3312,6719,10/6/2012 23:00,8.7,4.0,72,22,25.0,100.79,Mainly Clear
3313,6720,10/7/2012 0:00,8.8,4.2,73,28,25.0,100.82,Mostly Cloudy
3314,6721,10/7/2012 1:00,8.4,4.4,76,17,25.0,100.9,Mainly Clear
3315,6722,10/7/2012 2:00,7.0,4.2,82,15,25.0,100.93,Mainly Clear
3316,6723,10/7/2012 3:00,6.5,3.9,83,11,25.0,101.01,Mainly Clear
3317,6725,10/7/2012 5:00,5.7,3.8,88,7,25.0,101.19,Mostly Cloudy
3318,6726,10/7/2012 6:00,5.9,3.7,86,11,24.1,101.25,Mostly Cloudy
3319,6727,10/7/2012 7:00,6.0,3.7,85,13,24.1,101.31,Mostly Cloudy
3320,6728,10/7/2012 8:00,5.9,3.3,83,9,24.1,101.29,Mainly Clear
3321,6729,10/7/2012 9:00,6.9,2.5,74,9,48.3,101.3,Mostly Cloudy
3322,6730,10/7/2012 10:00,8.5,3.1,69,22,48.3,101.3,Mostly Cloudy
3323,6731,10/7/2012 11:00,9.0,1.5,59,15,48.3,101.33,Mainly Clear
3324,6732,10/7/2012 12:00,9.2,0.6,55,22,48.3,101.36,Mostly Cloudy
3325,6733,10/7/2012 13:00,9.3,-0.5,50,20,48.3,101.32,Mostly Cloudy
3326,6734,10/7/2012 14:00,10.2,-0.6,47,17,48.3,101.25,Mainly Clear
3327,6735,10/7/2012 15:00,10.5,0.3,49,11,48.3,101.24,Mainly Clear
3328,6746,10/8/2012 2:00,5.4,3.0,84,6,25.0,101.5,Mostly Cloudy
3329,6750,10/8/2012 6:00,2.4,1.9,96,9,24.1,101.73,Mainly Clear
3330,6751,10/8/2012 7:00,2.5,1.3,92,6,48.3,101.83,Mainly Clear
3331,6752,10/8/2012 8:00,5.4,1.1,74,7,48.3,101.92,Mainly Clear
3332,6754,10/8/2012 10:00,8.6,-1.7,48,7,48.3,101.97,Mainly Clear
3333,6755,10/8/2012 11:00,10.0,-1.0,46,9,48.3,101.95,Mainly Clear
3334,6756,10/8/2012 12:00,10.7,-2.0,41,13,48.3,101.95,Mainly Clear
3335,6757,10/8/2012 13:00,11.1,-1.3,42,13,48.3,101.93,Mainly Clear
3336,6758,10/8/2012 14:00,11.6,-1.5,40,19,48.3,101.91,Mainly Clear
3337,6759,10/8/2012 15:00,11.9,0.3,45,9,48.3,101.89,Mostly Cloudy
3338,6760,10/8/2012 16:00,12.0,-0.1,43,13,48.3,101.9,Mostly Cloudy
3339,6762,10/8/2012 18:00,10.6,-0.7,45,7,25.0,101.98,Mostly Cloudy
3340,6763,10/8/2012 19:00,9.7,1.5,57,15,25.0,102.03,Mainly Clear
3341,6764,10/8/2012 20:00,8.1,2.2,66,7,25.0,102.05,Mainly Clear
3342,6765,10/8/2012 21:00,7.3,2.7,73,9,25.0,102.08,Mainly Clear
3343,6773,10/9/2012 5:00,5.1,3.2,88,4,25.0,102.08,Mainly Clear
3344,6774,10/9/2012 6:00,5.4,3.7,89,7,48.3,102.09,Mainly Clear
3345,6775,10/9/2012 7:00,6.7,5.3,91,9,48.3,102.09,Mainly Clear
3346,6779,10/9/2012 11:00,13.5,4.7,55,6,48.3,101.93,Mainly Clear
3347,6780,10/9/2012 12:00,14.4,4.4,51,7,48.3,101.84,Mainly Clear
3348,6781,10/9/2012 13:00,15.0,4.4,49,7,48.3,101.71,Mostly Cloudy
3349,6782,10/9/2012 14:00,14.9,3.2,45,11,48.3,101.66,Mostly Cloudy
3350,6783,10/9/2012 15:00,15.0,4.6,50,13,48.3,101.59,Mostly Cloudy
3351,6784,10/9/2012 16:00,14.5,4.0,49,13,48.3,101.57,Mostly Cloudy
3352,6785,10/9/2012 17:00,13.6,4.8,55,22,48.3,101.5,Mostly Cloudy
3353,6786,10/9/2012 18:00,13.2,4.8,57,20,25.0,101.44,Mostly Cloudy
3354,6787,10/9/2012 19:00,12.8,4.5,57,19,25.0,101.45,Mostly Cloudy
3355,6788,10/9/2012 20:00,11.9,4.6,61,19,25.0,101.4,Mainly Clear
3356,6789,10/9/2012 21:00,11.4,4.5,62,19,25.0,101.36,Mainly Clear
3357,6790,10/9/2012 22:00,10.6,7.4,81,17,25.0,101.32,Mainly Clear
3358,6791,10/9/2012 23:00,10.4,7.4,82,19,25.0,101.26,Mainly Clear
3359,6792,10/10/2012 0:00,10.0,7.4,84,15,25.0,101.22,Mainly Clear
3360,6793,10/10/2012 1:00,10.3,7.8,84,11,25.0,101.18,Mostly Cloudy
3361,6794,10/10/2012 2:00,11.0,7.8,81,15,25.0,101.09,Mostly Cloudy
3362,6795,10/10/2012 3:00,11.3,7.9,80,13,25.0,101.01,Mostly Cloudy
3363,6796,10/10/2012 4:00,11.3,8.1,81,30,25.0,100.94,Mostly Cloudy
3364,6797,10/10/2012 5:00,11.2,8.3,82,20,25.0,100.9,Mostly Cloudy
3365,6798,10/10/2012 6:00,11.5,8.4,81,15,24.1,100.85,Mostly Cloudy
3366,6810,10/10/2012 18:00,8.9,7.1,88,19,25.0,100.25,Mostly Cloudy
3367,6811,10/10/2012 19:00,7.8,6.1,89,17,25.0,100.31,Mostly Cloudy
3368,6812,10/10/2012 20:00,7.4,5.9,90,15,25.0,100.34,Mostly Cloudy
3369,6813,10/10/2012 21:00,7.9,5.9,87,19,25.0,100.37,Mostly Cloudy
3370,6814,10/10/2012 22:00,7.7,5.7,87,11,25.0,100.4,Mostly Cloudy
3371,6815,10/10/2012 23:00,6.7,4.9,88,9,25.0,100.37,Mainly Clear
3372,6816,10/11/2012 0:00,7.2,4.4,82,17,25.0,100.4,Mostly Cloudy
3373,6817,10/11/2012 1:00,6.7,3.8,82,20,25.0,100.42,Mostly Cloudy
3374,6818,10/11/2012 2:00,6.6,3.8,82,32,25.0,100.45,Mostly Cloudy
3375,6819,10/11/2012 3:00,6.6,3.9,83,24,25.0,100.51,Mostly Cloudy
3376,6820,10/11/2012 4:00,6.0,3.2,82,26,25.0,100.68,Mostly Cloudy
3377,6821,10/11/2012 5:00,5.5,2.5,81,28,25.0,100.84,Mainly Clear
3378,6822,10/11/2012 6:00,5.0,2.4,83,22,24.1,100.95,Mainly Clear
3379,6823,10/11/2012 7:00,4.9,2.3,83,26,24.1,101.05,Mainly Clear
3380,6824,10/11/2012 8:00,6.0,2.3,77,20,24.1,101.14,Mainly Clear
3381,6825,10/11/2012 9:00,6.8,1.2,67,24,24.1,101.2,Mainly Clear
3382,6826,10/11/2012 10:00,7.7,0.2,59,32,48.3,101.19,Mostly Cloudy
3383,6827,10/11/2012 11:00,8.7,1.2,59,24,48.3,101.2,Mostly Cloudy
3384,6828,10/11/2012 12:00,8.0,-0.6,55,30,48.3,101.22,Mostly Cloudy
3385,6829,10/11/2012 13:00,9.2,-1.8,46,30,48.3,101.22,Mostly Cloudy
3386,6830,10/11/2012 14:00,9.7,-1.7,45,26,48.3,101.2,Mostly Cloudy
3387,6831,10/11/2012 15:00,9.8,-2.9,41,30,48.3,101.21,Mostly Cloudy
3388,6832,10/11/2012 16:00,9.8,-2.7,41,28,48.3,101.18,Mostly Cloudy
3389,6845,10/12/2012 5:00,4.4,-0.1,73,24,25.0,101.14,Mostly Cloudy
3390,6846,10/12/2012 6:00,3.6,-0.4,75,24,24.1,101.3,Mainly Clear
3391,6847,10/12/2012 7:00,3.7,-0.4,75,17,24.1,101.45,Mainly Clear
3392,6848,10/12/2012 8:00,4.8,-0.7,68,17,24.1,101.57,Mainly Clear
3393,6849,10/12/2012 9:00,5.4,-1.7,60,19,24.1,101.68,Mostly Cloudy
3394,6850,10/12/2012 10:00,5.4,-2.4,57,20,24.1,101.74,Mostly Cloudy
3395,6851,10/12/2012 11:00,6.2,-3.4,50,22,24.1,101.76,Mostly Cloudy
3396,6852,10/12/2012 12:00,5.6,-5.1,46,30,24.1,101.83,Mostly Cloudy
3397,6853,10/12/2012 13:00,6.2,-5.5,43,26,24.1,101.87,Mostly Cloudy
3398,6854,10/12/2012 14:00,6.2,-5.1,44,22,24.1,101.93,Mostly Cloudy
3399,6855,10/12/2012 15:00,6.4,-5.4,43,20,24.1,101.98,Mostly Cloudy
3400,6856,10/12/2012 16:00,5.2,-5.3,47,19,24.1,102.07,Mostly Cloudy
3401,6857,10/12/2012 17:00,4.7,-5.1,49,22,24.1,102.13,Mainly Clear
3402,6863,10/12/2012 23:00,-0.2,-4.9,71,9,25.0,102.48,Mainly Clear
3403,6864,10/13/2012 0:00,1.9,-3.8,66,9,25.0,102.49,Mostly Cloudy
3404,6865,10/13/2012 1:00,-0.9,-3.8,81,7,25.0,102.51,Mostly Cloudy
3405,6866,10/13/2012 2:00,0.1,-3.6,76,4,25.0,102.47,Mostly Cloudy
3406,6867,10/13/2012 3:00,-1.6,-3.6,86,4,25.0,102.49,Mostly Cloudy
3407,6868,10/13/2012 4:00,-1.9,-3.8,87,4,25.0,102.52,Mainly Clear
3408,6870,10/13/2012 6:00,-1.0,-3.3,84,0,48.3,102.54,Mostly Cloudy
3409,6871,10/13/2012 7:00,1.0,-2.2,79,6,48.3,102.56,Mostly Cloudy
3410,6872,10/13/2012 8:00,3.4,-1.3,71,11,48.3,102.57,Mainly Clear
3411,6873,10/13/2012 9:00,4.5,1.2,79,17,48.3,102.55,Mainly Clear
3412,6874,10/13/2012 10:00,6.1,-1.1,60,19,48.3,102.52,Mainly Clear
3413,6875,10/13/2012 11:00,7.7,-3.7,44,28,48.3,102.46,Mostly Cloudy
3414,6876,10/13/2012 12:00,9.7,-1.9,44,22,48.3,102.37,Mostly Cloudy
3415,6877,10/13/2012 13:00,8.6,-2.8,45,20,48.3,102.24,Mainly Clear
3416,6878,10/13/2012 14:00,9.8,-3.1,40,19,48.3,102.2,Mostly Cloudy
3417,6879,10/13/2012 15:00,9.4,-2.1,44,19,48.3,102.18,Mostly Cloudy
3418,6880,10/13/2012 16:00,9.5,-2.7,42,17,48.3,102.14,Mostly Cloudy
3419,6881,10/13/2012 17:00,9.1,-2.7,43,13,25.0,102.08,Mostly Cloudy
3420,6916,10/15/2012 4:00,11.9,10.7,92,4,12.9,99.66,Mostly Cloudy
3421,6917,10/15/2012 5:00,13.5,11.6,88,11,16.1,99.62,Mostly Cloudy
3422,6919,10/15/2012 7:00,13.8,11.1,84,19,24.1,99.53,Mostly Cloudy
3423,6921,10/15/2012 9:00,16.4,12.1,76,24,24.1,99.51,Mostly Cloudy
3424,6924,10/15/2012 12:00,16.4,10.6,69,22,24.1,99.63,Mostly Cloudy
3425,6925,10/15/2012 13:00,16.3,10.7,69,28,24.1,99.64,Mostly Cloudy
3426,6926,10/15/2012 14:00,17.8,9.3,57,30,48.3,99.65,Mostly Cloudy
3427,6927,10/15/2012 15:00,16.2,9.0,62,28,24.1,99.7,Mostly Cloudy
3428,6928,10/15/2012 16:00,15.5,8.9,65,30,24.1,99.7,Mostly Cloudy
3429,6929,10/15/2012 17:00,14.7,8.2,65,33,24.1,99.69,Mostly Cloudy
3430,6930,10/15/2012 18:00,13.7,8.7,72,32,25.0,99.7,Mostly Cloudy
3431,6931,10/15/2012 19:00,12.9,8.3,74,30,25.0,99.72,Mostly Cloudy
3432,6932,10/15/2012 20:00,12.6,7.9,73,30,25.0,99.76,Mainly Clear
3433,6933,10/15/2012 21:00,12.1,6.8,70,26,25.0,99.74,Mainly Clear
3434,6934,10/15/2012 22:00,12.1,5.1,62,32,25.0,99.73,Mostly Cloudy
3435,6935,10/15/2012 23:00,11.6,3.5,57,28,25.0,99.75,Mostly Cloudy
3436,6936,10/16/2012 0:00,9.8,3.8,66,28,25.0,99.81,Mainly Clear
3437,6937,10/16/2012 1:00,9.2,3.9,69,24,25.0,99.89,Mostly Cloudy
3438,6938,10/16/2012 2:00,7.6,1.8,67,30,25.0,99.88,Mainly Clear
3439,6939,10/16/2012 3:00,6.7,2.6,75,19,25.0,99.88,Mostly Cloudy
3440,6942,10/16/2012 6:00,5.2,1.0,74,28,24.1,100.05,Mostly Cloudy
3441,6943,10/16/2012 7:00,4.8,0.8,75,15,24.1,100.18,Mostly Cloudy
3442,6944,10/16/2012 8:00,5.6,0.7,71,22,24.1,100.24,Mainly Clear
3443,6945,10/16/2012 9:00,6.0,1.3,72,19,24.1,100.27,Mostly Cloudy
3444,6946,10/16/2012 10:00,7.6,1.6,66,26,24.1,100.3,Mostly Cloudy
3445,6947,10/16/2012 11:00,7.7,1.4,64,22,24.1,100.34,Mostly Cloudy
3446,6949,10/16/2012 13:00,8.2,1.2,61,24,24.1,100.38,Mostly Cloudy
3447,6950,10/16/2012 14:00,8.6,0.7,58,30,24.1,100.37,Mostly Cloudy
3448,6951,10/16/2012 15:00,8.4,0.7,58,32,24.1,100.39,Mostly Cloudy
3449,6952,10/16/2012 16:00,8.4,0.0,55,28,24.1,100.43,Mostly Cloudy
3450,6953,10/16/2012 17:00,7.3,-0.5,58,20,24.1,100.47,Mainly Clear
3451,6954,10/16/2012 18:00,6.5,-0.2,62,15,25.0,100.54,Mainly Clear
3452,6955,10/16/2012 19:00,4.9,-0.2,70,9,25.0,100.57,Mainly Clear
3453,6963,10/17/2012 3:00,1.8,-0.9,82,6,25.0,100.92,Mostly Cloudy
3454,6964,10/17/2012 4:00,2.2,-0.2,84,7,25.0,100.96,Mostly Cloudy
3455,6965,10/17/2012 5:00,2.6,0.2,84,0,25.0,100.95,Mostly Cloudy
3456,6966,10/17/2012 6:00,2.7,0.4,85,0,24.1,100.98,Mainly Clear
3457,6968,10/17/2012 8:00,6.3,2.0,74,0,24.1,101.06,Mainly Clear
3458,6969,10/17/2012 9:00,7.1,4.1,81,6,24.1,101.08,Mainly Clear
3459,6970,10/17/2012 10:00,9.1,1.3,58,6,24.1,101.08,Mainly Clear
3460,6971,10/17/2012 11:00,10.1,2.1,58,6,48.3,101.02,Mainly Clear
3461,6972,10/17/2012 12:00,10.8,2.1,55,7,48.3,100.97,Mainly Clear
3462,6973,10/17/2012 13:00,11.4,1.9,52,6,48.3,100.9,Mostly Cloudy
3463,6974,10/17/2012 14:00,12.0,2.4,52,0,48.3,100.88,Mostly Cloudy
3464,6975,10/17/2012 15:00,12.5,2.9,52,4,48.3,100.86,Mostly Cloudy
3465,6976,10/17/2012 16:00,12.5,3.5,54,4,48.3,100.87,Mostly Cloudy
3466,6977,10/17/2012 17:00,11.7,4.0,59,11,24.1,100.87,Mostly Cloudy
3467,6978,10/17/2012 18:00,11.0,4.7,65,7,25.0,100.94,Mostly Cloudy
3468,6980,10/17/2012 20:00,11.7,3.2,56,9,25.0,100.92,Mostly Cloudy
3469,6981,10/17/2012 21:00,11.6,3.6,58,11,25.0,100.92,Mostly Cloudy
3470,6982,10/17/2012 22:00,11.7,4.1,60,7,25.0,100.93,Mostly Cloudy
3471,6986,10/18/2012 2:00,10.9,4.9,66,4,25.0,100.92,Mostly Cloudy
3472,6987,10/18/2012 3:00,8.9,5.3,78,9,25.0,100.91,Mostly Cloudy
3473,6988,10/18/2012 4:00,9.1,5.7,79,11,25.0,100.92,Mostly Cloudy
3474,6989,10/18/2012 5:00,9.4,5.8,78,11,25.0,100.94,Mostly Cloudy
3475,6990,10/18/2012 6:00,9.0,5.8,80,11,48.3,100.96,Mostly Cloudy
3476,6991,10/18/2012 7:00,10.7,5.1,68,9,48.3,100.98,Mainly Clear
3477,6992,10/18/2012 8:00,12.2,5.7,64,6,48.3,101.02,Mostly Cloudy
3478,6993,10/18/2012 9:00,14.4,6.4,59,15,48.3,100.99,Mainly Clear
3479,6994,10/18/2012 10:00,16.1,6.7,54,15,48.3,100.97,Mainly Clear
3480,6995,10/18/2012 11:00,17.9,6.3,47,15,48.3,100.94,Mainly Clear
3481,6996,10/18/2012 12:00,18.3,6.3,45,17,48.3,100.9,Mainly Clear
3482,6997,10/18/2012 13:00,18.3,6.2,45,22,48.3,100.85,Mainly Clear
3483,6998,10/18/2012 14:00,19.3,5.8,41,28,48.3,100.78,Mainly Clear
3484,6999,10/18/2012 15:00,18.6,3.6,37,26,48.3,100.78,Mostly Cloudy
3485,7000,10/18/2012 16:00,18.3,3.8,38,28,48.3,100.69,Mostly Cloudy
3486,7001,10/18/2012 17:00,16.6,4.7,45,15,48.3,100.74,Mostly Cloudy
3487,7002,10/18/2012 18:00,16.0,5.1,48,17,25.0,100.8,Mostly Cloudy
3488,7003,10/18/2012 19:00,15.6,5.2,50,15,25.0,100.86,Mainly Clear
3489,7004,10/18/2012 20:00,14.9,5.7,54,17,25.0,100.9,Mostly Cloudy
3490,7005,10/18/2012 21:00,13.8,6.0,59,17,25.0,100.95,Mostly Cloudy
3491,7006,10/18/2012 22:00,14.4,5.9,57,19,25.0,100.99,Mostly Cloudy
3492,7007,10/18/2012 23:00,12.7,5.7,62,15,25.0,100.96,Mostly Cloudy
3493,7008,10/19/2012 0:00,12.3,6.1,66,17,25.0,100.94,Mainly Clear
3494,7009,10/19/2012 1:00,11.7,5.8,67,17,25.0,100.92,Mainly Clear
3495,7010,10/19/2012 2:00,11.7,6.0,68,15,25.0,100.92,Mainly Clear
3496,7029,10/19/2012 21:00,13.8,12.6,92,17,24.1,100.16,Mostly Cloudy
3497,7042,10/20/2012 10:00,16.0,13.2,83,15,24.1,99.87,Mainly Clear
3498,7043,10/20/2012 11:00,16.4,12.2,76,19,24.1,99.93,Mostly Cloudy
3499,7044,10/20/2012 12:00,18.1,11.9,67,20,48.3,99.89,Mostly Cloudy
3500,7045,10/20/2012 13:00,17.6,10.6,64,11,48.3,99.75,Mainly Clear
3501,7046,10/20/2012 14:00,17.2,10.4,64,22,48.3,99.79,Mostly Cloudy
3502,7047,10/20/2012 15:00,16.4,8.8,61,22,24.1,99.75,Mostly Cloudy
3503,7050,10/20/2012 18:00,12.3,7.2,71,19,25.0,100.01,Mainly Clear
3504,7052,10/20/2012 20:00,10.7,5.5,70,17,25.0,100.06,Mainly Clear
3505,7053,10/20/2012 21:00,11.0,6.1,72,13,25.0,100.07,Mainly Clear
3506,7054,10/20/2012 22:00,10.5,6.2,75,11,25.0,100.05,Mainly Clear
3507,7055,10/20/2012 23:00,10.2,6.4,77,19,25.0,100.05,Mainly Clear
3508,7056,10/21/2012 0:00,9.2,6.3,82,13,25.0,100.07,Mainly Clear
3509,7057,10/21/2012 1:00,9.9,6.8,81,19,25.0,100.14,Mostly Cloudy
3510,7060,10/21/2012 4:00,10.2,7.1,81,22,25.0,100.15,Mostly Cloudy
3511,7063,10/21/2012 7:00,9.8,7.1,83,28,24.1,100.26,Mostly Cloudy
3512,7064,10/21/2012 8:00,10.2,6.4,77,35,24.1,100.29,Mostly Cloudy
3513,7065,10/21/2012 9:00,10.4,6.0,74,26,24.1,100.27,Mostly Cloudy
3514,7066,10/21/2012 10:00,10.9,5.8,71,32,24.1,100.31,Mostly Cloudy
3515,7067,10/21/2012 11:00,11.2,5.9,70,33,24.1,100.33,Mostly Cloudy
3516,7068,10/21/2012 12:00,12.6,6.4,66,32,24.1,100.3,Mostly Cloudy
3517,7070,10/21/2012 14:00,12.7,5.8,63,28,24.1,100.33,Mostly Cloudy
3518,7074,10/21/2012 18:00,11.5,5.8,68,22,25.0,100.56,Mostly Cloudy
3519,7075,10/21/2012 19:00,11.3,5.6,68,22,25.0,100.6,Mostly Cloudy
3520,7076,10/21/2012 20:00,11.4,5.5,67,20,25.0,100.63,Mostly Cloudy
3521,7078,10/21/2012 22:00,10.1,5.3,72,15,25.0,100.72,Mostly Cloudy
3522,7079,10/21/2012 23:00,9.3,4.9,74,17,25.0,100.75,Mostly Cloudy
3523,7080,10/22/2012 0:00,8.7,4.1,73,32,25.0,100.73,Mainly Clear
3524,7081,10/22/2012 1:00,8.0,3.9,75,26,25.0,100.77,Mainly Clear
3525,7082,10/22/2012 2:00,7.6,3.9,77,24,25.0,100.81,Mainly Clear
3526,7083,10/22/2012 3:00,7.1,3.9,80,17,25.0,100.84,Mainly Clear
3527,7084,10/22/2012 4:00,7.4,4.0,79,19,25.0,100.84,Mainly Clear
3528,7087,10/22/2012 7:00,7.8,4.4,79,15,24.1,101.0,Mainly Clear
3529,7088,10/22/2012 8:00,10.0,5.1,72,22,24.1,101.04,Mostly Cloudy
3530,7089,10/22/2012 9:00,9.8,5.3,74,24,24.1,101.08,Mostly Cloudy
3531,7090,10/22/2012 10:00,11.2,5.6,68,26,48.3,101.01,Mainly Clear
3532,7091,10/22/2012 11:00,12.7,6.3,65,30,48.3,101.06,Mainly Clear
3533,7092,10/22/2012 12:00,13.0,5.6,61,24,48.3,101.03,Mainly Clear
3534,7093,10/22/2012 13:00,14.2,6.2,59,24,48.3,101.0,Mainly Clear
3535,7094,10/22/2012 14:00,14.5,4.7,52,22,48.3,101.04,Mainly Clear
3536,7095,10/22/2012 15:00,14.6,5.0,52,28,48.3,101.05,Mainly Clear
3537,7096,10/22/2012 16:00,14.3,4.9,53,15,48.3,101.06,Mainly Clear
3538,7097,10/22/2012 17:00,13.2,4.7,56,20,24.1,101.11,Mainly Clear
3539,7098,10/22/2012 18:00,11.9,5.4,64,19,25.0,101.16,Mainly Clear
3540,7100,10/22/2012 20:00,10.3,5.8,74,13,25.0,101.24,Mainly Clear
3541,7102,10/22/2012 22:00,8.1,5.4,83,7,25.0,101.34,Mainly Clear
3542,7110,10/23/2012 6:00,5.1,3.5,89,6,24.1,101.59,Mainly Clear
3543,7111,10/23/2012 7:00,4.2,2.8,91,0,24.1,101.68,Mainly Clear
3544,7112,10/23/2012 8:00,6.9,4.5,85,11,24.1,101.71,Mostly Cloudy
3545,7113,10/23/2012 9:00,9.4,5.0,74,9,24.1,101.75,Mostly Cloudy
3546,7114,10/23/2012 10:00,9.6,4.9,72,4,24.1,101.73,Mostly Cloudy
3547,7115,10/23/2012 11:00,10.9,4.6,65,0,24.1,101.69,Mostly Cloudy
3548,7116,10/23/2012 12:00,11.1,3.8,61,0,24.1,101.62,Mainly Clear
3549,7117,10/23/2012 13:00,12.2,3.8,56,4,24.1,101.59,Mostly Cloudy
3550,7118,10/23/2012 14:00,13.1,3.8,53,6,24.1,101.58,Mostly Cloudy
3551,7119,10/23/2012 15:00,12.3,4.3,58,11,24.1,101.57,Mostly Cloudy
3552,7120,10/23/2012 16:00,11.9,4.0,58,11,24.1,101.57,Mostly Cloudy
3553,7121,10/23/2012 17:00,10.9,3.6,61,9,24.1,101.6,Mainly Clear
3554,7122,10/23/2012 18:00,7.9,3.5,74,0,25.0,101.64,Mainly Clear
3555,7123,10/23/2012 19:00,8.6,3.3,69,0,25.0,101.7,Mainly Clear
3556,7124,10/23/2012 20:00,7.0,2.9,75,0,25.0,101.72,Mainly Clear
3557,7125,10/23/2012 21:00,6.9,2.6,74,0,25.0,101.73,Mainly Clear
3558,7126,10/23/2012 22:00,6.8,3.9,82,7,25.0,101.76,Mainly Clear
3559,7137,10/24/2012 9:00,7.0,-0.5,59,15,48.3,102.02,Mainly Clear
3560,7138,10/24/2012 10:00,7.2,-1.9,52,17,48.3,102.0,Mostly Cloudy
3561,7139,10/24/2012 11:00,8.1,-0.9,53,11,48.3,101.93,Mostly Cloudy
3562,7140,10/24/2012 12:00,9.1,-0.3,52,11,48.3,101.86,Mostly Cloudy
3563,7141,10/24/2012 13:00,10.6,-0.6,46,6,48.3,101.79,Mainly Clear
3564,7142,10/24/2012 14:00,11.7,-1.7,39,6,48.3,101.75,Mostly Cloudy
3565,7143,10/24/2012 15:00,12.2,-2.1,37,11,48.3,101.73,Mostly Cloudy
3566,7144,10/24/2012 16:00,11.3,-2.1,39,11,48.3,101.75,Mostly Cloudy
3567,7145,10/24/2012 17:00,10.9,-2.2,40,17,48.3,101.78,Mostly Cloudy
3568,7147,10/24/2012 19:00,10.3,0.1,49,7,25.0,101.82,Mostly Cloudy
3569,7148,10/24/2012 20:00,10.1,-1.2,45,11,25.0,101.85,Mostly Cloudy
3570,7149,10/24/2012 21:00,10.0,-2.3,42,6,25.0,101.88,Mostly Cloudy
3571,7150,10/24/2012 22:00,9.4,-2.1,44,9,25.0,101.87,Mostly Cloudy
3572,7151,10/24/2012 23:00,9.6,-2.5,43,15,25.0,101.9,Mostly Cloudy
3573,7153,10/25/2012 1:00,9.2,-1.8,46,15,25.0,101.92,Mostly Cloudy
3574,7154,10/25/2012 2:00,8.4,-0.9,52,15,25.0,101.89,Mostly Cloudy
3575,7155,10/25/2012 3:00,7.3,-0.5,58,13,25.0,101.84,Mainly Clear
3576,7156,10/25/2012 4:00,6.9,-0.5,59,15,25.0,101.85,Mainly Clear
3577,7157,10/25/2012 5:00,5.7,0.2,68,17,25.0,101.89,Mostly Cloudy
3578,7158,10/25/2012 6:00,4.1,0.6,78,17,24.1,101.9,Mainly Clear
3579,7159,10/25/2012 7:00,4.6,1.5,80,19,24.1,101.93,Mostly Cloudy
3580,7160,10/25/2012 8:00,5.2,1.5,77,22,48.3,101.94,Mostly Cloudy
3581,7161,10/25/2012 9:00,6.4,-0.3,62,17,48.3,101.97,Mostly Cloudy
3582,7166,10/25/2012 14:00,12.8,2.9,51,17,24.1,101.66,Mostly Cloudy
3583,7167,10/25/2012 15:00,13.5,3.5,51,19,24.1,101.59,Mainly Clear
3584,7168,10/25/2012 16:00,13.3,4.2,54,15,24.1,101.59,Mostly Cloudy
3585,7169,10/25/2012 17:00,12.6,4.1,56,19,24.1,101.55,Mostly Cloudy
3586,7170,10/25/2012 18:00,11.8,4.9,63,15,25.0,101.54,Mostly Cloudy
3587,7177,10/26/2012 1:00,8.5,6.4,87,7,25.0,101.49,Mostly Cloudy
3588,7178,10/26/2012 2:00,8.3,6.4,88,11,25.0,101.5,Mainly Clear
3589,7193,10/26/2012 17:00,15.7,11.6,77,9,24.1,101.33,Mainly Clear
3590,7194,10/26/2012 18:00,14.7,11.3,80,11,25.0,101.36,Mainly Clear
3591,7195,10/26/2012 19:00,13.5,11.0,85,7,25.0,101.39,Mainly Clear
3592,7196,10/26/2012 20:00,14.2,11.2,82,15,19.3,101.38,Mostly Cloudy
3593,7197,10/26/2012 21:00,13.1,10.9,86,9,25.0,101.38,Mainly Clear
3594,7198,10/26/2012 22:00,13.0,10.9,87,4,19.3,101.41,Mainly Clear
3595,7199,10/26/2012 23:00,12.7,10.9,89,9,16.1,101.4,Mainly Clear
3596,7200,10/27/2012 0:00,11.9,10.7,92,4,16.1,101.42,Mostly Cloudy
3597,7216,10/27/2012 16:00,14.6,9.1,70,15,24.1,101.08,Mostly Cloudy
3598,7217,10/27/2012 17:00,13.9,9.3,74,9,24.1,101.09,Mostly Cloudy
3599,7221,10/27/2012 21:00,13.3,7.4,67,11,25.0,101.14,Mostly Cloudy
3600,7222,10/27/2012 22:00,12.8,7.8,72,13,25.0,101.13,Mostly Cloudy
3601,7223,10/27/2012 23:00,12.0,8.4,79,11,25.0,101.14,Mostly Cloudy
3602,7224,10/28/2012 0:00,11.0,8.4,84,15,25.0,101.18,Mostly Cloudy
3603,7225,10/28/2012 1:00,10.4,7.4,82,15,25.0,101.19,Mostly Cloudy
3604,7228,10/28/2012 4:00,9.5,6.5,82,13,25.0,101.23,Mostly Cloudy
3605,7246,10/28/2012 22:00,11.0,7.4,78,32,25.0,101.01,Mostly Cloudy
3606,7248,10/29/2012 0:00,9.9,7.0,82,22,25.0,100.95,Mostly Cloudy
3607,7249,10/29/2012 1:00,9.5,6.9,84,26,25.0,100.89,Mostly Cloudy
3608,7250,10/29/2012 2:00,9.2,6.6,84,26,25.0,100.82,Mostly Cloudy
3609,7252,10/29/2012 4:00,9.9,7.2,83,30,25.0,100.77,Mostly Cloudy
3610,7266,10/29/2012 18:00,14.2,9.2,72,15,25.0,99.83,Mostly Cloudy
3611,7267,10/29/2012 19:00,14.0,9.6,75,15,25.0,99.65,Mostly Cloudy
3612,7269,10/29/2012 21:00,14.0,9.7,75,15,25.0,99.46,Mostly Cloudy
3613,7273,10/30/2012 1:00,14.6,10.4,76,15,25.0,99.31500000000001,Mostly Cloudy
3614,7274,10/30/2012 2:00,14.1,10.3,78,15,25.0,99.31500000000001,Mostly Cloudy
3615,7276,10/30/2012 4:00,13.8,10.4,80,35,25.0,99.31500000000001,Mostly Cloudy
3616,7277,10/30/2012 5:00,13.7,10.5,81,15,25.0,99.32,Mainly Clear
3617,7280,10/30/2012 8:00,15.7,12.0,79,26,24.1,99.5,Mostly Cloudy
3618,7281,10/30/2012 9:00,15.4,12.7,84,22,24.1,99.52,Mostly Cloudy
3619,7282,10/30/2012 10:00,16.1,13.3,83,28,24.1,99.57,Mostly Cloudy
3620,7284,10/30/2012 12:00,16.1,14.5,90,17,24.1,99.53,Mostly Cloudy
3621,7285,10/30/2012 13:00,19.8,14.7,72,28,24.1,99.44,Mainly Clear
3622,7286,10/30/2012 14:00,20.4,13.2,63,28,24.1,99.5,Mainly Clear
3623,7287,10/30/2012 15:00,20.9,11.8,56,33,24.1,99.47,Mainly Clear
3624,7288,10/30/2012 16:00,20.6,9.9,50,20,24.1,99.49,Mainly Clear
3625,7289,10/30/2012 17:00,19.7,9.3,51,17,24.1,99.54,Mainly Clear
3626,7290,10/30/2012 18:00,19.2,10.4,57,17,25.0,99.61,Mostly Cloudy
3627,7291,10/30/2012 19:00,18.8,11.2,61,28,25.0,99.61,Mostly Cloudy
3628,7297,10/31/2012 1:00,14.9,13.6,92,9,25.0,99.36,Mainly Clear
3629,7298,10/31/2012 2:00,13.7,12.7,94,11,25.0,99.41,Mainly Clear
3630,7299,10/31/2012 3:00,13.7,12.5,92,11,25.0,99.43,Mainly Clear
3631,7300,10/31/2012 4:00,13.8,11.6,87,13,25.0,99.37,Mainly Clear
3632,7301,10/31/2012 5:00,13.6,11.2,85,17,25.0,99.34,Mainly Clear
3633,7302,10/31/2012 6:00,14.0,10.1,77,11,25.0,99.31500000000001,Mostly Cloudy
3634,7303,10/31/2012 7:00,11.6,10.4,92,11,24.1,99.31500000000001,Mostly Cloudy
3635,7304,10/31/2012 8:00,14.0,12.1,88,17,24.1,99.31500000000001,Mostly Cloudy
3636,7315,10/31/2012 19:00,8.5,6.6,88,7,25.0,99.37,Mostly Cloudy
3637,7316,10/31/2012 20:00,8.4,6.3,87,7,25.0,99.4,Mostly Cloudy
3638,7318,10/31/2012 22:00,7.8,6.7,93,0,25.0,99.4,Mostly Cloudy
3639,7320,11/1/2012 0:00,7.8,6.8,93,7,25.0,99.39,Mostly Cloudy
3640,7372,11/3/2012 4:00,4.1,0.9,80,20,25.0,100.17,Mostly Cloudy
3641,7374,11/3/2012 6:00,3.7,0.2,78,17,25.0,100.27,Mostly Cloudy
3642,7392,11/4/2012 0:00,3.8,-0.3,75,15,25.0,100.85,Mostly Cloudy
3643,7393,11/4/2012 1:00,3.2,-0.7,76,11,25.0,100.87,Mostly Cloudy
3644,7394,11/4/2012 2:00,3.0,-1.3,73,15,25.0,100.88,Mostly Cloudy
3645,7395,11/4/2012 3:00,3.1,-1.2,73,17,25.0,100.88,Mostly Cloudy
3646,7402,11/4/2012 10:00,3.0,-2.2,69,19,24.1,101.1,Mostly Cloudy
3647,7421,11/5/2012 5:00,-1.1,-6.7,66,11,25.0,101.34,Mostly Cloudy
3648,7422,11/5/2012 6:00,-0.6,-5.1,72,11,25.0,101.38,Mostly Cloudy
3649,7423,11/5/2012 7:00,-0.3,-5.9,66,15,24.1,101.4,Mostly Cloudy
3650,7424,11/5/2012 8:00,-0.5,-5.8,67,15,24.1,101.45,Mainly Clear
3651,7425,11/5/2012 9:00,0.8,-6.0,60,17,24.1,101.46,Mainly Clear
3652,7426,11/5/2012 10:00,1.8,-7.0,52,17,48.3,101.49,Mainly Clear
3653,7427,11/5/2012 11:00,1.7,-7.4,51,17,48.3,101.47,Mostly Cloudy
3654,7428,11/5/2012 12:00,1.8,-7.7,49,15,48.3,101.44,Mostly Cloudy
3655,7429,11/5/2012 13:00,1.9,-8.2,47,17,48.3,101.44,Mostly Cloudy
3656,7431,11/5/2012 15:00,1.8,-7.6,50,20,24.1,101.41,Mostly Cloudy
3657,7433,11/5/2012 17:00,0.9,-7.8,52,17,25.0,101.49,Mostly Cloudy
3658,7434,11/5/2012 18:00,0.5,-8.6,50,20,25.0,101.57,Mostly Cloudy
3659,7435,11/5/2012 19:00,-0.6,-10.4,47,13,25.0,101.62,Mostly Cloudy
3660,7436,11/5/2012 20:00,-1.0,-9.5,52,7,25.0,101.64,Mostly Cloudy
3661,7437,11/5/2012 21:00,-2.0,-9.1,58,7,25.0,101.66,Mainly Clear
3662,7438,11/5/2012 22:00,-2.2,-9.6,57,11,25.0,101.65,Mainly Clear
3663,7439,11/5/2012 23:00,-3.2,-9.6,61,9,25.0,101.65,Mainly Clear
3664,7440,11/6/2012 0:00,-2.9,-9.9,58,15,25.0,101.68,Mainly Clear
3665,7444,11/6/2012 4:00,-3.3,-9.9,60,0,25.0,101.76,Mostly Cloudy
3666,7445,11/6/2012 5:00,-3.0,-8.9,64,0,25.0,101.79,Mostly Cloudy
3667,7446,11/6/2012 6:00,-3.7,-7.5,75,6,25.0,101.83,Mostly Cloudy
3668,7447,11/6/2012 7:00,-3.4,-7.0,76,6,48.3,101.86,Mostly Cloudy
3669,7448,11/6/2012 8:00,-1.6,-5.6,74,6,48.3,101.89,Mainly Clear
3670,7449,11/6/2012 9:00,-0.2,-5.8,66,7,48.3,101.9,Mainly Clear
3671,7450,11/6/2012 10:00,0.4,-6.1,62,7,48.3,101.93,Mostly Cloudy
3672,7451,11/6/2012 11:00,1.9,-4.5,62,9,48.3,101.94,Mostly Cloudy
3673,7453,11/6/2012 13:00,2.3,-7.7,48,15,48.3,101.88,Mostly Cloudy
3674,7454,11/6/2012 14:00,2.1,-7.4,49,9,48.3,101.87,Mostly Cloudy
3675,7455,11/6/2012 15:00,2.6,-7.7,47,15,48.3,101.87,Mostly Cloudy
3676,7456,11/6/2012 16:00,1.9,-8.1,47,13,48.3,101.87,Mostly Cloudy
3677,7457,11/6/2012 17:00,0.0,-7.5,57,6,48.3,101.89,Mainly Clear
3678,7470,11/7/2012 6:00,-4.2,-6.4,85,13,25.0,101.92,Mainly Clear
3679,7471,11/7/2012 7:00,-3.7,-6.3,82,15,24.1,101.96,Mainly Clear
3680,7472,11/7/2012 8:00,-3.1,-6.0,80,17,24.1,102.0,Mainly Clear
3681,7473,11/7/2012 9:00,-1.3,-6.6,67,22,24.1,102.02,Mostly Cloudy
3682,7474,11/7/2012 10:00,0.0,-6.8,60,20,24.1,102.01,Mostly Cloudy
3683,7475,11/7/2012 11:00,1.1,-7.4,53,26,24.1,101.97,Mostly Cloudy
3684,7476,11/7/2012 12:00,2.1,-7.4,49,26,24.1,101.88,Mostly Cloudy
3685,7477,11/7/2012 13:00,2.4,-7.5,48,32,24.1,101.78,Mostly Cloudy
3686,7478,11/7/2012 14:00,2.2,-7.4,49,24,24.1,101.75,Mostly Cloudy
3687,7479,11/7/2012 15:00,1.8,-7.8,49,24,24.1,101.73,Mostly Cloudy
3688,7480,11/7/2012 16:00,1.5,-7.1,53,26,24.1,101.7,Mostly Cloudy
3689,7481,11/7/2012 17:00,1.2,-6.2,58,20,25.0,101.67,Mainly Clear
3690,7482,11/7/2012 18:00,1.0,-5.6,61,19,25.0,101.68,Mostly Cloudy
3691,7483,11/7/2012 19:00,1.4,-6.7,55,20,25.0,101.69,Mainly Clear
3692,7484,11/7/2012 20:00,1.3,-7.8,51,26,25.0,101.65,Mostly Cloudy
3693,7485,11/7/2012 21:00,0.8,-6.4,59,22,25.0,101.64,Mainly Clear
3694,7487,11/7/2012 23:00,-0.7,-4.7,74,22,25.0,101.55,Mostly Cloudy
3695,7488,11/8/2012 0:00,-0.2,-4.5,73,26,25.0,101.54,Mostly Cloudy
3696,7489,11/8/2012 1:00,-0.9,-4.9,74,30,25.0,101.49,Mostly Cloudy
3697,7490,11/8/2012 2:00,-1.0,-6.0,69,33,25.0,101.48,Mostly Cloudy
3698,7491,11/8/2012 3:00,-0.8,-5.8,69,20,25.0,101.46,Mostly Cloudy
3699,7492,11/8/2012 4:00,-1.3,-5.9,71,26,25.0,101.44,Mostly Cloudy
3700,7493,11/8/2012 5:00,-1.3,-6.2,69,22,25.0,101.43,Mainly Clear
3701,7494,11/8/2012 6:00,-1.4,-5.7,72,19,25.0,101.42,Mainly Clear
3702,7495,11/8/2012 7:00,-1.0,-5.1,74,26,24.1,101.44,Mostly Cloudy
3703,7496,11/8/2012 8:00,-0.2,-4.6,72,20,24.1,101.46,Mostly Cloudy
3704,7498,11/8/2012 10:00,2.4,-3.9,63,30,24.1,101.41,Mostly Cloudy
3705,7499,11/8/2012 11:00,2.6,-4.0,62,30,24.1,101.38,Mostly Cloudy
3706,7500,11/8/2012 12:00,3.9,-3.6,58,24,24.1,101.29,Mostly Cloudy
3707,7501,11/8/2012 13:00,4.7,-3.3,56,26,24.1,101.24,Mostly Cloudy
3708,7502,11/8/2012 14:00,5.1,-3.4,54,26,24.1,101.21,Mostly Cloudy
3709,7503,11/8/2012 15:00,5.2,-3.3,54,20,24.1,101.18,Mostly Cloudy
3710,7504,11/8/2012 16:00,4.4,-3.8,55,19,24.1,101.17,Mostly Cloudy
3711,7505,11/8/2012 17:00,3.2,-4.2,58,13,24.1,101.2,Mostly Cloudy
3712,7506,11/8/2012 18:00,2.4,-3.0,67,7,25.0,101.25,Mostly Cloudy
3713,7507,11/8/2012 19:00,1.8,-3.3,69,9,25.0,101.27,Mostly Cloudy
3714,7508,11/8/2012 20:00,1.7,-4.8,62,19,25.0,101.28,Mostly Cloudy
3715,7509,11/8/2012 21:00,0.5,-4.6,69,13,25.0,101.24,Mainly Clear
3716,7510,11/8/2012 22:00,-0.3,-4.8,72,11,25.0,101.21,Mainly Clear
3717,7511,11/8/2012 23:00,-1.3,-5.0,76,7,25.0,101.19,Mainly Clear
3718,7512,11/9/2012 0:00,-3.4,-5.7,84,7,25.0,101.21,Mainly Clear
3719,7513,11/9/2012 1:00,-3.7,-5.9,85,7,25.0,101.18,Mainly Clear
3720,7517,11/9/2012 5:00,-5.4,-6.7,91,7,25.0,101.22,Mainly Clear
3721,7518,11/9/2012 6:00,-3.2,-4.8,89,7,25.0,101.25,Mainly Clear
3722,7519,11/9/2012 7:00,-2.5,-4.2,88,7,24.1,101.3,Mostly Cloudy
3723,7520,11/9/2012 8:00,-1.6,-3.6,86,7,48.3,101.36,Mostly Cloudy
3724,7521,11/9/2012 9:00,1.3,-2.4,76,17,48.3,101.34,Mostly Cloudy
3725,7523,11/9/2012 11:00,3.3,-4.1,58,20,48.3,101.36,Mostly Cloudy
3726,7524,11/9/2012 12:00,3.4,-3.6,60,22,48.3,101.31,Mostly Cloudy
3727,7526,11/9/2012 14:00,4.8,-2.7,58,20,24.1,101.27,Mostly Cloudy
3728,7534,11/9/2012 22:00,4.5,0.6,76,11,25.0,101.48,Mostly Cloudy
3729,7535,11/9/2012 23:00,4.0,0.8,80,15,25.0,101.5,Mostly Cloudy
3730,7536,11/10/2012 0:00,2.8,0.4,84,13,25.0,101.55,Mostly Cloudy
3731,7537,11/10/2012 1:00,3.6,0.6,81,9,25.0,101.62,Mostly Cloudy
3732,7538,11/10/2012 2:00,2.7,-0.5,79,9,25.0,101.66,Mainly Clear
3733,7539,11/10/2012 3:00,2.6,-2.7,68,11,25.0,101.75,Mainly Clear
3734,7540,11/10/2012 4:00,1.1,-3.5,71,11,25.0,101.84,Mainly Clear
3735,7541,11/10/2012 5:00,0.7,-4.0,71,6,25.0,101.98,Mainly Clear
3736,7542,11/10/2012 6:00,-0.6,-5.2,71,9,25.0,102.07,Mainly Clear
3737,7546,11/10/2012 10:00,2.4,-5.9,54,7,48.3,102.43,Mainly Clear
3738,7547,11/10/2012 11:00,3.3,-7.3,46,6,48.3,102.45,Mainly Clear
3739,7548,11/10/2012 12:00,4.2,-7.7,42,6,48.3,102.43,Mainly Clear
3740,7549,11/10/2012 13:00,4.7,-8.0,39,6,48.3,102.39,Mostly Cloudy
3741,7550,11/10/2012 14:00,5.6,-7.6,38,4,48.3,102.37,Mostly Cloudy
3742,7551,11/10/2012 15:00,5.2,-6.9,41,11,48.3,102.4,Mostly Cloudy
3743,7552,11/10/2012 16:00,3.6,-8.2,42,9,48.3,102.39,Mostly Cloudy
3744,7553,11/10/2012 17:00,3.5,-7.8,43,7,25.0,102.47,Mostly Cloudy
3745,7554,11/10/2012 18:00,3.4,-7.0,46,7,25.0,102.53,Mostly Cloudy
3746,7555,11/10/2012 19:00,2.6,-6.4,51,7,25.0,102.58,Mainly Clear
3747,7556,11/10/2012 20:00,2.6,-5.3,56,15,25.0,102.56,Mainly Clear
3748,7558,11/10/2012 22:00,0.9,-4.6,67,11,25.0,102.55,Mainly Clear
3749,7559,11/10/2012 23:00,1.1,-6.7,56,11,25.0,102.5,Mainly Clear
3750,7560,11/11/2012 0:00,2.4,-7.2,49,7,25.0,102.45,Mostly Cloudy
3751,7561,11/11/2012 1:00,2.7,-7.3,48,13,25.0,102.34,Mostly Cloudy
3752,7572,11/11/2012 12:00,3.7,0.3,78,24,24.1,102.15,Mostly Cloudy
3753,7573,11/11/2012 13:00,5.5,1.4,75,17,48.3,102.11,Mainly Clear
3754,7575,11/11/2012 15:00,7.0,1.9,70,19,48.3,102.07,Mainly Clear
3755,7576,11/11/2012 16:00,6.6,1.8,71,20,24.1,102.07,Mostly Cloudy
3756,7577,11/11/2012 17:00,4.8,1.5,79,17,25.0,102.12,Mostly Cloudy
3757,7578,11/11/2012 18:00,3.3,1.1,85,13,25.0,102.13,Mainly Clear
3758,7581,11/11/2012 21:00,1.3,-0.3,89,15,25.0,102.13,Mainly Clear
3759,7584,11/12/2012 0:00,0.9,-0.3,92,19,19.3,101.99,Mainly Clear
3760,7585,11/12/2012 1:00,0.6,-0.8,90,17,25.0,101.97,Mainly Clear
3761,7586,11/12/2012 2:00,0.4,-0.7,92,15,19.3,101.98,Mainly Clear
3762,7590,11/12/2012 6:00,-0.3,-1.2,94,13,19.3,101.87,Mainly Clear
3763,7591,11/12/2012 7:00,-0.2,-1.0,94,11,16.1,101.9,Mainly Clear
3764,7592,11/12/2012 8:00,1.0,0.0,93,9,19.3,101.88,Mainly Clear
3765,7593,11/12/2012 9:00,4.2,1.8,84,7,19.3,101.83,Mainly Clear
3766,7594,11/12/2012 10:00,7.2,3.3,76,6,19.3,101.78,Mostly Cloudy
3767,7595,11/12/2012 11:00,11.8,5.3,64,6,19.3,101.71,Mostly Cloudy
3768,7596,11/12/2012 12:00,17.5,8.5,55,13,19.3,101.61,Mostly Cloudy
3769,7597,11/12/2012 13:00,16.9,8.4,57,22,24.1,101.52,Mostly Cloudy
3770,7601,11/12/2012 17:00,17.1,7.5,53,33,25.0,101.13,Mostly Cloudy
3771,7602,11/12/2012 18:00,17.1,7.3,52,35,25.0,101.09,Mainly Clear
3772,7603,11/12/2012 19:00,17.1,7.8,54,32,25.0,100.98,Mainly Clear
3773,7604,11/12/2012 20:00,16.4,7.5,56,33,25.0,100.91,Mostly Cloudy
3774,7616,11/13/2012 8:00,5.2,0.9,74,33,24.1,101.89,Mostly Cloudy
3775,7617,11/13/2012 9:00,4.6,-1.2,66,32,24.1,101.95,Mostly Cloudy
3776,7618,11/13/2012 10:00,4.7,-1.3,65,15,24.1,102.07,Mostly Cloudy
3777,7619,11/13/2012 11:00,4.8,-2.0,61,30,48.3,102.09,Mostly Cloudy
3778,7620,11/13/2012 12:00,6.1,-1.8,57,28,48.3,102.08,Mostly Cloudy
3779,7621,11/13/2012 13:00,5.3,-3.2,54,33,48.3,102.13,Mostly Cloudy
3780,7622,11/13/2012 14:00,5.6,-6.5,41,30,24.1,102.18,Mainly Clear
3781,7623,11/13/2012 15:00,5.4,-2.9,55,28,24.1,102.25,Mainly Clear
3782,7624,11/13/2012 16:00,4.9,-5.1,48,24,24.1,102.33,Mainly Clear
3783,7644,11/14/2012 12:00,4.8,-6.4,44,7,24.1,102.955,Mainly Clear
3784,7645,11/14/2012 13:00,4.8,-6.6,43,4,48.3,102.955,Mainly Clear
3785,7648,11/14/2012 16:00,4.2,-7.4,43,6,48.3,102.955,Mainly Clear
3786,7649,11/14/2012 17:00,3.6,-7.2,45,7,24.1,102.955,Mainly Clear
3787,7657,11/15/2012 1:00,-2.0,-5.1,79,9,25.0,102.955,Mainly Clear
3788,7658,11/15/2012 2:00,-2.3,-5.1,81,13,25.0,102.955,Mainly Clear
3789,7659,11/15/2012 3:00,-2.9,-5.4,83,9,25.0,102.955,Mainly Clear
3790,7661,11/15/2012 5:00,-2.9,-6.0,79,13,25.0,102.94,Mainly Clear
3791,7662,11/15/2012 6:00,-3.1,-6.1,80,15,25.0,102.91,Mainly Clear
3792,7663,11/15/2012 7:00,-2.9,-5.9,80,13,24.1,102.94,Mostly Cloudy
3793,7669,11/15/2012 13:00,2.6,-5.6,55,13,24.1,102.65,Mostly Cloudy
3794,7670,11/15/2012 14:00,2.6,-5.5,55,11,24.1,102.59,Mostly Cloudy
3795,7671,11/15/2012 15:00,2.4,-5.8,55,13,24.1,102.55,Mainly Clear
3796,7672,11/15/2012 16:00,1.8,-5.5,58,11,24.1,102.53,Mainly Clear
3797,7673,11/15/2012 17:00,1.2,-5.9,59,9,25.0,102.53,Mainly Clear
3798,7686,11/16/2012 6:00,-5.4,-6.4,93,4,16.1,102.48,Mostly Cloudy
3799,7687,11/16/2012 7:00,-5.2,-6.5,91,4,16.1,102.49,Mostly Cloudy
3800,7688,11/16/2012 8:00,-3.2,-4.8,89,0,19.3,102.54,Mostly Cloudy
3801,7689,11/16/2012 9:00,0.4,-1.7,86,9,19.3,102.55,Mostly Cloudy
3802,7690,11/16/2012 10:00,2.0,-2.0,75,13,24.1,102.57,Mainly Clear
3803,7691,11/16/2012 11:00,3.1,-2.5,67,15,24.1,102.53,Mostly Cloudy
3804,7692,11/16/2012 12:00,3.9,-2.8,62,17,24.1,102.48,Mainly Clear
3805,7693,11/16/2012 13:00,4.9,-2.6,58,15,24.1,102.49,Mainly Clear
3806,7694,11/16/2012 14:00,5.3,-2.1,59,13,24.1,102.5,Mainly Clear
3807,7695,11/16/2012 15:00,5.5,-1.9,59,9,24.1,102.5,Mostly Cloudy
3808,7696,11/16/2012 16:00,4.8,-2.0,61,13,24.1,102.55,Mostly Cloudy
3809,7699,11/16/2012 19:00,3.7,-1.7,68,13,25.0,102.69,Mostly Cloudy
3810,7700,11/16/2012 20:00,3.3,-1.7,70,9,25.0,102.75,Mostly Cloudy
3811,7701,11/16/2012 21:00,0.8,-2.5,79,9,25.0,102.79,Mainly Clear
3812,7702,11/16/2012 22:00,-0.9,-3.1,85,11,25.0,102.81,Mainly Clear
3813,7703,11/16/2012 23:00,-1.5,-3.5,86,13,25.0,102.84,Mainly Clear
3814,7706,11/17/2012 2:00,-2.4,-4.2,87,11,25.0,102.955,Mainly Clear
3815,7711,11/17/2012 7:00,-3.2,-8.2,68,13,24.1,102.955,Mainly Clear
3816,7712,11/17/2012 8:00,-2.7,-8.2,66,15,24.1,102.955,Mainly Clear
3817,7713,11/17/2012 9:00,-2.1,-8.9,60,15,24.1,102.955,Mainly Clear
3818,7714,11/17/2012 10:00,-1.0,-8.9,55,7,48.3,102.955,Mostly Cloudy
3819,7715,11/17/2012 11:00,-0.1,-9.1,51,4,48.3,102.955,Mostly Cloudy
3820,7716,11/17/2012 12:00,1.2,-9.0,46,4,48.3,102.955,Mainly Clear
3821,7717,11/17/2012 13:00,2.3,-8.3,45,4,48.3,102.955,Mainly Clear
3822,7718,11/17/2012 14:00,2.8,-7.4,47,6,48.3,102.955,Mainly Clear
3823,7719,11/17/2012 15:00,2.4,-7.4,48,6,48.3,102.955,Mainly Clear
3824,7720,11/17/2012 16:00,2.0,-7.3,50,4,48.3,102.955,Mainly Clear
3825,7722,11/17/2012 18:00,-1.7,-7.9,63,4,25.0,102.955,Mainly Clear
3826,7734,11/18/2012 6:00,-5.4,-7.4,86,9,25.0,102.955,Mainly Clear
3827,7735,11/18/2012 7:00,-6.4,-8.4,86,9,24.1,102.955,Mostly Cloudy
3828,7738,11/18/2012 10:00,-0.5,-6.8,62,7,24.1,102.955,Mostly Cloudy
3829,7739,11/18/2012 11:00,1.9,-6.5,54,7,48.3,102.955,Mostly Cloudy
3830,7740,11/18/2012 12:00,4.1,-10.1,35,4,48.3,102.955,Mostly Cloudy
3831,7741,11/18/2012 13:00,4.0,-11.6,31,6,48.3,102.955,Mostly Cloudy
3832,7742,11/18/2012 14:00,4.5,-10.6,32,7,48.3,102.955,Mostly Cloudy
3833,7743,11/18/2012 15:00,4.5,-11.9,29,9,48.3,102.955,Mostly Cloudy
3834,7744,11/18/2012 16:00,2.7,-9.3,41,9,24.1,102.955,Mostly Cloudy
3835,7745,11/18/2012 17:00,1.5,-8.5,47,9,25.0,102.955,Mostly Cloudy
3836,7746,11/18/2012 18:00,2.6,-7.5,47,9,25.0,102.955,Mostly Cloudy
3837,7747,11/18/2012 19:00,1.1,-7.0,55,4,25.0,102.955,Mostly Cloudy
3838,7748,11/18/2012 20:00,-1.8,-6.8,69,6,25.0,102.955,Mostly Cloudy
3839,7749,11/18/2012 21:00,-0.6,-7.1,61,11,25.0,102.955,Mainly Clear
3840,7752,11/19/2012 0:00,-1.8,-5.7,75,7,25.0,102.955,Mostly Cloudy
3841,7754,11/19/2012 2:00,-3.1,-6.4,78,13,25.0,102.955,Mostly Cloudy
3842,7755,11/19/2012 3:00,-3.6,-6.9,78,9,25.0,102.955,Mostly Cloudy
3843,7756,11/19/2012 4:00,-3.7,-6.9,78,6,25.0,102.955,Mostly Cloudy
3844,7757,11/19/2012 5:00,-4.0,-7.1,79,9,25.0,102.955,Mainly Clear
3845,7760,11/19/2012 8:00,-2.8,-5.9,79,11,24.1,102.955,Mainly Clear
3846,7762,11/19/2012 10:00,1.3,-3.4,71,7,19.3,102.9,Mainly Clear
3847,7763,11/19/2012 11:00,2.4,-3.4,65,6,24.1,102.83,Mainly Clear
3848,7765,11/19/2012 13:00,4.9,-0.4,69,6,19.3,102.64,Mainly Clear
3849,7766,11/19/2012 14:00,5.9,-0.9,62,6,19.3,102.54,Mainly Clear
3850,7767,11/19/2012 15:00,6.2,-1.2,59,4,24.1,102.5,Mainly Clear
3851,7768,11/19/2012 16:00,3.7,-2.0,66,6,24.1,102.45,Mainly Clear
3852,7770,11/19/2012 18:00,1.1,-1.9,80,4,19.3,102.39,Mainly Clear
3853,7771,11/19/2012 19:00,0.1,-2.9,80,4,25.0,102.33,Mainly Clear
3854,7773,11/19/2012 21:00,-2.5,-3.8,91,4,19.3,102.23,Mainly Clear
3855,7786,11/20/2012 10:00,1.9,-1.9,76,9,12.9,102.0,Mostly Cloudy
3856,7789,11/20/2012 13:00,5.5,-1.0,63,4,11.3,101.83,Mostly Cloudy
3857,7790,11/20/2012 14:00,5.8,-1.6,59,6,12.9,101.77,Mostly Cloudy
3858,7794,11/20/2012 18:00,2.4,-0.9,79,6,19.3,101.82,Mostly Cloudy
3859,7795,11/20/2012 19:00,1.9,-1.1,80,7,16.1,101.85,Mostly Cloudy
3860,7796,11/20/2012 20:00,3.4,-2.0,68,9,19.3,101.86,Mostly Cloudy
3861,7797,11/20/2012 21:00,1.9,-2.5,73,9,25.0,101.84,Mostly Cloudy
3862,7798,11/20/2012 22:00,1.9,-2.3,74,7,25.0,101.81,Mostly Cloudy
3863,7799,11/20/2012 23:00,2.0,-2.3,73,9,25.0,101.83,Mostly Cloudy
3864,7800,11/21/2012 0:00,3.1,-2.1,69,6,25.0,101.8,Mostly Cloudy
3865,7801,11/21/2012 1:00,0.6,-2.3,81,6,25.0,101.82,Mostly Cloudy
3866,7802,11/21/2012 2:00,0.4,-2.5,81,7,25.0,101.82,Mainly Clear
3867,7803,11/21/2012 3:00,-0.7,-3.3,83,9,25.0,101.83,Mainly Clear
3868,7804,11/21/2012 4:00,-1.9,-3.7,87,9,25.0,101.85,Mainly Clear
3869,7805,11/21/2012 5:00,-1.4,-3.4,86,11,25.0,101.86,Mostly Cloudy
3870,7806,11/21/2012 6:00,-1.6,-3.6,86,4,12.9,101.92,Mostly Cloudy
3871,7808,11/21/2012 8:00,0.4,-2.2,83,7,12.9,102.01,Mostly Cloudy
3872,7809,11/21/2012 9:00,2.9,-1.6,72,7,16.1,102.01,Mostly Cloudy
3873,7810,11/21/2012 10:00,5.2,-1.5,62,4,19.3,101.98,Mainly Clear
3874,7811,11/21/2012 11:00,6.3,-0.3,63,4,19.3,101.93,Mainly Clear
3875,7812,11/21/2012 12:00,7.2,-0.4,58,6,19.3,101.89,Mainly Clear
3876,7813,11/21/2012 13:00,7.4,-0.6,57,7,19.3,101.89,Mainly Clear
3877,7814,11/21/2012 14:00,8.3,-1.6,50,4,19.3,101.86,Mainly Clear
3878,7815,11/21/2012 15:00,8.2,-2.1,48,4,19.3,101.87,Mainly Clear
3879,7816,11/21/2012 16:00,5.5,-1.5,61,7,24.1,101.86,Mainly Clear
3880,7817,11/21/2012 17:00,2.8,-2.0,71,7,25.0,101.85,Mainly Clear
3881,7818,11/21/2012 18:00,2.1,-1.0,80,6,25.0,101.89,Mainly Clear
3882,7819,11/21/2012 19:00,2.5,-0.8,79,4,25.0,101.89,Mainly Clear
3883,7820,11/21/2012 20:00,1.4,-0.9,85,6,25.0,101.9,Mostly Cloudy
3884,7821,11/21/2012 21:00,2.2,-0.5,82,6,25.0,101.88,Mainly Clear
3885,7822,11/21/2012 22:00,0.9,-1.4,85,4,19.3,101.88,Mostly Cloudy
3886,7823,11/21/2012 23:00,1.0,-0.7,88,4,19.3,101.86,Mainly Clear
3887,7824,11/22/2012 0:00,1.3,0.4,94,4,16.1,101.87,Mainly Clear
3888,7831,11/22/2012 7:00,0.8,-2.6,78,4,24.1,101.85,Mainly Clear
3889,7832,11/22/2012 8:00,1.7,-1.9,77,4,24.1,101.87,Mainly Clear
3890,7835,11/22/2012 11:00,8.4,-0.8,52,6,24.1,101.72,Mainly Clear
3891,7836,11/22/2012 12:00,10.8,-1.5,42,13,24.1,101.6,Mainly Clear
3892,7837,11/22/2012 13:00,11.6,-3.2,35,13,24.1,101.52,Mainly Clear
3893,7838,11/22/2012 14:00,12.1,-2.6,36,9,24.1,101.45,Mainly Clear
3894,7839,11/22/2012 15:00,10.7,-1.2,44,15,24.1,101.39,Mainly Clear
3895,7840,11/22/2012 16:00,9.2,0.4,54,15,24.1,101.37,Mainly Clear
3896,7841,11/22/2012 17:00,7.1,0.1,61,15,25.0,101.35,Mainly Clear
3897,7842,11/22/2012 18:00,6.9,0.5,64,15,25.0,101.34,Mainly Clear
3898,7843,11/22/2012 19:00,6.3,0.6,67,6,25.0,101.3,Mainly Clear
3899,7844,11/22/2012 20:00,5.9,0.4,68,7,25.0,101.28,Mainly Clear
3900,7845,11/22/2012 21:00,5.6,0.8,71,17,25.0,101.24,Mainly Clear
3901,7846,11/22/2012 22:00,3.4,-0.9,73,13,25.0,101.16,Mainly Clear
3902,7847,11/22/2012 23:00,4.4,-1.3,66,11,25.0,101.11,Mainly Clear
3903,7849,11/23/2012 1:00,2.7,-1.0,77,17,25.0,100.96,Mainly Clear
3904,7850,11/23/2012 2:00,2.6,-1.3,75,11,25.0,100.96,Mainly Clear
3905,7851,11/23/2012 3:00,2.8,-2.2,70,6,25.0,100.9,Mainly Clear
3906,7852,11/23/2012 4:00,1.2,-2.5,76,11,25.0,100.79,Mainly Clear
3907,7853,11/23/2012 5:00,2.5,-2.4,70,11,25.0,100.69,Mostly Cloudy
3908,7854,11/23/2012 6:00,3.7,-2.1,66,13,25.0,100.61,Mostly Cloudy
3909,7855,11/23/2012 7:00,4.1,-1.5,67,13,48.3,100.54,Mostly Cloudy
3910,7857,11/23/2012 9:00,6.2,-1.2,59,20,48.3,100.34,Mostly Cloudy
3911,7858,11/23/2012 10:00,8.2,0.3,57,17,24.1,100.25,Mostly Cloudy
3912,7859,11/23/2012 11:00,10.4,0.4,50,24,24.1,100.11,Mostly Cloudy
3913,7860,11/23/2012 12:00,12.1,1.5,48,22,24.1,99.93,Mostly Cloudy
3914,7867,11/23/2012 19:00,8.7,6.6,87,20,25.0,99.7,Mostly Cloudy
3915,7876,11/24/2012 4:00,4.1,-2.2,63,15,25.0,99.56,Mostly Cloudy
3916,7877,11/24/2012 5:00,3.0,-1.9,70,35,25.0,99.57,Mainly Clear
3917,7878,11/24/2012 6:00,2.8,-1.8,72,28,25.0,99.58,Mostly Cloudy
3918,7879,11/24/2012 7:00,2.6,-1.7,73,32,25.0,99.54,Mostly Cloudy
3919,7880,11/24/2012 8:00,2.2,-2.0,74,30,25.0,99.57,Mostly Cloudy
3920,7886,11/24/2012 14:00,1.3,-6.3,57,15,24.1,99.65,Mostly Cloudy
3921,7888,11/24/2012 16:00,-0.5,-5.1,71,28,24.1,99.74,Mostly Cloudy
3922,7893,11/24/2012 21:00,-1.5,-7.8,62,28,25.0,99.96,Mostly Cloudy
3923,7894,11/24/2012 22:00,-1.8,-8.3,61,24,25.0,100.0,Mostly Cloudy
3924,7895,11/24/2012 23:00,-2.1,-8.8,60,32,25.0,100.0,Mostly Cloudy
3925,7896,11/25/2012 0:00,-2.6,-9.0,61,30,25.0,100.04,Mostly Cloudy
3926,7897,11/25/2012 1:00,-2.9,-9.3,61,26,25.0,100.08,Mainly Clear
3927,7899,11/25/2012 3:00,-3.6,-9.8,62,26,25.0,100.19,Mainly Clear
3928,7900,11/25/2012 4:00,-4.1,-9.3,67,30,25.0,100.2,Mainly Clear
3929,7901,11/25/2012 5:00,-4.3,-10.0,64,32,25.0,100.25,Mainly Clear
3930,7902,11/25/2012 6:00,-4.3,-9.7,66,28,25.0,100.26,Mainly Clear
3931,7903,11/25/2012 7:00,-4.8,-9.5,70,26,25.0,100.27,Mainly Clear
3932,7904,11/25/2012 8:00,-4.3,-9.4,68,24,24.1,100.3,Mainly Clear
3933,7905,11/25/2012 9:00,-3.8,-9.4,65,33,24.1,100.33,Mainly Clear
3934,7906,11/25/2012 10:00,-3.0,-9.5,61,32,48.3,100.33,Mostly Cloudy
3935,7910,11/25/2012 14:00,-1.8,-10.3,52,30,48.3,100.22,Mostly Cloudy
3936,7911,11/25/2012 15:00,-1.8,-10.9,50,28,48.3,100.22,Mostly Cloudy
3937,7912,11/25/2012 16:00,-2.1,-10.9,51,24,48.3,100.24,Mostly Cloudy
3938,7916,11/25/2012 20:00,-3.7,-10.7,58,17,25.0,100.42,Mostly Cloudy
3939,7917,11/25/2012 21:00,-3.4,-10.3,59,15,25.0,100.46,Mostly Cloudy
3940,7918,11/25/2012 22:00,-3.6,-10.3,60,13,25.0,100.47,Mostly Cloudy
3941,7919,11/25/2012 23:00,-4.2,-10.5,61,15,25.0,100.5,Mostly Cloudy
3942,7920,11/26/2012 0:00,-4.9,-10.1,67,9,25.0,100.52,Mostly Cloudy
3943,7921,11/26/2012 1:00,-6.5,-10.6,73,7,25.0,100.53,Mainly Clear
3944,7922,11/26/2012 2:00,-5.0,-10.0,68,7,25.0,100.57,Mainly Clear
3945,7928,11/26/2012 8:00,-5.5,-10.6,67,19,24.1,101.03,Mainly Clear
3946,7929,11/26/2012 9:00,-4.2,-11.0,59,17,48.3,101.14,Mainly Clear
3947,7932,11/26/2012 12:00,-1.3,-10.6,49,24,48.3,101.33,Mainly Clear
3948,7946,11/27/2012 2:00,-7.0,-9.3,84,4,25.0,102.04,Mainly Clear
3949,7951,11/27/2012 7:00,-4.4,-8.8,71,9,24.1,102.05,Mostly Cloudy
3950,7952,11/27/2012 8:00,-5.2,-8.4,78,9,24.1,102.15,Mostly Cloudy
3951,7953,11/27/2012 9:00,-4.3,-8.6,72,9,24.1,102.13,Mostly Cloudy
3952,7954,11/27/2012 10:00,-3.1,-7.8,70,9,24.1,102.2,Mostly Cloudy
3953,7955,11/27/2012 11:00,-2.4,-7.8,66,6,24.1,102.2,Mostly Cloudy
3954,7956,11/27/2012 12:00,-0.7,-7.4,60,4,24.1,102.16,Mainly Clear
3955,7957,11/27/2012 13:00,0.3,-7.2,57,7,24.1,102.12,Mainly Clear
3956,7958,11/27/2012 14:00,0.5,-6.9,58,6,24.1,102.08,Mainly Clear
3957,7959,11/27/2012 15:00,0.4,-6.8,58,7,24.1,102.07,Mainly Clear
3958,7965,11/27/2012 21:00,-3.0,-6.5,77,7,25.0,102.13,Mainly Clear
3959,7966,11/27/2012 22:00,-3.4,-6.0,82,7,25.0,102.1,Mostly Cloudy
3960,7967,11/27/2012 23:00,-3.8,-6.5,81,7,25.0,102.07,Mostly Cloudy
3961,7968,11/28/2012 0:00,-3.8,-6.2,83,7,25.0,102.03,Mainly Clear
3962,7969,11/28/2012 1:00,-4.0,-6.0,86,6,25.0,101.99,Mainly Clear
3963,7970,11/28/2012 2:00,-3.6,-6.1,83,4,25.0,101.99,Mostly Cloudy
3964,7971,11/28/2012 3:00,-3.4,-5.9,83,11,25.0,101.96,Mostly Cloudy
3965,7972,11/28/2012 4:00,-3.4,-5.5,85,4,25.0,101.93,Mostly Cloudy
3966,7977,11/28/2012 9:00,-1.1,-3.4,84,6,24.1,101.79,Mostly Cloudy
3967,7978,11/28/2012 10:00,0.0,-4.1,74,4,24.1,101.76,Mostly Cloudy
3968,7990,11/28/2012 22:00,-0.7,-6.1,67,30,25.0,101.45,Mostly Cloudy
3969,7991,11/28/2012 23:00,-2.6,-7.5,69,20,25.0,101.56,Mainly Clear
3970,7997,11/29/2012 5:00,-8.4,-11.7,77,6,25.0,101.85,Mainly Clear
3971,7998,11/29/2012 6:00,-6.0,-10.2,72,13,25.0,101.84,Mostly Cloudy
3972,8014,11/29/2012 22:00,-7.3,-14.0,59,17,25.0,102.29,Mostly Cloudy
3973,8015,11/29/2012 23:00,-9.4,-15.3,62,20,25.0,102.42,Mainly Clear
3974,8022,11/30/2012 6:00,-13.0,-16.6,74,9,25.0,102.955,Mainly Clear
3975,8023,11/30/2012 7:00,-13.4,-17.3,72,9,24.1,102.955,Mainly Clear
3976,8024,11/30/2012 8:00,-12.8,-16.7,73,13,48.3,102.955,Mainly Clear
3977,8025,11/30/2012 9:00,-11.9,-16.0,72,7,48.3,102.955,Mainly Clear
3978,8026,11/30/2012 10:00,-10.4,-16.3,62,11,48.3,102.955,Mostly Cloudy
3979,8027,11/30/2012 11:00,-9.9,-15.9,61,9,48.3,102.955,Mostly Cloudy
3980,8028,11/30/2012 12:00,-9.3,-15.2,62,0,48.3,102.955,Mostly Cloudy
3981,8029,11/30/2012 13:00,-9.0,-15.2,61,6,48.3,102.955,Mostly Cloudy
3982,8030,11/30/2012 14:00,-9.0,-15.6,59,6,48.3,102.955,Mostly Cloudy
3983,8035,11/30/2012 19:00,-9.7,-15.8,61,15,25.0,102.955,Mostly Cloudy
3984,8037,11/30/2012 21:00,-10.4,-16.9,59,19,25.0,102.955,Mainly Clear
3985,8038,11/30/2012 22:00,-10.7,-16.8,61,19,25.0,102.955,Mainly Clear
3986,8039,11/30/2012 23:00,-10.8,-16.1,65,17,25.0,102.955,Mainly Clear
3987,8041,12/1/2012 1:00,-11.0,-16.5,64,13,25.0,102.955,Mainly Clear
3988,8042,12/1/2012 2:00,-11.1,-16.5,64,20,25.0,102.955,Mainly Clear
3989,8043,12/1/2012 3:00,-12.5,-15.7,77,15,25.0,102.955,Mainly Clear
3990,8044,12/1/2012 4:00,-11.8,-15.1,76,17,25.0,102.955,Mostly Cloudy
3991,8045,12/1/2012 5:00,-11.9,-14.6,80,20,25.0,102.955,Mostly Cloudy
3992,8046,12/1/2012 6:00,-11.8,-15.0,77,26,25.0,102.955,Mostly Cloudy
3993,8048,12/1/2012 8:00,-10.9,-15.3,70,19,24.1,102.955,Mostly Cloudy
3994,8090,12/3/2012 2:00,6.8,5.3,90,28,25.0,100.99,Mostly Cloudy
3995,8091,12/3/2012 3:00,5.5,2.9,83,26,25.0,101.22,Mostly Cloudy
3996,8092,12/3/2012 4:00,4.1,1.6,84,13,25.0,101.35,Mostly Cloudy
3997,8093,12/3/2012 5:00,3.2,0.6,83,13,25.0,101.48,Mostly Cloudy
3998,8095,12/3/2012 7:00,1.2,-0.6,88,9,25.0,101.7,Mainly Clear
3999,8096,12/3/2012 8:00,2.2,0.0,85,11,24.1,101.78,Mainly Clear
4000,8097,12/3/2012 9:00,3.6,1.0,83,11,48.3,101.87,Mostly Cloudy
4001,8098,12/3/2012 10:00,3.9,1.2,83,13,24.1,101.99,Mostly Cloudy
4002,8114,12/4/2012 2:00,3.9,1.1,82,6,25.0,101.81,Mostly Cloudy
4003,8116,12/4/2012 4:00,3.1,1.3,88,20,25.0,101.56,Mainly Clear
4004,8117,12/4/2012 5:00,2.9,1.5,90,13,25.0,101.52,Mostly Cloudy
4005,8122,12/4/2012 10:00,8.0,6.3,89,19,19.3,101.16,Mostly Cloudy
4006,8124,12/4/2012 12:00,11.5,8.3,81,19,24.1,100.92,Mostly Cloudy
4007,8140,12/5/2012 4:00,7.2,4.8,85,15,25.0,100.55,Mainly Clear
4008,8142,12/5/2012 6:00,5.7,2.7,81,24,25.0,100.68,Mostly Cloudy
4009,8143,12/5/2012 7:00,5.2,0.4,71,30,25.0,100.74,Mostly Cloudy
4010,8149,12/5/2012 13:00,1.3,-7.0,54,30,24.1,101.29,Mostly Cloudy
4011,8150,12/5/2012 14:00,0.8,-6.7,57,35,24.1,101.34,Mostly Cloudy
4012,8151,12/5/2012 15:00,0.1,-7.6,56,26,24.1,101.47,Mostly Cloudy
4013,8154,12/5/2012 18:00,-0.8,-8.0,58,22,25.0,101.76,Mostly Cloudy
4014,8156,12/5/2012 20:00,-1.4,-8.6,58,19,25.0,101.88,Mostly Cloudy
4015,8157,12/5/2012 21:00,-1.9,-8.7,60,24,25.0,101.93,Mostly Cloudy
4016,8158,12/5/2012 22:00,-1.6,-9.5,55,26,25.0,102.01,Mostly Cloudy
4017,8159,12/5/2012 23:00,-1.8,-9.7,55,20,25.0,102.07,Mostly Cloudy
4018,8160,12/6/2012 0:00,-2.1,-9.7,56,20,25.0,102.1,Mostly Cloudy
4019,8161,12/6/2012 1:00,-2.3,-9.3,59,17,25.0,102.12,Mostly Cloudy
4020,8162,12/6/2012 2:00,-2.9,-9.4,61,17,25.0,102.21,Mostly Cloudy
4021,8163,12/6/2012 3:00,-3.4,-9.1,65,15,25.0,102.26,Mostly Cloudy
4022,8164,12/6/2012 4:00,-3.9,-9.0,68,11,25.0,102.33,Mostly Cloudy
4023,8165,12/6/2012 5:00,-5.2,-9.7,71,9,25.0,102.38,Mainly Clear
4024,8166,12/6/2012 6:00,-5.7,-9.7,73,13,25.0,102.45,Mainly Clear
4025,8167,12/6/2012 7:00,-5.9,-10.0,73,11,24.1,102.47,Mainly Clear
4026,8168,12/6/2012 8:00,-4.6,-8.8,72,7,24.1,102.52,Mainly Clear
4027,8169,12/6/2012 9:00,-3.4,-8.9,66,9,48.3,102.53,Mostly Cloudy
4028,8170,12/6/2012 10:00,-2.6,-8.4,64,13,48.3,102.56,Mostly Cloudy
4029,8171,12/6/2012 11:00,-1.8,-8.9,58,13,48.3,102.46,Mainly Clear
4030,8172,12/6/2012 12:00,-1.8,-9.4,56,6,48.3,102.37,Mainly Clear
4031,8173,12/6/2012 13:00,-1.0,-8.3,58,7,48.3,102.27,Mainly Clear
4032,8174,12/6/2012 14:00,-0.9,-8.7,55,13,48.3,102.21,Mainly Clear
4033,8175,12/6/2012 15:00,-1.2,-7.9,60,11,48.3,102.18,Mainly Clear
4034,8176,12/6/2012 16:00,-2.8,-7.9,68,7,48.3,102.11,Mainly Clear
4035,8177,12/6/2012 17:00,-2.8,-7.6,69,7,25.0,102.1,Mainly Clear
4036,8178,12/6/2012 18:00,-2.7,-6.8,73,13,25.0,102.06,Mostly Cloudy
4037,8179,12/6/2012 19:00,-2.8,-7.4,71,9,25.0,102.05,Mostly Cloudy
4038,8180,12/6/2012 20:00,-1.9,-7.4,66,7,25.0,101.95,Mostly Cloudy
4039,8183,12/6/2012 23:00,-1.1,-6.0,69,7,25.0,101.73,Mostly Cloudy
4040,8184,12/7/2012 0:00,-1.3,-5.9,71,13,25.0,101.67,Mostly Cloudy
4041,8185,12/7/2012 1:00,-1.5,-5.7,73,7,25.0,101.58,Mostly Cloudy
4042,8186,12/7/2012 2:00,-1.3,-5.3,74,9,25.0,101.51,Mainly Clear
4043,8187,12/7/2012 3:00,-1.8,-5.3,77,9,25.0,101.46,Mainly Clear
4044,8188,12/7/2012 4:00,-2.7,-5.7,80,11,25.0,101.38,Mostly Cloudy
4045,8189,12/7/2012 5:00,-2.2,-5.5,78,11,25.0,101.3,Mostly Cloudy
4046,8191,12/7/2012 7:00,-2.8,-5.3,83,11,24.1,101.3,Mostly Cloudy
4047,8193,12/7/2012 9:00,-2.1,-4.7,82,7,24.1,101.32,Mostly Cloudy
4048,8194,12/7/2012 10:00,1.2,-5.8,60,9,48.3,101.26,Mostly Cloudy
4049,8195,12/7/2012 11:00,2.6,-5.0,57,4,48.3,101.24,Mostly Cloudy
4050,8202,12/7/2012 18:00,2.2,-3.5,66,7,25.0,101.13,Mostly Cloudy
4051,8235,12/9/2012 3:00,1.5,-0.5,87,17,25.0,101.47,Mainly Clear
4052,8236,12/9/2012 4:00,1.5,-0.3,88,13,25.0,101.59,Mostly Cloudy
4053,8279,12/10/2012 23:00,1.2,-2.1,79,20,25.0,99.78,Mostly Cloudy
4054,8282,12/11/2012 2:00,-1.1,-5.2,74,22,25.0,100.09,Mostly Cloudy
4055,8283,12/11/2012 3:00,-2.5,-6.0,77,24,25.0,100.27,Mostly Cloudy
4056,8284,12/11/2012 4:00,-4.5,-8.0,76,20,25.0,100.38,Mainly Clear
4057,8285,12/11/2012 5:00,-5.9,-9.6,75,17,25.0,100.51,Mainly Clear
4058,8286,12/11/2012 6:00,-7.3,-10.3,79,15,25.0,100.62,Mainly Clear
4059,8287,12/11/2012 7:00,-8.0,-11.5,76,15,24.1,100.78,Mainly Clear
4060,8288,12/11/2012 8:00,-8.4,-12.0,75,17,24.1,100.91,Mainly Clear
4061,8289,12/11/2012 9:00,-7.9,-12.0,72,19,24.1,101.03,Mainly Clear
4062,8290,12/11/2012 10:00,-7.1,-12.0,68,9,24.1,101.12,Mainly Clear
4063,8291,12/11/2012 11:00,-6.6,-12.2,64,7,24.1,101.1,Mainly Clear
4064,8292,12/11/2012 12:00,-6.1,-12.4,61,11,24.1,101.13,Mainly Clear
4065,8293,12/11/2012 13:00,-5.5,-11.1,65,17,24.1,101.18,Mainly Clear
4066,8294,12/11/2012 14:00,-5.2,-11.0,64,17,24.1,101.21,Mainly Clear
4067,8311,12/12/2012 7:00,-11.2,-12.4,91,4,24.1,102.19,Mainly Clear
4068,8312,12/12/2012 8:00,-7.3,-9.2,86,11,24.1,102.14,Mostly Cloudy
4069,8316,12/12/2012 12:00,-2.7,-6.5,75,7,19.3,102.14,Mostly Cloudy
4070,8317,12/12/2012 13:00,-3.0,-6.7,76,6,19.3,102.14,Mainly Clear
4071,8319,12/12/2012 15:00,-3.2,-6.7,77,6,19.3,102.17,Mostly Cloudy
4072,8320,12/12/2012 16:00,-2.8,-6.2,77,4,12.9,102.2,Mostly Cloudy
4073,8327,12/12/2012 23:00,-4.3,-5.8,89,4,16.1,102.45,Mainly Clear
4074,8342,12/13/2012 14:00,1.1,-2.1,79,11,19.3,102.28,Mostly Cloudy
4075,8343,12/13/2012 15:00,2.1,-1.9,75,7,19.3,102.25,Mainly Clear
4076,8344,12/13/2012 16:00,1.3,-2.1,78,9,19.3,102.21,Mainly Clear
4077,8345,12/13/2012 17:00,1.4,-1.8,79,19,25.0,102.1,Mainly Clear
4078,8346,12/13/2012 18:00,1.1,-2.0,80,19,25.0,102.01,Mostly Cloudy
4079,8347,12/13/2012 19:00,1.7,-2.5,74,15,25.0,101.99,Mainly Clear
4080,8348,12/13/2012 20:00,0.4,-2.5,81,11,25.0,101.98,Mainly Clear
4081,8349,12/13/2012 21:00,0.6,-2.3,81,15,25.0,101.9,Mostly Cloudy
4082,8353,12/14/2012 1:00,0.0,-3.0,80,17,25.0,101.62,Mostly Cloudy
4083,8356,12/14/2012 4:00,-0.2,-3.5,78,20,25.0,101.44,Mostly Cloudy
4084,8359,12/14/2012 7:00,2.0,-3.6,66,20,48.3,101.3,Mainly Clear
4085,8360,12/14/2012 8:00,1.5,-3.5,69,13,48.3,101.32,Mostly Cloudy
4086,8361,12/14/2012 9:00,2.3,-3.1,67,26,48.3,101.32,Mostly Cloudy
4087,8365,12/14/2012 13:00,3.3,-1.2,72,22,24.1,101.33,Mostly Cloudy
4088,8366,12/14/2012 14:00,3.2,-1.1,73,19,24.1,101.38,Mostly Cloudy
4089,8368,12/14/2012 16:00,2.8,-1.0,76,17,24.1,101.53,Mostly Cloudy
4090,8369,12/14/2012 17:00,2.5,-0.6,80,13,25.0,101.61,Mostly Cloudy
4091,8371,12/14/2012 19:00,1.8,-3.6,67,19,25.0,101.76,Mostly Cloudy
4092,8372,12/14/2012 20:00,0.8,-4.7,67,15,25.0,101.85,Mostly Cloudy
4093,8373,12/14/2012 21:00,-1.5,-6.4,69,22,25.0,101.96,Mainly Clear
4094,8374,12/14/2012 22:00,-2.9,-7.4,71,20,25.0,102.06,Mainly Clear
4095,8375,12/14/2012 23:00,-4.3,-8.6,72,22,25.0,102.13,Mainly Clear
4096,8386,12/15/2012 10:00,-9.9,-15.2,65,13,48.3,102.78,Mainly Clear
4097,8387,12/15/2012 11:00,-9.3,-14.9,64,19,48.3,102.74,Mainly Clear
4098,8388,12/15/2012 12:00,-9.1,-15.1,62,19,48.3,102.71,Mainly Clear
4099,8390,12/15/2012 14:00,-8.0,-14.2,61,13,48.3,102.59,Mainly Clear
4100,8391,12/15/2012 15:00,-7.8,-13.7,63,15,48.3,102.55,Mainly Clear
4101,8392,12/15/2012 16:00,-8.5,-14.8,60,20,48.3,102.54,Mainly Clear
4102,8393,12/15/2012 17:00,-8.7,-15.3,59,15,25.0,102.53,Mainly Clear
4103,8395,12/15/2012 19:00,-9.1,-14.7,64,20,25.0,102.58,Mainly Clear
4104,8397,12/15/2012 21:00,-9.0,-15.5,59,24,25.0,102.46,Mainly Clear
4105,8398,12/15/2012 22:00,-9.5,-15.0,64,19,25.0,102.47,Mostly Cloudy
4106,8513,12/20/2012 17:00,-0.3,-3.2,81,19,25.0,101.38,Mostly Cloudy
4107,8514,12/20/2012 18:00,0.2,-3.0,79,19,25.0,101.25,Mostly Cloudy
4108,8515,12/20/2012 19:00,0.3,-2.7,80,17,25.0,101.23,Mostly Cloudy
4109,8516,12/20/2012 20:00,0.1,-2.4,83,20,25.0,101.12,Mostly Cloudy
4110,8570,12/23/2012 2:00,-8.2,-12.5,71,30,25.0,100.36,Mostly Cloudy
4111,8581,12/23/2012 13:00,-7.4,-12.4,67,20,24.1,100.37,Mostly Cloudy
4112,8589,12/23/2012 21:00,-8.0,-11.2,78,9,25.0,100.62,Mainly Clear
4113,8590,12/23/2012 22:00,-9.0,-11.7,81,9,25.0,100.68,Mainly Clear
4114,8592,12/24/2012 0:00,-8.5,-10.7,84,15,25.0,100.8,Mostly Cloudy
4115,8596,12/24/2012 4:00,-10.0,-12.7,81,24,25.0,101.02,Mostly Cloudy
4116,8597,12/24/2012 5:00,-10.4,-13.3,79,19,25.0,101.07,Mostly Cloudy
4117,8598,12/24/2012 6:00,-10.9,-14.0,78,15,25.0,101.13,Mainly Clear
4118,8602,12/24/2012 10:00,-9.9,-13.4,76,11,48.3,101.45,Mainly Clear
4119,8603,12/24/2012 11:00,-9.0,-13.7,69,11,48.3,101.44,Mainly Clear
4120,8604,12/24/2012 12:00,-7.9,-13.3,65,9,48.3,101.43,Mainly Clear
4121,8605,12/24/2012 13:00,-7.6,-13.1,65,15,48.3,101.45,Mainly Clear
4122,8606,12/24/2012 14:00,-7.8,-13.7,63,15,48.3,101.46,Mainly Clear
4123,8607,12/24/2012 15:00,-7.5,-13.3,63,13,48.3,101.49,Mainly Clear
4124,8608,12/24/2012 16:00,-8.2,-13.3,67,11,24.1,101.45,Mainly Clear
4125,8609,12/24/2012 17:00,-9.7,-13.7,73,6,25.0,101.49,Mainly Clear
4126,8611,12/24/2012 19:00,-9.7,-13.1,76,7,25.0,101.43,Mainly Clear
4127,8612,12/24/2012 20:00,-9.6,-12.8,77,6,25.0,101.43,Mainly Clear
4128,8613,12/24/2012 21:00,-9.4,-13.2,74,7,25.0,101.44,Mainly Clear
4129,8614,12/24/2012 22:00,-9.8,-13.2,76,4,25.0,101.44,Mostly Cloudy
4130,8615,12/24/2012 23:00,-10.5,-12.8,83,4,25.0,101.48,Mostly Cloudy
4131,8616,12/25/2012 0:00,-9.0,-12.5,76,11,25.0,101.44,Mostly Cloudy
4132,8617,12/25/2012 1:00,-10.5,-13.0,82,6,25.0,101.51,Mostly Cloudy
4133,8618,12/25/2012 2:00,-10.6,-13.1,82,13,25.0,101.51,Mostly Cloudy
4134,8620,12/25/2012 4:00,-10.1,-13.2,78,15,24.1,101.49,Mostly Cloudy
4135,8629,12/25/2012 13:00,-8.7,-14.5,63,7,24.1,101.92,Mostly Cloudy
4136,8630,12/25/2012 14:00,-7.7,-14.1,60,6,48.3,101.95,Mainly Clear
4137,8634,12/25/2012 18:00,-8.9,-13.4,70,13,25.0,102.16,Mainly Clear
4138,8635,12/25/2012 19:00,-8.8,-12.6,74,19,25.0,102.27,Mainly Clear
4139,8636,12/25/2012 20:00,-9.4,-12.6,77,13,25.0,102.3,Mainly Clear
4140,8647,12/26/2012 7:00,-13.0,-14.4,89,7,25.0,102.46,Mainly Clear
4141,8648,12/26/2012 8:00,-13.7,-15.2,88,4,16.1,102.53,Mostly Cloudy
4142,8650,12/26/2012 10:00,-11.0,-13.2,84,15,24.1,102.54,Mainly Clear
4143,8651,12/26/2012 11:00,-11.3,-14.5,77,20,48.3,102.5,Mainly Clear
4144,8652,12/26/2012 12:00,-10.6,-14.3,74,20,48.3,102.36,Mainly Clear
4145,8653,12/26/2012 13:00,-10.3,-14.0,74,15,24.1,102.35,Mostly Cloudy
4146,8696,12/28/2012 8:00,-5.2,-7.0,87,17,24.1,101.15,Mostly Cloudy
4147,8697,12/28/2012 9:00,-5.5,-8.0,83,17,24.1,101.23,Mostly Cloudy
4148,8699,12/28/2012 11:00,-6.2,-8.8,82,24,48.3,101.24,Mainly Clear
4149,8700,12/28/2012 12:00,-7.2,-9.9,81,24,48.3,101.22,Mainly Clear
4150,8701,12/28/2012 13:00,-6.8,-9.8,79,20,48.3,101.17,Mainly Clear
4151,8702,12/28/2012 14:00,-6.5,-9.9,77,22,48.3,101.17,Mainly Clear
4152,8703,12/28/2012 15:00,-6.8,-10.3,76,24,48.3,101.22,Mainly Clear
4153,8704,12/28/2012 16:00,-7.7,-11.0,77,30,48.3,101.25,Mainly Clear
4154,8705,12/28/2012 17:00,-8.6,-12.0,76,26,25.0,101.34,Mainly Clear
4155,8706,12/28/2012 18:00,-9.0,-12.2,78,24,25.0,101.37,Mainly Clear
4156,8707,12/28/2012 19:00,-9.4,-12.3,79,22,25.0,101.37,Mainly Clear
4157,8708,12/28/2012 20:00,-9.8,-12.6,80,20,25.0,101.35,Mainly Clear
4158,8709,12/28/2012 21:00,-9.8,-12.5,81,19,25.0,101.36,Mainly Clear
4159,8710,12/28/2012 22:00,-9.9,-12.5,81,17,25.0,101.38,Mainly Clear
4160,8711,12/28/2012 23:00,-10.9,-13.2,83,13,25.0,101.38,Mainly Clear
4161,8712,12/29/2012 0:00,-11.6,-13.5,86,13,25.0,101.35,Mainly Clear
4162,8743,12/30/2012 7:00,-9.9,-13.2,77,19,25.0,100.48,Mostly Cloudy
4163,8748,12/30/2012 12:00,-12.2,-15.7,75,26,48.3,100.91,Mostly Cloudy
4164,8749,12/30/2012 13:00,-12.4,-16.2,73,15,48.3,100.92,Mostly Cloudy
4165,8750,12/30/2012 14:00,-11.8,-16.1,70,15,48.3,100.96,Mainly Clear
4166,8751,12/30/2012 15:00,-11.3,-15.6,70,32,48.3,101.05,Mainly Clear
4167,8752,12/30/2012 16:00,-11.4,-15.5,72,26,48.3,101.15,Mainly Clear
4168,8753,12/30/2012 17:00,-12.1,-15.8,74,28,25.0,101.26,Mainly Clear
4169,8754,12/30/2012 18:00,-12.6,-16.0,76,24,25.0,101.36,Mainly Clear
4170,8755,12/30/2012 19:00,-13.4,-16.5,77,26,25.0,101.47,Mainly Clear
4171,8757,12/30/2012 21:00,-13.8,-16.5,80,20,25.0,101.5,Mainly Clear
4172,8758,12/30/2012 22:00,-13.7,-16.3,81,19,25.0,101.54,Mainly Clear
4173,8759,12/30/2012 23:00,-12.1,-15.1,78,28,25.0,101.52,Mostly Cloudy
4174,8763,12/31/2012 3:00,-11.8,-14.4,81,6,25.0,101.42,Mostly Cloudy
